{
"type": "FeatureCollection",
"name": "areadeestudio_ccsa",
"crs": { "type": "name", "properties": { "name": "urn:ogc:def:crs:OGC:1.3:CRS84" } },
"features": [
{ "type": "Feature", "properties": { "fid": 17, "CANTÓN": "Mora,Santa Ana,Santa Ana,Santa Ana,Santa Ana,Santa Ana,Santa Ana", "DISTRITO": "Colón,Santa Ana,Piedades,Uruca,Brasil,Pozos,Salitral" }, "geometry": { "type": "MultiPolygon", "coordinates": [ [ [ [ -84.253328450064799, 9.925978968899702 ], [ -84.252476762282541, 9.926732922018424 ], [ -84.252211482481513, 9.927193671146529 ], [ -84.252164605056109, 9.927625985180766 ], [ -84.25212743, 9.92763236 ], [ -84.25210091, 9.92763417 ], [ -84.25208039, 9.92763268 ], [ -84.2520397, 9.92763139 ], [ -84.2520097, 9.92763047 ], [ -84.25198936, 9.92762957 ], [ -84.25196637, 9.92762674 ], [ -84.25194357, 9.92762299 ], [ -84.25191689, 9.9276214 ], [ -84.25187841, 9.92762166 ], [ -84.2518521, 9.9276214 ], [ -84.25181297, 9.92761827 ], [ -84.25178623, 9.92761481 ], [ -84.25176875, 9.92761483 ], [ -84.25175055, 9.92761696 ], [ -84.25173632, 9.9276205 ], [ -84.25171029, 9.92762192 ], [ -84.25168772, 9.92762266 ], [ -84.25166168, 9.92762403 ], [ -84.25162521, 9.92762998 ], [ -84.25160307, 9.92763681 ], [ -84.25158181, 9.92764597 ], [ -84.25155292, 9.92765945 ], [ -84.25152253, 9.92767379 ], [ -84.25149602, 9.92768284 ], [ -84.25146934, 9.92769343 ], [ -84.25144198, 9.927704 ], [ -84.25141498, 9.92771712 ], [ -84.2513817, 9.92773555 ], [ -84.25135917, 9.92775078 ], [ -84.2513395, 9.92776686 ], [ -84.25131663, 9.92778548 ], [ -84.25129764, 9.92779981 ], [ -84.25127789, 9.9278164 ], [ -84.25126422, 9.92783134 ], [ -84.25124814, 9.92784822 ], [ -84.25123078, 9.92786713 ], [ -84.25122391, 9.92787708 ], [ -84.25121534, 9.92788735 ], [ -84.25120609, 9.92789861 ], [ -84.25119858, 9.92790961 ], [ -84.2511907, 9.92791888 ], [ -84.25118245, 9.92793082 ], [ -84.25117462, 9.92794014 ], [ -84.25116738, 9.9279528 ], [ -84.25115918, 9.92796475 ], [ -84.2511533, 9.92797537 ], [ -84.25114775, 9.92798772 ], [ -84.25114156, 9.92800102 ], [ -84.25113299, 9.92802501 ], [ -84.25112418, 9.92804768 ], [ -84.25111635, 9.92806842 ], [ -84.25111093, 9.92808404 ], [ -84.25110221, 9.92810976 ], [ -84.25109556, 9.92813207 ], [ -84.25108787, 9.92815608 ], [ -84.25108119, 9.92818077 ], [ -84.25107382, 9.92820645 ], [ -84.2510686, 9.92822526 ], [ -84.25105977, 9.92825683 ], [ -84.25105595, 9.92826885 ], [ -84.25105281, 9.92827984 ], [ -84.25104967, 9.92829083 ], [ -84.2510458, 9.92830286 ], [ -84.25104125, 9.92831588 ], [ -84.25103812, 9.92832687 ], [ -84.25103325, 9.92833822 ], [ -84.25102355, 9.92836083 ], [ -84.25101249, 9.92838553 ], [ -84.25099391, 9.92841678 ], [ -84.25098125, 9.9284374 ], [ -84.25096882, 9.92845966 ], [ -84.25095711, 9.928481 ], [ -84.25095124, 9.92849163 ], [ -84.25094541, 9.92850226 ], [ -84.25093958, 9.92851293 ], [ -84.25093403, 9.92852523 ], [ -84.25092816, 9.92853586 ], [ -84.25092265, 9.92854816 ], [ -84.25091396, 9.92857154 ], [ -84.25091082, 9.92858253 ], [ -84.25090868, 9.9285942 ], [ -84.25090183, 9.92861992 ], [ -84.2508935, 9.92865262 ], [ -84.25088895, 9.92866564 ], [ -84.25088289, 9.9286861 ], [ -84.25087744, 9.92870168 ], [ -84.25087244, 9.92872601 ], [ -84.2508633, 9.92876078 ], [ -84.25085698, 9.92878276 ], [ -84.25085171, 9.92880546 ], [ -84.25084635, 9.92882816 ], [ -84.25084209, 9.92884356 ], [ -84.2508362, 9.92886221 ], [ -84.25083093, 9.92888491 ], [ -84.2508273, 9.92890729 ], [ -84.25082299, 9.92893066 ], [ -84.2508198, 9.9289417 ], [ -84.25081498, 9.928953 ], [ -84.25080911, 9.92896368 ], [ -84.25080259, 9.9289753 ], [ -84.25079709, 9.9289876 ], [ -84.25079153, 9.92899995 ], [ -84.25078598, 9.92901225 ], [ -84.25078211, 9.92902428 ], [ -84.2507766, 9.92903658 ], [ -84.2507711, 9.92904892 ], [ -84.25076522, 9.92905955 ], [ -84.25075898, 9.92907285 ], [ -84.25074592, 9.92909614 ], [ -84.25073453, 9.92911912 ], [ -84.25072866, 9.92912979 ], [ -84.25072153, 9.92914258 ], [ -84.25070944, 9.92916204 ], [ -84.25069673, 9.92918266 ], [ -84.25068234, 9.92920356 ], [ -84.25066959, 9.92922418 ], [ -84.25066023, 9.92924065 ], [ -84.25064937, 9.92925576 ], [ -84.25063525, 9.92927837 ], [ -84.25061471, 9.92930827 ], [ -84.25059963, 9.92933021 ], [ -84.25058383, 9.92935309 ], [ -84.25056702, 9.92937539 ], [ -84.25055367, 9.92939697 ], [ -84.25054028, 9.92941859 ], [ -84.25052689, 9.92944021 ], [ -84.25051865, 9.92945215 ], [ -84.25050972, 9.92946513 ], [ -84.25049802, 9.92948639 ], [ -84.25049215, 9.92949706 ], [ -84.25048318, 9.92951873 ], [ -84.25047618, 9.92954174 ], [ -84.25046321, 9.92956774 ], [ -84.25045373, 9.92958502 ], [ -84.25044303, 9.92960696 ], [ -84.25043306, 9.92962426 ], [ -84.25042477, 9.92963988 ], [ -84.25041725, 9.92965088 ], [ -84.25041074, 9.9296625 ], [ -84.25040418, 9.92967412 ], [ -84.25039831, 9.9296848 ], [ -84.25039349, 9.9296961 ], [ -84.25038862, 9.92970745 ], [ -84.25038548, 9.92971844 ], [ -84.2503833, 9.92973015 ], [ -84.25038048, 9.92974286 ], [ -84.25037034, 9.9297716 ], [ -84.25035376, 9.92980952 ], [ -84.25034748, 9.92982522 ], [ -84.2503382, 9.92984276 ], [ -84.25032513, 9.92986609 ], [ -84.25031246, 9.92989189 ], [ -84.25029982, 9.92991701 ], [ -84.25028884, 9.92994234 ], [ -84.25026858, 9.92997821 ], [ -84.25025556, 9.93000445 ], [ -84.25024304, 9.93003252 ], [ -84.2502366, 9.93004793 ], [ -84.25022779, 9.93006748 ], [ -84.25022155, 9.93008082 ], [ -84.25021149, 9.93010615 ], [ -84.25020599, 9.93011845 ], [ -84.25019757, 9.9301435 ], [ -84.25018895, 9.9301658 ], [ -84.25018296, 9.93018181 ], [ -84.25017331, 9.93020446 ], [ -84.25016659, 9.93022183 ], [ -84.25015589, 9.93024454 ], [ -84.25014431, 9.93026371 ], [ -84.25013848, 9.93027438 ], [ -84.25012505, 9.930296 ], [ -84.25011817, 9.93030595 ], [ -84.25011061, 9.9303169 ], [ -84.25010378, 9.93032685 ], [ -84.25009963, 9.93033413 ], [ -84.25008456, 9.93035607 ], [ -84.25006848, 9.93037733 ], [ -84.2500616, 9.93038728 ], [ -84.25005376, 9.93039655 ], [ -84.25004688, 9.93040655 ], [ -84.25002694, 9.93043979 ], [ -84.25, 9.93048493 ], [ -84.24994192, 9.93058763 ], [ -84.2499199, 9.93063645 ], [ -84.24988291, 9.93077842 ], [ -84.24986434, 9.93083948 ], [ -84.24981232, 9.93102058 ], [ -84.2497853, 9.93108084 ], [ -84.24974428, 9.93115752 ], [ -84.24968589, 9.93123853 ], [ -84.24965082, 9.93127907 ], [ -84.2495806, 9.93135861 ], [ -84.24949578, 9.93145092 ], [ -84.24941089, 9.93154167 ], [ -84.24936289, 9.9316056 ], [ -84.24931337, 9.93167771 ], [ -84.24928857, 9.93171912 ], [ -84.24927846, 9.93177284 ], [ -84.24927737, 9.93182319 ], [ -84.24926838, 9.93187803 ], [ -84.24925715, 9.93192041 ], [ -84.24923906, 9.9319742 ], [ -84.24921613, 9.93203897 ], [ -84.24917939, 9.93210412 ], [ -84.2491323, 9.93216876 ], [ -84.24907975, 9.93222425 ], [ -84.24900444, 9.93228932 ], [ -84.24895272, 9.93232584 ], [ -84.24890882, 9.93235315 ], [ -84.24885795, 9.9323729 ], [ -84.24881157, 9.93238467 ], [ -84.24873382, 9.93239425 ], [ -84.24868286, 9.93239717 ], [ -84.24864852, 9.93239805 ], [ -84.24859268, 9.93239289 ], [ -84.24855438, 9.93238879 ], [ -84.24850697, 9.93237556 ], [ -84.24847772, 9.93236249 ], [ -84.24841686, 9.93233653 ], [ -84.24838209, 9.93231839 ], [ -84.24832648, 9.93229331 ], [ -84.24824053, 9.93224804 ], [ -84.24815503, 9.93220378 ], [ -84.24806825, 9.93216121 ], [ -84.24796579, 9.93212052 ], [ -84.24775836, 9.93203432 ], [ -84.24765453, 9.93198647 ], [ -84.24750334, 9.93194983 ], [ -84.24739115, 9.93189622 ], [ -84.24725467, 9.93182737 ], [ -84.24714229, 9.93179297 ], [ -84.24706467, 9.93174528 ], [ -84.24699508, 9.93169759 ], [ -84.24693355, 9.93168703 ], [ -84.2468426, 9.93169771 ], [ -84.24676505, 9.93173755 ], [ -84.24670584, 9.93179929 ], [ -84.24663514, 9.93186027 ], [ -84.24656394, 9.93194944 ], [ -84.24653786, 9.93199234 ], [ -84.24648198, 9.93205068 ], [ -84.24643361, 9.93210381 ], [ -84.24637104, 9.93216005 ], [ -84.2463338, 9.93220441 ], [ -84.24627322, 9.93226837 ], [ -84.24620566, 9.93235091 ], [ -84.24615563, 9.93242759 ], [ -84.24611558, 9.9325231 ], [ -84.24609897, 9.93256625 ], [ -84.24608355, 9.93261595 ], [ -84.24607289, 9.93266901 ], [ -84.24605689, 9.93274063 ], [ -84.24604592, 9.93283561 ], [ -84.24605169, 9.93294486 ], [ -84.24606372, 9.93303788 ], [ -84.24606702, 9.93309714 ], [ -84.24607289, 9.93315725 ], [ -84.24608668, 9.93322598 ], [ -84.24610338, 9.93333191 ], [ -84.24610401, 9.9333335 ], [ -84.24610448, 9.93334327 ], [ -84.24613854, 9.93346132 ], [ -84.24615811, 9.93358374 ], [ -84.24616894, 9.93369219 ], [ -84.24617264, 9.93379272 ], [ -84.24617455, 9.93385727 ], [ -84.24618088, 9.93398274 ], [ -84.24617194, 9.93411024 ], [ -84.24616877, 9.93421869 ], [ -84.24615902, 9.93426556 ], [ -84.24614467, 9.93432416 ], [ -84.24611365, 9.93440213 ], [ -84.24609449, 9.93445093 ], [ -84.2460735, 9.93449642 ], [ -84.24604695, 9.93452661 ], [ -84.24602235, 9.93455447 ], [ -84.24598623, 9.93458357 ], [ -84.24594954, 9.93460556 ], [ -84.24590904, 9.93463068 ], [ -84.24586844, 9.93465098 ], [ -84.24583257, 9.93467441 ], [ -84.24575005, 9.9347487 ], [ -84.24572449, 9.93477584 ], [ -84.24569528, 9.93483386 ], [ -84.24563864, 9.93488466 ], [ -84.24558382, 9.93492458 ], [ -84.24553629, 9.93493912 ], [ -84.24548973, 9.93494112 ], [ -84.24544526, 9.93494047 ], [ -84.24540461, 9.93494863 ], [ -84.24530994, 9.93501381 ], [ -84.24526082, 9.93504475 ], [ -84.24521281, 9.93506754 ], [ -84.24515045, 9.93510467 ], [ -84.24509029, 9.93512815 ], [ -84.24502972, 9.93515091 ], [ -84.24498184, 9.93517155 ], [ -84.24492626, 9.93518967 ], [ -84.2447582, 9.935244 ], [ -84.24467841, 9.93525422 ], [ -84.24462915, 9.93525923 ], [ -84.24454378, 9.93527102 ], [ -84.24445851, 9.93527486 ], [ -84.24439322, 9.93527705 ], [ -84.24431373, 9.93527901 ], [ -84.24426291, 9.93527584 ], [ -84.24416893, 9.93527003 ], [ -84.24406323, 9.93525403 ], [ -84.24393971, 9.93521555 ], [ -84.24386904, 9.93521043 ], [ -84.24382655, 9.93521033 ], [ -84.24376848, 9.93521775 ], [ -84.2437127, 9.93523223 ], [ -84.24368273, 9.93523877 ], [ -84.24365698, 9.93524667 ], [ -84.24360946, 9.93527225 ], [ -84.24357633, 9.93529278 ], [ -84.24349432, 9.9353394 ], [ -84.24341574, 9.93538841 ], [ -84.2433417, 9.93543159 ], [ -84.24324211, 9.93547917 ], [ -84.24311277, 9.93555821 ], [ -84.24301353, 9.93560067 ], [ -84.24293484, 9.93564984 ], [ -84.24285782, 9.93571354 ], [ -84.24278531, 9.93578113 ], [ -84.24270668, 9.93586204 ], [ -84.24264137, 9.93594152 ], [ -84.24261719, 9.9359908 ], [ -84.24260582, 9.93603633 ], [ -84.24256245, 9.93613405 ], [ -84.24251315, 9.93622653 ], [ -84.24249335, 9.93626782 ], [ -84.24248122, 9.93629656 ], [ -84.24245473, 9.9363444 ], [ -84.24241558, 9.93640705 ], [ -84.24237071, 9.93646773 ], [ -84.24233059, 9.93652805 ], [ -84.24226296, 9.93662551 ], [ -84.2422027, 9.93673069 ], [ -84.24216429, 9.93679703 ], [ -84.24213147, 9.93684313 ], [ -84.2421182, 9.93688138 ], [ -84.24209618, 9.93696084 ], [ -84.24209083, 9.93697603 ], [ -84.2420891, 9.93699058 ], [ -84.2420889, 9.93701352 ], [ -84.24208349, 9.93703182 ], [ -84.24206296, 9.93706574 ], [ -84.24204241, 9.93708921 ], [ -84.24202185, 9.93710656 ], [ -84.24199512, 9.93711984 ], [ -84.24196533, 9.93712348 ], [ -84.24194874, 9.93712149 ], [ -84.24191593, 9.93711581 ], [ -84.24188404, 9.93710564 ], [ -84.24183898, 9.93709099 ], [ -84.24170497, 9.93704067 ], [ -84.24147451, 9.93695637 ], [ -84.24142435, 9.93694491 ], [ -84.24135426, 9.93693982 ], [ -84.24131004, 9.93694597 ], [ -84.24128143, 9.93694508 ], [ -84.24122365, 9.93694093 ], [ -84.24107144, 9.936939 ], [ -84.240989, 9.93693549 ], [ -84.24094571, 9.93693085 ], [ -84.24091461, 9.93693146 ], [ -84.24085751, 9.93692488 ], [ -84.24078013, 9.93689862 ], [ -84.24074333, 9.93690253 ], [ -84.24071171, 9.93691332 ], [ -84.24069494, 9.93692065 ], [ -84.24067492, 9.93693413 ], [ -84.24060866, 9.9369791 ], [ -84.24042013, 9.93711077 ], [ -84.2402811, 9.93722164 ], [ -84.24022882, 9.93727059 ], [ -84.24010572, 9.93740438 ], [ -84.24000411, 9.93749628 ], [ -84.23985906, 9.93763839 ], [ -84.23976714, 9.93775755 ], [ -84.23973644, 9.93778779 ], [ -84.23961424, 9.93789597 ], [ -84.23954001, 9.9379837 ], [ -84.23948117, 9.9380511 ], [ -84.239458, 9.93807813 ], [ -84.23937472, 9.9381623 ], [ -84.23922142, 9.93828055 ], [ -84.23910457, 9.93837441 ], [ -84.2390065, 9.93846613 ], [ -84.23896639, 9.93849925 ], [ -84.23891809, 9.93852729 ], [ -84.23887239, 9.9385382 ], [ -84.23882406, 9.93854943 ], [ -84.23878653, 9.93854872 ], [ -84.23874624, 9.93854373 ], [ -84.23870043, 9.93853194 ], [ -84.2385935, 9.93848554 ], [ -84.23850299, 9.93844239 ], [ -84.23846019, 9.93841529 ], [ -84.23843794, 9.93839578 ], [ -84.23842163, 9.93836779 ], [ -84.23840667, 9.93831979 ], [ -84.23839501, 9.93828657 ], [ -84.23838966, 9.93825361 ], [ -84.23839498, 9.93812359 ], [ -84.23838388, 9.93807268 ], [ -84.23836351, 9.93803278 ], [ -84.23832219, 9.9379907 ], [ -84.23829325, 9.93796868 ], [ -84.23815337, 9.93790589 ], [ -84.23810096, 9.93787818 ], [ -84.23804526, 9.93784611 ], [ -84.2379052, 9.93778179 ], [ -84.23786255, 9.93773951 ], [ -84.23782412, 9.93768153 ], [ -84.23755182, 9.93759744 ], [ -84.23745105, 9.9375676 ], [ -84.23734681, 9.93754411 ], [ -84.23708322, 9.93751559 ], [ -84.2369072, 9.9375075 ], [ -84.23682675, 9.93751076 ], [ -84.23658255, 9.93753558 ], [ -84.23649443, 9.937551 ], [ -84.23642099, 9.93756536 ], [ -84.23633028, 9.93760102 ], [ -84.23618508, 9.93768221 ], [ -84.23600682, 9.9378224 ], [ -84.23596299, 9.93788588 ], [ -84.23594667, 9.93790946 ], [ -84.2358569, 9.93803609 ], [ -84.23582785, 9.93810712 ], [ -84.23581667, 9.93816429 ], [ -84.23580486, 9.93842797 ], [ -84.23581367, 9.93889469 ], [ -84.23582061, 9.93908346 ], [ -84.23579418, 9.93930781 ], [ -84.23577699, 9.93942578 ], [ -84.23575272, 9.93953869 ], [ -84.23568457, 9.93973141 ], [ -84.23564865, 9.93982277 ], [ -84.23561556, 9.93989408 ], [ -84.23558845, 9.94000887 ], [ -84.23556133, 9.94012367 ], [ -84.23543536, 9.94032755 ], [ -84.23532533, 9.94047182 ], [ -84.23529414, 9.94051934 ], [ -84.23524892, 9.94057184 ], [ -84.23521268, 9.9406326 ], [ -84.23510264, 9.94077687 ], [ -84.23502635, 9.94094596 ], [ -84.23496523, 9.94105426 ], [ -84.23492779, 9.94110166 ], [ -84.23490155, 9.94114214 ], [ -84.23487811, 9.94121172 ], [ -84.23482945, 9.94166907 ], [ -84.23480054, 9.94187288 ], [ -84.23479393, 9.9419666 ], [ -84.23475939, 9.94207754 ], [ -84.23473662, 9.94213713 ], [ -84.23470211, 9.94220746 ], [ -84.23468101, 9.94225565 ], [ -84.23458815, 9.94239118 ], [ -84.23455073, 9.94243859 ], [ -84.23450025, 9.94248956 ], [ -84.23443812, 9.94253623 ], [ -84.23437386, 9.94258122 ], [ -84.2342009, 9.94263308 ], [ -84.23403845, 9.94272987 ], [ -84.23389343, 9.94285945 ], [ -84.23384877, 9.94290815 ], [ -84.23384338, 9.94302559 ], [ -84.23377545, 9.94314577 ], [ -84.23371812, 9.94327051 ], [ -84.23365536, 9.94339077 ], [ -84.23363268, 9.94349391 ], [ -84.23361557, 9.94359285 ], [ -84.23362311, 9.9437485 ], [ -84.23364785, 9.94406822 ], [ -84.23375085, 9.94511479 ], [ -84.23383501, 9.94574814 ], [ -84.23383294, 9.94584281 ], [ -84.23379378, 9.94607187 ], [ -84.23374532, 9.94621316 ], [ -84.23369968, 9.9462943 ], [ -84.23366867, 9.94632556 ], [ -84.23363809, 9.94634213 ], [ -84.23360258, 9.9463417 ], [ -84.23352737, 9.946344 ], [ -84.23343316, 9.94632993 ], [ -84.23328686, 9.94629458 ], [ -84.23313409, 9.94630436 ], [ -84.23303063, 9.94630707 ], [ -84.23293259, 9.94633995 ], [ -84.23289363, 9.94641409 ], [ -84.23287742, 9.94646889 ], [ -84.23288398, 9.94654341 ], [ -84.23287653, 9.94656907 ], [ -84.23287201, 9.94662963 ], [ -84.23281357, 9.94666347 ], [ -84.23271507, 9.94671714 ], [ -84.23266962, 9.94680096 ], [ -84.23262778, 9.94684902 ], [ -84.23238246, 9.94699667 ], [ -84.23212447, 9.94715094 ], [ -84.23208985, 9.94719258 ], [ -84.23203611, 9.94727226 ], [ -84.23192574, 9.94749756 ], [ -84.23179265, 9.94775546 ], [ -84.23167424, 9.9479712 ], [ -84.23168891, 9.94814224 ], [ -84.23167074, 9.94822837 ], [ -84.23165349, 9.94829053 ], [ -84.23159154, 9.94835178 ], [ -84.23135648, 9.94849985 ], [ -84.23111094, 9.94863415 ], [ -84.23083249, 9.94864146 ], [ -84.23033378, 9.94862979 ], [ -84.23001521, 9.94861067 ], [ -84.22965963, 9.9485988 ], [ -84.22950386, 9.94857804 ], [ -84.22930982, 9.94857249 ], [ -84.22911143, 9.94856205 ], [ -84.2286687, 9.94855768 ], [ -84.22850873, 9.94855797 ], [ -84.22836389, 9.94853768 ], [ -84.22826265, 9.94854044 ], [ -84.22818186, 9.94854103 ], [ -84.22810384, 9.94853464 ], [ -84.22800308, 9.94854115 ], [ -84.2279088, 9.9485251 ], [ -84.22778524, 9.94846718 ], [ -84.22769422, 9.94845758 ], [ -84.22763571, 9.94845762 ], [ -84.22758558, 9.94843033 ], [ -84.22750889, 9.94838358 ], [ -84.22742109, 9.94832886 ], [ -84.22730078, 9.94828382 ], [ -84.22714568, 9.94827057 ], [ -84.22691069, 9.94823897 ], [ -84.2268099, 9.94820681 ], [ -84.22669935, 9.948165 ], [ -84.22656495, 9.94808782 ], [ -84.22650539, 9.94805304 ], [ -84.22641974, 9.94804502 ], [ -84.22629325, 9.9480296 ], [ -84.22620959, 9.94800527 ], [ -84.22614988, 9.94796557 ], [ -84.22610834, 9.94792826 ], [ -84.22606437, 9.94779188 ], [ -84.22603051, 9.94747968 ], [ -84.22598359, 9.94722448 ], [ -84.225824, 9.94676698 ], [ -84.22564129, 9.94620931 ], [ -84.22559062, 9.94613489 ], [ -84.22555694, 9.94601629 ], [ -84.22551464, 9.94595187 ], [ -84.22544786, 9.94589421 ], [ -84.22536505, 9.94581325 ], [ -84.2251948, 9.94568976 ], [ -84.22512457, 9.94565579 ], [ -84.22500003, 9.9456026 ], [ -84.22499998, 9.94560258 ], [ -84.2249906, 9.94560044 ], [ -84.22496369, 9.94559542 ], [ -84.22491582, 9.94557766 ], [ -84.2248256, 9.94555143 ], [ -84.22475763, 9.94554149 ], [ -84.22471892, 9.94554289 ], [ -84.22464426, 9.9455372 ], [ -84.22456665, 9.94553573 ], [ -84.22453867, 9.94553828 ], [ -84.22451044, 9.94553964 ], [ -84.22441366, 9.94553117 ], [ -84.22433005, 9.94552191 ], [ -84.22428375, 9.94553342 ], [ -84.22416246, 9.945565 ], [ -84.22413749, 9.94558418 ], [ -84.22410933, 9.94559596 ], [ -84.22407894, 9.94559893 ], [ -84.22401919, 9.9456139 ], [ -84.22395732, 9.94562088 ], [ -84.22390036, 9.94563391 ], [ -84.22385545, 9.94565079 ], [ -84.223822, 9.94567244 ], [ -84.22379765, 9.94568476 ], [ -84.22376669, 9.94570501 ], [ -84.22368069, 9.94581729 ], [ -84.2236495, 9.94584376 ], [ -84.22360782, 9.9458392 ], [ -84.22356966, 9.94581565 ], [ -84.22343785, 9.9458901 ], [ -84.22343475, 9.94589004 ], [ -84.2234263, 9.94589461 ], [ -84.22332593, 9.94594811 ], [ -84.22319385, 9.94603489 ], [ -84.22308019, 9.94609689 ], [ -84.22298924, 9.94615235 ], [ -84.22295618, 9.94616705 ], [ -84.22293293, 9.94617565 ], [ -84.22290384, 9.94618032 ], [ -84.22287683, 9.94618964 ], [ -84.22284473, 9.94621014 ], [ -84.22279782, 9.94623902 ], [ -84.22275616, 9.94626762 ], [ -84.22271229, 9.94628833 ], [ -84.22269153, 9.94630002 ], [ -84.22265062, 9.94633159 ], [ -84.22246669, 9.94647356 ], [ -84.2222548, 9.94664881 ], [ -84.22216872, 9.94674325 ], [ -84.2221194, 9.9467944 ], [ -84.22208835, 9.94682506 ], [ -84.22207149, 9.94684463 ], [ -84.22200803, 9.94695465 ], [ -84.22199379, 9.94697497 ], [ -84.22198533, 9.94699303 ], [ -84.22197941, 9.94701492 ], [ -84.2219656, 9.94704052 ], [ -84.22194413, 9.94706229 ], [ -84.22192228, 9.94708152 ], [ -84.22188511, 9.94711513 ], [ -84.22180848, 9.94719011 ], [ -84.22173582, 9.9472699 ], [ -84.22171305, 9.9473045 ], [ -84.22169496, 9.9473342 ], [ -84.22167227, 9.94737432 ], [ -84.22165631, 9.9474073 ], [ -84.22164205, 9.94744413 ], [ -84.22162302, 9.94749968 ], [ -84.22160551, 9.94754954 ], [ -84.22158529, 9.94761184 ], [ -84.22155625, 9.94770713 ], [ -84.22153666, 9.94774919 ], [ -84.22152049, 9.94777921 ], [ -84.22150325, 9.9478067 ], [ -84.22148591, 9.94782696 ], [ -84.22146844, 9.94784205 ], [ -84.22144668, 9.94785603 ], [ -84.22142522, 9.94786722 ], [ -84.22139666, 9.94788258 ], [ -84.22137055, 9.94789292 ], [ -84.22134077, 9.94790253 ], [ -84.22131485, 9.94790961 ], [ -84.22127842, 9.94791825 ], [ -84.2212497, 9.94792187 ], [ -84.22122211, 9.94792597 ], [ -84.22118691, 9.94793297 ], [ -84.22112126, 9.94794971 ], [ -84.22107218, 9.9479484 ], [ -84.22104084, 9.94794937 ], [ -84.22099333, 9.94793659 ], [ -84.22095817, 9.94792981 ], [ -84.22093321, 9.94792508 ], [ -84.22090125, 9.94791241 ], [ -84.22087315, 9.94789721 ], [ -84.22084264, 9.94788155 ], [ -84.22079194, 9.94786274 ], [ -84.22073723, 9.94783265 ], [ -84.22071378, 9.94782162 ], [ -84.22068474, 9.94780895 ], [ -84.22063421, 9.94779235 ], [ -84.22060685, 9.94777814 ], [ -84.22058462, 9.94776802 ], [ -84.22056441, 9.94775202 ], [ -84.22054258, 9.94773387 ], [ -84.22052916, 9.94772463 ], [ -84.22051124, 9.94771436 ], [ -84.2204889, 9.94771039 ], [ -84.22047013, 9.94770732 ], [ -84.22044986, 9.94770633 ], [ -84.22042367, 9.94771223 ], [ -84.22040405, 9.94771941 ], [ -84.22038125, 9.94772655 ], [ -84.2203069, 9.9477729 ], [ -84.2202773, 9.9477884 ], [ -84.22025893, 9.94779801 ], [ -84.22023578, 9.94781425 ], [ -84.2202182, 9.94783224 ], [ -84.22019331, 9.9478618 ], [ -84.22017972, 9.94788567 ], [ -84.22015701, 9.94792457 ], [ -84.22014181, 9.94795921 ], [ -84.22011764, 9.94800905 ], [ -84.22007899, 9.94811236 ], [ -84.22002587, 9.9482323 ], [ -84.2200052, 9.94829248 ], [ -84.21999254, 9.9483277 ], [ -84.21998062, 9.94836412 ], [ -84.21996867, 9.94840347 ], [ -84.2199216, 9.94854657 ], [ -84.21990928, 9.94858699 ], [ -84.21990359, 9.94861007 ], [ -84.21989768, 9.94863195 ], [ -84.21984995, 9.9487853 ], [ -84.21984223, 9.94881741 ], [ -84.21983448, 9.9488417 ], [ -84.21982694, 9.94886142 ], [ -84.21981511, 9.94888131 ], [ -84.21977354, 9.94893767 ], [ -84.21975655, 9.9489664 ], [ -84.2197192, 9.94906595 ], [ -84.21969784, 9.94912935 ], [ -84.21968337, 9.94917276 ], [ -84.21967354, 9.94920285 ], [ -84.21966722, 9.94923209 ], [ -84.21966251, 9.9492679 ], [ -84.21964407, 9.94936192 ], [ -84.2196413, 9.94942124 ], [ -84.21964271, 9.94947774 ], [ -84.21964552, 9.94953108 ], [ -84.21965071, 9.94954606 ], [ -84.21965532, 9.94955442 ], [ -84.21966015, 9.94958781 ], [ -84.21964847, 9.94962084 ], [ -84.21963371, 9.94966063 ], [ -84.21962178, 9.94969931 ], [ -84.21960628, 9.94973638 ], [ -84.21956695, 9.94983306 ], [ -84.21950949, 9.94995938 ], [ -84.21948988, 9.95000015 ], [ -84.21948889, 9.95000221 ], [ -84.21947472, 9.95003164 ], [ -84.21942671, 9.95013748 ], [ -84.21940987, 9.95015702 ], [ -84.21939386, 9.95017091 ], [ -84.21937568, 9.95018641 ], [ -84.2193568, 9.95021641 ], [ -84.21935124, 9.95024217 ], [ -84.2193442, 9.95026119 ], [ -84.21933811, 9.95029229 ], [ -84.21933632, 9.95032319 ], [ -84.2193299, 9.95039658 ], [ -84.21933109, 9.95043368 ], [ -84.21933475, 9.95047614 ], [ -84.21934635, 9.95053131 ], [ -84.21935658, 9.95059437 ], [ -84.21940234, 9.95074096 ], [ -84.21942979, 9.95083767 ], [ -84.21944617, 9.95089318 ], [ -84.2195103, 9.95098852 ], [ -84.21951696, 9.9510014 ], [ -84.21952856, 9.95101769 ], [ -84.21953875, 9.951033 ], [ -84.21955889, 9.95107591 ], [ -84.219589, 9.95113295 ], [ -84.21960096, 9.95115467 ], [ -84.2196125, 9.95117402 ], [ -84.21964804, 9.95125192 ], [ -84.21967256, 9.95129733 ], [ -84.21968689, 9.95133208 ], [ -84.21970155, 9.95137537 ], [ -84.21972756, 9.95146121 ], [ -84.21974154, 9.95150038 ], [ -84.21975512, 9.95153774 ], [ -84.21976636, 9.95157244 ], [ -84.21977518, 9.95159718 ], [ -84.21978934, 9.95164115 ], [ -84.21979972, 9.95167112 ], [ -84.21980769, 9.95170306 ], [ -84.21982911, 9.95175306 ], [ -84.21983788, 9.95177414 ], [ -84.21986834, 9.95183815 ], [ -84.21994756, 9.95197877 ], [ -84.21995567, 9.95200302 ], [ -84.21996442, 9.95203082 ], [ -84.21997247, 9.9520639 ], [ -84.2199735, 9.95209099 ], [ -84.21997172, 9.9521219 ], [ -84.21997146, 9.95214764 ], [ -84.21996385, 9.95218387 ], [ -84.21995651, 9.95221822 ], [ -84.21994945, 9.95225068 ], [ -84.21992597, 9.95233195 ], [ -84.2199104, 9.95238551 ], [ -84.21988293, 9.95250011 ], [ -84.21983951, 9.9526747 ], [ -84.21983002, 9.9527235 ], [ -84.2198203, 9.95276104 ], [ -84.21973809, 9.95295967 ], [ -84.21966699, 9.95312594 ], [ -84.2196151, 9.95319306 ], [ -84.21926224, 9.95357291 ], [ -84.2189766, 9.95385893 ], [ -84.21892109, 9.95394081 ], [ -84.21887352, 9.95404001 ], [ -84.21878098, 9.95425977 ], [ -84.21874403, 9.95436593 ], [ -84.2186089, 9.95492429 ], [ -84.21846515, 9.95548392 ], [ -84.21819552, 9.95606029 ], [ -84.21792377, 9.95664176 ], [ -84.21784869, 9.957026 ], [ -84.21777541, 9.95740098 ], [ -84.2177535, 9.95756684 ], [ -84.21769319, 9.95782741 ], [ -84.21770119, 9.9578971 ], [ -84.21769881, 9.95794751 ], [ -84.21767268, 9.95800573 ], [ -84.21762351, 9.95806872 ], [ -84.21757464, 9.9582143 ], [ -84.21753529, 9.95837475 ], [ -84.21750708, 9.95852588 ], [ -84.21750119, 9.95861651 ], [ -84.21751277, 9.95867164 ], [ -84.21755586, 9.95879414 ], [ -84.21755573, 9.958818 ], [ -84.21754871, 9.95884029 ], [ -84.21750041, 9.95889246 ], [ -84.21737134, 9.95895041 ], [ -84.21723384, 9.95900812 ], [ -84.21681748, 9.9590453 ], [ -84.21637526, 9.9591008 ], [ -84.216267, 9.95912961 ], [ -84.21620946, 9.9591474 ], [ -84.21614133, 9.9591766 ], [ -84.21600008, 9.95927862 ], [ -84.21588994, 9.95936138 ], [ -84.21565813, 9.95954675 ], [ -84.21540257, 9.9597941 ], [ -84.2153098, 9.959852 ], [ -84.21523837, 9.95988668 ], [ -84.21518759, 9.95992291 ], [ -84.21513206, 9.95998748 ], [ -84.21509946, 9.9600439 ], [ -84.21507498, 9.96010715 ], [ -84.21506229, 9.96018604 ], [ -84.21504488, 9.96021105 ], [ -84.21500045, 9.960252 ], [ -84.21496049, 9.96030325 ], [ -84.21492238, 9.96035967 ], [ -84.21489888, 9.96039208 ], [ -84.21489102, 9.96044253 ], [ -84.21489521, 9.9605042 ], [ -84.21491968, 9.96064307 ], [ -84.21487532, 9.9607054 ], [ -84.21476426, 9.96082982 ], [ -84.21463078, 9.96098695 ], [ -84.2146138, 9.96100452 ], [ -84.21459172, 9.96102688 ], [ -84.21455125, 9.96105051 ], [ -84.21426721, 9.96118378 ], [ -84.21392939, 9.96133666 ], [ -84.21382076, 9.96141701 ], [ -84.21372817, 9.96149566 ], [ -84.21357687, 9.9616998 ], [ -84.21343959, 9.96187404 ], [ -84.21321392, 9.96208004 ], [ -84.21311337, 9.96223817 ], [ -84.21303101, 9.96237259 ], [ -84.212802, 9.96269611 ], [ -84.21256693, 9.96301907 ], [ -84.21252657, 9.96304633 ], [ -84.2124782, 9.96306933 ], [ -84.21241255, 9.96307788 ], [ -84.21229233, 9.96306739 ], [ -84.21219605, 9.96305211 ], [ -84.21193957, 9.96296882 ], [ -84.21167301, 9.96288055 ], [ -84.21151135, 9.96285091 ], [ -84.21134296, 9.96281967 ], [ -84.21115298, 9.96268725 ], [ -84.21099336, 9.96257007 ], [ -84.21088771, 9.96252253 ], [ -84.21075203, 9.9625013 ], [ -84.21020091, 9.96232233 ], [ -84.20966239, 9.96214139 ], [ -84.20895383, 9.96195903 ], [ -84.20824507, 9.96177666 ], [ -84.20784148, 9.9616269 ], [ -84.20742685, 9.96147303 ], [ -84.20715165, 9.96127869 ], [ -84.20688351, 9.96108906 ], [ -84.20665809, 9.96094535 ], [ -84.20637224, 9.96077135 ], [ -84.20630253, 9.96074287 ], [ -84.2062205, 9.96072893 ], [ -84.20614113, 9.96072808 ], [ -84.20608724, 9.96073183 ], [ -84.20600236, 9.96075014 ], [ -84.20589703, 9.96078448 ], [ -84.20579642, 9.96084943 ], [ -84.20570055, 9.96092579 ], [ -84.2055727, 9.96108803 ], [ -84.20542197, 9.96129057 ], [ -84.20540529, 9.96137506 ], [ -84.20542791, 9.9614534 ], [ -84.20545056, 9.96155133 ], [ -84.20543368, 9.96164648 ], [ -84.20539238, 9.9617191 ], [ -84.20527309, 9.96183391 ], [ -84.20517135, 9.96192646 ], [ -84.20509645, 9.96197888 ], [ -84.20505729, 9.96199245 ], [ -84.20502006, 9.96200897 ], [ -84.2049481, 9.96202694 ], [ -84.20464344, 9.96205043 ], [ -84.20446336, 9.96205762 ], [ -84.20406014, 9.96199339 ], [ -84.20366917, 9.9619311 ], [ -84.20360032, 9.96190739 ], [ -84.20351972, 9.96187963 ], [ -84.20328619, 9.96174246 ], [ -84.20304883, 9.96160305 ], [ -84.20300964, 9.96159263 ], [ -84.20297044, 9.96158465 ], [ -84.20287275, 9.9615916 ], [ -84.20278019, 9.96160722 ], [ -84.2027137, 9.9616291 ], [ -84.20265966, 9.96166295 ], [ -84.20260901, 9.96169733 ], [ -84.20254692, 9.96175983 ], [ -84.20249196, 9.96183516 ], [ -84.20230107, 9.96224773 ], [ -84.20211537, 9.96264905 ], [ -84.20207507, 9.96277518 ], [ -84.20203167, 9.96291102 ], [ -84.20198946, 9.96322596 ], [ -84.2019309, 9.96354781 ], [ -84.20179807, 9.96385174 ], [ -84.20169015, 9.96415399 ], [ -84.20168338, 9.96430045 ], [ -84.20169366, 9.96447362 ], [ -84.20168536, 9.96452623 ], [ -84.20166821, 9.96458658 ], [ -84.20163585, 9.96465736 ], [ -84.20154309, 9.96479326 ], [ -84.20140079, 9.96496781 ], [ -84.20126051, 9.96508328 ], [ -84.20104819, 9.96520632 ], [ -84.20094423, 9.96525468 ], [ -84.2006866, 9.9653306 ], [ -84.20047364, 9.96539011 ], [ -84.20024216, 9.96541138 ], [ -84.19999997, 9.96543351 ], [ -84.19969606, 9.96546154 ], [ -84.19939801, 9.96548892 ], [ -84.19922292, 9.96550373 ], [ -84.19902924, 9.96552012 ], [ -84.19894607, 9.96552716 ], [ -84.19861484, 9.96555518 ], [ -84.19829727, 9.96558205 ], [ -84.19798972, 9.96565094 ], [ -84.19767104, 9.96572233 ], [ -84.19763712, 9.96573773 ], [ -84.19758731, 9.96576035 ], [ -84.19755891, 9.96578648 ], [ -84.19753874, 9.96580504 ], [ -84.19750986, 9.96583263 ], [ -84.19747422, 9.96586668 ], [ -84.19745395, 9.96590022 ], [ -84.19742439, 9.96594912 ], [ -84.19740716, 9.96601328 ], [ -84.19739425, 9.9660614 ], [ -84.1973932, 9.96609063 ], [ -84.19739242, 9.96611227 ], [ -84.19738429, 9.96638846 ], [ -84.19736722, 9.96656734 ], [ -84.19736274, 9.96663619 ], [ -84.19736275, 9.9666525 ], [ -84.19736261, 9.96666677 ], [ -84.19730295, 9.96675582 ], [ -84.19722785, 9.96688244 ], [ -84.19710024, 9.96701814 ], [ -84.19683112, 9.96730329 ], [ -84.19658978, 9.96751575 ], [ -84.19631634, 9.96783237 ], [ -84.19600647, 9.96821231 ], [ -84.19581435, 9.96848397 ], [ -84.19560849, 9.96897854 ], [ -84.19537601, 9.96945993 ], [ -84.19519554, 9.96960523 ], [ -84.19476696, 9.96976823 ], [ -84.19431898, 9.96998162 ], [ -84.19404395, 9.97014915 ], [ -84.19381265, 9.97026707 ], [ -84.19351773, 9.97032051 ], [ -84.19309827, 9.9704835 ], [ -84.19262411, 9.97070078 ], [ -84.19222289, 9.97085472 ], [ -84.19195593, 9.97101821 ], [ -84.1917944, 9.97118048 ], [ -84.19134975, 9.97165704 ], [ -84.19111076, 9.97191326 ], [ -84.19097007, 9.97210036 ], [ -84.19080148, 9.97251888 ], [ -84.1907556, 9.97287189 ], [ -84.19057217, 9.97314592 ], [ -84.19033761, 9.97324907 ], [ -84.19009072, 9.97329254 ], [ -84.18979831, 9.97330516 ], [ -84.18955185, 9.97324329 ], [ -84.18912758, 9.97316607 ], [ -84.18875241, 9.97319418 ], [ -84.18847098, 9.9731246 ], [ -84.18803949, 9.9730737 ], [ -84.18762719, 9.97298217 ], [ -84.18738746, 9.97282301 ], [ -84.1871201, 9.97275807 ], [ -84.18692504, 9.97258143 ], [ -84.18668377, 9.97245612 ], [ -84.18648208, 9.97240044 ], [ -84.18631325, 9.97242379 ], [ -84.18611285, 9.97252188 ], [ -84.18564468, 9.97265643 ], [ -84.1851739, 9.9728391 ], [ -84.18462391, 9.97292375 ], [ -84.18420252, 9.97297498 ], [ -84.18403432, 9.97294369 ], [ -84.18387994, 9.97284178 ], [ -84.18381656, 9.97271629 ], [ -84.1837017, 9.97253983 ], [ -84.18366603, 9.97243589 ], [ -84.18364089, 9.97217062 ], [ -84.18377206, 9.97214301 ], [ -84.18383347, 9.97214827 ], [ -84.18387803, 9.97216145 ], [ -84.18410062, 9.97251597 ], [ -84.18418075, 9.97257944 ], [ -84.18425551, 9.9726138 ], [ -84.18439167, 9.9726296 ], [ -84.1845812, 9.9726242 ], [ -84.185019, 9.97262131 ], [ -84.18514178, 9.97259214 ], [ -84.18525919, 9.97250739 ], [ -84.18553671, 9.97230082 ], [ -84.1856488, 9.97224783 ], [ -84.18575476, 9.97210466 ], [ -84.18582279, 9.97172354 ], [ -84.185676, 9.97124144 ], [ -84.18559703, 9.97086026 ], [ -84.18559752, 9.9697953 ], [ -84.18559194, 9.96963835 ], [ -84.18554798, 9.96944993 ], [ -84.18534322, 9.96916462 ], [ -84.18515317, 9.96877581 ], [ -84.18496303, 9.96823017 ], [ -84.18474769, 9.96787274 ], [ -84.18465429, 9.96767615 ], [ -84.1845131, 9.96703857 ], [ -84.18443035, 9.96666691 ], [ -84.18439746, 9.96658873 ], [ -84.18430615, 9.96620434 ], [ -84.18426184, 9.96608568 ], [ -84.18419929, 9.96594123 ], [ -84.18414719, 9.96584837 ], [ -84.1840977, 9.96577874 ], [ -84.18401697, 9.96568848 ], [ -84.1839024, 9.96559824 ], [ -84.18361863, 9.96544616 ], [ -84.18344419, 9.96533532 ], [ -84.18326459, 9.96530187 ], [ -84.18296265, 9.96523496 ], [ -84.18269715, 9.96517318 ], [ -84.18260864, 9.9651371 ], [ -84.18252793, 9.96507781 ], [ -84.18233784, 9.9649102 ], [ -84.1822389, 9.96482511 ], [ -84.18205144, 9.96469879 ], [ -84.1819473, 9.96463434 ], [ -84.18182235, 9.96459055 ], [ -84.18163494, 9.96455195 ], [ -84.18147916, 9.96452064 ], [ -84.18150077, 9.96432924 ], [ -84.18152287, 9.96418209 ], [ -84.18153679, 9.96401583 ], [ -84.1815222, 9.96381488 ], [ -84.1814618, 9.96368573 ], [ -84.18136517, 9.96348961 ], [ -84.18125895, 9.96342747 ], [ -84.18113757, 9.96336171 ], [ -84.18106199, 9.96329388 ], [ -84.18084804, 9.96313906 ], [ -84.18073475, 9.96300332 ], [ -84.18071332, 9.96296604 ], [ -84.18063356, 9.96274839 ], [ -84.18054903, 9.96262164 ], [ -84.18043072, 9.96249252 ], [ -84.18026897, 9.96237059 ], [ -84.18020618, 9.96229168 ], [ -84.18006854, 9.96213147 ], [ -84.17997921, 9.96205018 ], [ -84.17996009, 9.96203776 ], [ -84.17986814, 9.9619378 ], [ -84.17972334, 9.96190678 ], [ -84.17964368, 9.96185897 ], [ -84.17946009, 9.96152175 ], [ -84.17921614, 9.96112237 ], [ -84.17906884, 9.96093345 ], [ -84.17897137, 9.96084052 ], [ -84.17883966, 9.9606612 ], [ -84.17841184, 9.96047387 ], [ -84.178197, 9.96042415 ], [ -84.17807548, 9.96037702 ], [ -84.17802542, 9.96032276 ], [ -84.17799676, 9.96018828 ], [ -84.1779812, 9.959994 ], [ -84.17787836, 9.95947971 ], [ -84.17784363, 9.95927547 ], [ -84.17778585, 9.95889224 ], [ -84.17765469, 9.95864251 ], [ -84.17758824, 9.9584691 ], [ -84.17759414, 9.95822388 ], [ -84.17760611, 9.95805043 ], [ -84.17760603, 9.95790091 ], [ -84.17754036, 9.95778617 ], [ -84.17748989, 9.95775181 ], [ -84.17730902, 9.95762841 ], [ -84.177136, 9.95754304 ], [ -84.17699041, 9.95739885 ], [ -84.17667058, 9.95724352 ], [ -84.17630854, 9.95711213 ], [ -84.17622947, 9.95704688 ], [ -84.17619731, 9.95696048 ], [ -84.17614776, 9.95659356 ], [ -84.17618865, 9.9561532 ], [ -84.17622115, 9.95541113 ], [ -84.1762982, 9.95518411 ], [ -84.17626208, 9.955036 ], [ -84.1761633, 9.95489743 ], [ -84.17586705, 9.95463664 ], [ -84.17562075, 9.95445686 ], [ -84.17543107, 9.95425324 ], [ -84.17528731, 9.9539548 ], [ -84.17520275, 9.95377542 ], [ -84.17502769, 9.95356618 ], [ -84.17491906, 9.95348251 ], [ -84.17471391, 9.95341085 ], [ -84.17451479, 9.95334516 ], [ -84.17433978, 9.95322564 ], [ -84.17421902, 9.95304029 ], [ -84.17411629, 9.95295382 ], [ -84.17408625, 9.95294467 ], [ -84.17389923, 9.95293281 ], [ -84.17376648, 9.95287307 ], [ -84.17365178, 9.95272959 ], [ -84.17333194, 9.95253837 ], [ -84.17307849, 9.95239496 ], [ -84.1727751, 9.95217044 ], [ -84.17277297, 9.95216972 ], [ -84.17274655, 9.95213795 ], [ -84.1723724, 9.95189892 ], [ -84.17207669, 9.95170768 ], [ -84.17176289, 9.95152244 ], [ -84.17159997, 9.95145075 ], [ -84.17123786, 9.95116984 ], [ -84.17104344, 9.9510717 ], [ -84.17100039, 9.95103867 ], [ -84.17086978, 9.95100256 ], [ -84.17045948, 9.95086521 ], [ -84.17021812, 9.95075768 ], [ -84.1700431, 9.95062021 ], [ -84.16978355, 9.95035121 ], [ -84.1696266, 9.9501599 ], [ -84.16956438, 9.95007066 ], [ -84.16945154, 9.94994468 ], [ -84.16912567, 9.94973552 ], [ -84.16877567, 9.94952636 ], [ -84.1685886, 9.9494188 ], [ -84.1683532, 9.94917969 ], [ -84.16817216, 9.94906614 ], [ -84.16803333, 9.94892268 ], [ -84.16798501, 9.94880308 ], [ -84.16793069, 9.94874928 ], [ -84.16772555, 9.9486836 ], [ -84.16763506, 9.94870159 ], [ -84.16736356, 9.94864191 ], [ -84.16714029, 9.94852241 ], [ -84.1669592, 9.94830719 ], [ -84.16695441, 9.94829584 ], [ -84.1669411, 9.94828926 ], [ -84.16680833, 9.94818765 ], [ -84.16662723, 9.94796047 ], [ -84.16652457, 9.94774521 ], [ -84.16654862, 9.94759568 ], [ -84.16650633, 9.9474701 ], [ -84.16639307, 9.94728317 ], [ -84.16630093, 9.94690202 ], [ -84.16619806, 9.94627409 ], [ -84.16615969, 9.9459375 ], [ -84.16614348, 9.9457179 ], [ -84.16613133, 9.94554446 ], [ -84.16622166, 9.94523341 ], [ -84.16624563, 9.94491044 ], [ -84.16625853, 9.94478409 ], [ -84.16628161, 9.9444798 ], [ -84.16623319, 9.9441748 ], [ -84.16605815, 9.94397752 ], [ -84.16565458, 9.94364777 ], [ -84.16556321, 9.94344547 ], [ -84.16550275, 9.94317637 ], [ -84.16549664, 9.94303283 ], [ -84.16544223, 9.94278764 ], [ -84.1653698, 9.94272189 ], [ -84.16524307, 9.94263224 ], [ -84.16490139, 9.94249087 ], [ -84.16478741, 9.94230405 ], [ -84.16461519, 9.94210302 ], [ -84.16460636, 9.94206718 ], [ -84.1646093, 9.9419328 ], [ -84.16460314, 9.94167562 ], [ -84.16456621, 9.9414728 ], [ -84.1645487, 9.94137661 ], [ -84.16450041, 9.94132281 ], [ -84.16441588, 9.94116735 ], [ -84.16435803, 9.94111824 ], [ -84.16428914, 9.94105975 ], [ -84.16426545, 9.94104498 ], [ -84.16407569, 9.94072647 ], [ -84.1640506, 9.94066927 ], [ -84.1639994, 9.94053718 ], [ -84.163942, 9.94040049 ], [ -84.16387223, 9.94031142 ], [ -84.16374512, 9.94020702 ], [ -84.16366452, 9.94016098 ], [ -84.1636254, 9.94012758 ], [ -84.16344399, 9.93989048 ], [ -84.16340801, 9.9398022 ], [ -84.16330312, 9.93966586 ], [ -84.1632789, 9.93948884 ], [ -84.16327885, 9.93937879 ], [ -84.16328358, 9.93919697 ], [ -84.16331727, 9.93899121 ], [ -84.16332203, 9.93886681 ], [ -84.16329302, 9.93875199 ], [ -84.16329298, 9.93867544 ], [ -84.16333634, 9.93853666 ], [ -84.16337487, 9.93837875 ], [ -84.16339882, 9.93800075 ], [ -84.16344694, 9.93772322 ], [ -84.16348546, 9.93755573 ], [ -84.16355884, 9.9373929 ], [ -84.16356975, 9.9372112 ], [ -84.1635335, 9.93710356 ], [ -84.16327283, 9.93698168 ], [ -84.16290357, 9.93682396 ], [ -84.16265738, 9.9366949 ], [ -84.16230252, 9.93639364 ], [ -84.16197661, 9.93606365 ], [ -84.16186794, 9.93589863 ], [ -84.16184607, 9.93558286 ], [ -84.16187431, 9.93541252 ], [ -84.16189423, 9.93526823 ], [ -84.16189423, 9.93526819 ], [ -84.16190572, 9.93508285 ], [ -84.16193601, 9.93488324 ], [ -84.16192832, 9.93468364 ], [ -84.16191309, 9.93461586 ], [ -84.16183322, 9.9344163 ], [ -84.1617534, 9.93429582 ], [ -84.16162798, 9.9341716 ], [ -84.16151775, 9.93401725 ], [ -84.16140748, 9.93378758 ], [ -84.16136565, 9.93369081 ], [ -84.16125535, 9.93340841 ], [ -84.16113369, 9.93317874 ], [ -84.16105003, 9.93298671 ], [ -84.16100818, 9.93286245 ], [ -84.16098155, 9.93276455 ], [ -84.16096631, 9.93267417 ], [ -84.16097006, 9.93257249 ], [ -84.16094344, 9.93250848 ], [ -84.16085985, 9.93246709 ], [ -84.16079525, 9.93242193 ], [ -84.16065086, 9.93231278 ], [ -84.16057485, 9.9322488 ], [ -84.16048746, 9.93218858 ], [ -84.16038488, 9.93214344 ], [ -84.16028987, 9.9320418 ], [ -84.16025944, 9.93195896 ], [ -84.160248, 9.93186858 ], [ -84.16022135, 9.93175561 ], [ -84.16019944, 9.93171358 ], [ -84.16008833, 9.93159073 ], [ -84.15992871, 9.93142133 ], [ -84.15962093, 9.93120681 ], [ -84.15953732, 9.93112776 ], [ -84.15952205, 9.93097336 ], [ -84.15953336, 9.93080012 ], [ -84.15949529, 9.93061937 ], [ -84.15943062, 9.93042357 ], [ -84.15938877, 9.93028424 ], [ -84.15936971, 9.93014491 ], [ -84.15939243, 9.92999049 ], [ -84.15943793, 9.929821 ], [ -84.15950244, 9.92969292 ], [ -84.15950943, 9.92968911 ], [ -84.15951382, 9.92967032 ], [ -84.15973398, 9.92934634 ], [ -84.15980228, 9.92920696 ], [ -84.15991994, 9.9290186 ], [ -84.16001864, 9.92888674 ], [ -84.16008313, 9.92872101 ], [ -84.16010589, 9.92864567 ], [ -84.16010607, 9.92863839 ], [ -84.16009998, 9.92862033 ], [ -84.16008086, 9.92852466 ], [ -84.16010304, 9.92840462 ], [ -84.16011781, 9.92829438 ], [ -84.1601375, 9.92814739 ], [ -84.16013495, 9.92798571 ], [ -84.16011016, 9.9278069 ], [ -84.16011753, 9.92773096 ], [ -84.1601656, 9.92761541 ], [ -84.16022366, 9.92749084 ], [ -84.16032735, 9.92732421 ], [ -84.16034883, 9.92725837 ], [ -84.16035862, 9.92722046 ], [ -84.16036147, 9.92721714 ], [ -84.16036033, 9.92721199 ], [ -84.16036291, 9.92720844 ], [ -84.16036212, 9.92720323 ], [ -84.16036441, 9.92719947 ], [ -84.16036406, 9.92719563 ], [ -84.16036605, 9.92719168 ], [ -84.16036772, 9.92718758 ], [ -84.16036905, 9.92718334 ], [ -84.16037005, 9.92717899 ], [ -84.16037071, 9.92717457 ], [ -84.16036529, 9.92710284 ], [ -84.16037567, 9.9270205 ], [ -84.16036993, 9.92694986 ], [ -84.16037424, 9.92683316 ], [ -84.16037358, 9.92675905 ], [ -84.16037993, 9.92667183 ], [ -84.1603856, 9.92659741 ], [ -84.16039691, 9.92652604 ], [ -84.16041047, 9.92643419 ], [ -84.16042427, 9.92636541 ], [ -84.16044863, 9.92625695 ], [ -84.16048016, 9.9261273 ], [ -84.16050361, 9.92602391 ], [ -84.16051328, 9.92595485 ], [ -84.16054486, 9.92588901 ], [ -84.16050236, 9.92580775 ], [ -84.16047287, 9.92575023 ], [ -84.16044476, 9.92569759 ], [ -84.160425, 9.92566922 ], [ -84.16040998, 9.92564834 ], [ -84.16039056, 9.92562875 ], [ -84.16037143, 9.92560685 ], [ -84.16032994, 9.92557455 ], [ -84.16029602, 9.92554668 ], [ -84.16022276, 9.92549578 ], [ -84.16014487, 9.92544083 ], [ -84.1601225, 9.92542311 ], [ -84.16008904, 9.92539212 ], [ -84.16007898, 9.92538166 ], [ -84.16007003, 9.92537023 ], [ -84.16005779, 9.9253557 ], [ -84.16005113, 9.92534413 ], [ -84.16003449, 9.92531621 ], [ -84.16001428, 9.92526135 ], [ -84.15999962, 9.92522447 ], [ -84.15997912, 9.9251603 ], [ -84.15994034, 9.925051 ], [ -84.15991904, 9.92497937 ], [ -84.15990653, 9.92494313 ], [ -84.15987617, 9.92482928 ], [ -84.15986848, 9.92478863 ], [ -84.15984862, 9.92471371 ], [ -84.15982038, 9.92461771 ], [ -84.15981628, 9.92460378 ], [ -84.15975263, 9.92444596 ], [ -84.15969577, 9.92430293 ], [ -84.15960763, 9.92412954 ], [ -84.1595201, 9.92395734 ], [ -84.15936119, 9.92373097 ], [ -84.15915473, 9.92344621 ], [ -84.15915371, 9.92344692 ], [ -84.15911438, 9.92338854 ], [ -84.15911006, 9.92338825 ], [ -84.15910952, 9.92338237 ], [ -84.15910305, 9.92337863 ], [ -84.15910035, 9.92337356 ], [ -84.15909721, 9.92336974 ], [ -84.15909293, 9.92336457 ], [ -84.15909004, 9.92336105 ], [ -84.15908126, 9.92334924 ], [ -84.15907004, 9.92333415 ], [ -84.15904395, 9.92319943 ], [ -84.15901838, 9.92306735 ], [ -84.15901341, 9.92303548 ], [ -84.15900831, 9.92300267 ], [ -84.15900545, 9.9229952 ], [ -84.1590011, 9.92298382 ], [ -84.15886015, 9.92287384 ], [ -84.15872097, 9.92276524 ], [ -84.15860031, 9.92263871 ], [ -84.15847749, 9.92250993 ], [ -84.15846439, 9.92247358 ], [ -84.15845247, 9.92244052 ], [ -84.15845128, 9.92243129 ], [ -84.1584502, 9.92242293 ], [ -84.15844882, 9.9224155 ], [ -84.15844734, 9.92240751 ], [ -84.15844701, 9.92239306 ], [ -84.15844662, 9.92237639 ], [ -84.15845072, 9.92235813 ], [ -84.15845436, 9.92234187 ], [ -84.15847951, 9.92226807 ], [ -84.15850589, 9.92219095 ], [ -84.15851135, 9.92218126 ], [ -84.1585165, 9.92217237 ], [ -84.15861744, 9.92205504 ], [ -84.15871677, 9.92193956 ], [ -84.15887944, 9.92178004 ], [ -84.15904211, 9.92162052 ], [ -84.15910431, 9.92154826 ], [ -84.15916736, 9.92147502 ], [ -84.15918195, 9.9214517 ], [ -84.15919757, 9.92142674 ], [ -84.15923244, 9.92133384 ], [ -84.15926818, 9.9212386 ], [ -84.15928841, 9.92104023 ], [ -84.15930848, 9.9208434 ], [ -84.1593231, 9.92064523 ], [ -84.15933777, 9.92044657 ], [ -84.15933981, 9.92043605 ], [ -84.15934257, 9.92042183 ], [ -84.15936781, 9.92039469 ], [ -84.15938993, 9.92037091 ], [ -84.1594671, 9.92032433 ], [ -84.15954342, 9.9202785 ], [ -84.15955227, 9.92027107 ], [ -84.15955966, 9.92026476 ], [ -84.15973272, 9.92002391 ], [ -84.15990423, 9.91978522 ], [ -84.1599251, 9.91974989 ], [ -84.15994661, 9.91971347 ], [ -84.15998976, 9.91960875 ], [ -84.16003245, 9.91950512 ], [ -84.16010287, 9.9192919 ], [ -84.16017327, 9.91907874 ], [ -84.16024, 9.91891144 ], [ -84.16030648, 9.91874475 ], [ -84.16040977, 9.91852526 ], [ -84.16051321, 9.91830547 ], [ -84.16053365, 9.91824376 ], [ -84.16055382, 9.9181829 ], [ -84.16061582, 9.91796308 ], [ -84.16067808, 9.91774235 ], [ -84.1606967, 9.91761445 ], [ -84.16071553, 9.9174851 ], [ -84.1607157, 9.91742422 ], [ -84.16071588, 9.91736178 ], [ -84.16069267, 9.91720174 ], [ -84.1606695, 9.91704197 ], [ -84.16066507, 9.91694533 ], [ -84.16066058, 9.91684763 ], [ -84.16065816, 9.91684075 ], [ -84.16065679, 9.91683685 ], [ -84.16065006, 9.91682742 ], [ -84.16064477, 9.91682002 ], [ -84.16064173, 9.91681703 ], [ -84.16063977, 9.91681509 ], [ -84.16063215, 9.91680895 ], [ -84.16062349, 9.91680197 ], [ -84.16061869, 9.91679912 ], [ -84.16061432, 9.91679651 ], [ -84.16060249, 9.91678863 ], [ -84.16059004, 9.91678034 ], [ -84.16049889, 9.91674151 ], [ -84.16040705, 9.91670238 ], [ -84.1603997, 9.91669589 ], [ -84.16039416, 9.916691 ], [ -84.16038931, 9.91668562 ], [ -84.16038527, 9.91668114 ], [ -84.16038261, 9.91667747 ], [ -84.16037497, 9.91666693 ], [ -84.16036142, 9.91664824 ], [ -84.16035176, 9.91663492 ], [ -84.16034241, 9.91661264 ], [ -84.16033393, 9.91659243 ], [ -84.16033128, 9.91658049 ], [ -84.16032815, 9.91656637 ], [ -84.16032923, 9.91645621 ], [ -84.16033029, 9.91634769 ], [ -84.16033985, 9.91623274 ], [ -84.16034953, 9.91611631 ], [ -84.16035197, 9.91610794 ], [ -84.16035387, 9.91610142 ], [ -84.1604053, 9.91599092 ], [ -84.16045712, 9.91587957 ], [ -84.16045847, 9.91586781 ], [ -84.16045965, 9.91585743 ], [ -84.16046341, 9.9158371 ], [ -84.16046734, 9.91581587 ], [ -84.16045486, 9.91559221 ], [ -84.1604424, 9.91536898 ], [ -84.16044988, 9.91529863 ], [ -84.16045718, 9.91522999 ], [ -84.16047289, 9.91517081 ], [ -84.16048906, 9.91510984 ], [ -84.16056834, 9.9149432 ], [ -84.16065528, 9.91476046 ], [ -84.16081716, 9.91452172 ], [ -84.16085997, 9.91441908 ], [ -84.16084292, 9.91425983 ], [ -84.16079736, 9.91404215 ], [ -84.16078631, 9.91382895 ], [ -84.1608314, 9.91355222 ], [ -84.16084612, 9.91304908 ], [ -84.16091037, 9.91274182 ], [ -84.16098033, 9.91256123 ], [ -84.16101997, 9.91235054 ], [ -84.16117908, 9.91210336 ], [ -84.16129747, 9.91193043 ], [ -84.16153245, 9.91171681 ], [ -84.16177643, 9.91132982 ], [ -84.16179169, 9.91123144 ], [ -84.16175944, 9.91118248 ], [ -84.16169142, 9.91107759 ], [ -84.1616576, 9.91099169 ], [ -84.16161867, 9.91084008 ], [ -84.16162204, 9.91077946 ], [ -84.16165332, 9.91073097 ], [ -84.16176313, 9.91064878 ], [ -84.1618903, 9.91053183 ], [ -84.16197687, 9.91046042 ], [ -84.1621378, 9.91022261 ], [ -84.16233233, 9.90986969 ], [ -84.16248295, 9.90951844 ], [ -84.16257335, 9.90932787 ], [ -84.16276174, 9.9089766 ], [ -84.16289736, 9.9087337 ], [ -84.16294492, 9.90863588 ], [ -84.16289545, 9.90855564 ], [ -84.16286865, 9.90851217 ], [ -84.1628169, 9.90839929 ], [ -84.16276564, 9.90828745 ], [ -84.16273039, 9.90820985 ], [ -84.16269436, 9.90813051 ], [ -84.16267138, 9.90802691 ], [ -84.16264759, 9.90791963 ], [ -84.1626469, 9.90783494 ], [ -84.16264623, 9.90775374 ], [ -84.16266181, 9.90766288 ], [ -84.16267794, 9.90756884 ], [ -84.16270562, 9.90749308 ], [ -84.16273298, 9.90741821 ], [ -84.1627578, 9.90733065 ], [ -84.16278352, 9.90723993 ], [ -84.1627833, 9.90722347 ], [ -84.16278312, 9.90721024 ], [ -84.1627807, 9.90718039 ], [ -84.16277816, 9.9071491 ], [ -84.1627719, 9.90711364 ], [ -84.16276522, 9.90707584 ], [ -84.16275788, 9.90705544 ], [ -84.16274936, 9.90703172 ], [ -84.16273385, 9.90700731 ], [ -84.16272043, 9.90698618 ], [ -84.16270603, 9.90697145 ], [ -84.16268882, 9.90695383 ], [ -84.16266703, 9.90694008 ], [ -84.16264822, 9.90692821 ], [ -84.16261041, 9.90691169 ], [ -84.16257438, 9.90689595 ], [ -84.16252353, 9.90687727 ], [ -84.1624727, 9.9068586 ], [ -84.16242803, 9.90683917 ], [ -84.16238217, 9.90681922 ], [ -84.16230925, 9.90678014 ], [ -84.16223717, 9.90674151 ], [ -84.16218272, 9.90671072 ], [ -84.16212846, 9.90668003 ], [ -84.16208756, 9.90665682 ], [ -84.16204546, 9.90663293 ], [ -84.16200207, 9.90659888 ], [ -84.16196006, 9.90656593 ], [ -84.16192052, 9.90653205 ], [ -84.16187938, 9.90649679 ], [ -84.16185799, 9.90646994 ], [ -84.16183432, 9.90644022 ], [ -84.16181322, 9.9063976 ], [ -84.16179337, 9.90635748 ], [ -84.16177245, 9.90630246 ], [ -84.1617509, 9.9062458 ], [ -84.16173076, 9.90617121 ], [ -84.16171003, 9.90609443 ], [ -84.16170331, 9.9060336 ], [ -84.16169682, 9.90597486 ], [ -84.16169584, 9.9059415 ], [ -84.16169488, 9.90590914 ], [ -84.16169489, 9.90588561 ], [ -84.16169489, 9.90586085 ], [ -84.16169676, 9.90584349 ], [ -84.16169865, 9.90582586 ], [ -84.16169766, 9.90579254 ], [ -84.16169671, 9.90576014 ], [ -84.16169686, 9.90572658 ], [ -84.16169702, 9.90569274 ], [ -84.16169385, 9.90564092 ], [ -84.16169072, 9.9055897 ], [ -84.16168806, 9.90554795 ], [ -84.16168536, 9.90550555 ], [ -84.16168499, 9.90550281 ], [ -84.16168382, 9.90549404 ], [ -84.16168204, 9.90548074 ], [ -84.16166786, 9.90542852 ], [ -84.16165377, 9.90537663 ], [ -84.16163813, 9.90528529 ], [ -84.16162264, 9.90519488 ], [ -84.16161368, 9.90513969 ], [ -84.1616046, 9.9050838 ], [ -84.16160097, 9.90504382 ], [ -84.16159722, 9.90500254 ], [ -84.16159648, 9.90495253 ], [ -84.16159571, 9.90490115 ], [ -84.16159852, 9.90485576 ], [ -84.16160149, 9.90480795 ], [ -84.16162324, 9.9047247 ], [ -84.16164472, 9.90464252 ], [ -84.1616536, 9.90459527 ], [ -84.16166284, 9.90454608 ], [ -84.16166458, 9.90449896 ], [ -84.16166494, 9.90448936 ], [ -84.16173466, 9.90416546 ], [ -84.16171616, 9.90409238 ], [ -84.161669802634236, 9.903909290263215 ], [ -84.162323516216205, 9.903444147906818 ], [ -84.16533932869109, 9.901656999773554 ], [ -84.16944418455968, 9.897607992284126 ], [ -84.170226061867979, 9.896742342407077 ], [ -84.171985285811658, 9.895150663600887 ], [ -84.173158101774121, 9.893949923448851 ], [ -84.174009789556408, 9.892749183296816 ], [ -84.175280340182397, 9.892497865590576 ], [ -84.176369383576116, 9.892260509979128 ], [ -84.178522708330732, 9.892164272001267 ], [ -84.186564330666599, 9.900284787644873 ], [ -84.186992912881351, 9.900477196664312 ], [ -84.18716459, 9.90080279 ], [ -84.18732919, 9.90107345 ], [ -84.18745071, 9.90137128 ], [ -84.18751728, 9.90160768 ], [ -84.187564465162467, 9.901717119494315 ], [ -84.18763586, 9.90188271 ], [ -84.18772282, 9.902161 ], [ -84.18770329, 9.90231368 ], [ -84.18767197, 9.90245156 ], [ -84.18767278, 9.90253285 ], [ -84.18768452, 9.90262621 ], [ -84.189576652617703, 9.903823742358961 ], [ -84.19284348, 9.90487399 ], [ -84.195887519463284, 9.905387496975568 ], [ -84.203341096504488, 9.904612164399198 ], [ -84.21065863, 9.90420708 ], [ -84.211990614227588, 9.904088585844534 ], [ -84.213351918469726, 9.903837268138293 ], [ -84.216095470096192, 9.903376519010186 ], [ -84.220116553396039, 9.903774438711732 ], [ -84.222073428243959, 9.904054116923016 ], [ -84.222757570888731, 9.904137889491762 ], [ -84.22353944819703, 9.90412392739697 ], [ -84.223832652187639, 9.904082041112597 ], [ -84.224433022263668, 9.903607329889699 ], [ -84.225242823761548, 9.902937149339724 ], [ -84.226024701069846, 9.902406589737662 ], [ -84.227016009800025, 9.902141309936631 ], [ -84.228914854691624, 9.901764333377271 ], [ -84.229361641724935, 9.90173640918769 ], [ -84.229738618284301, 9.901708484998107 ], [ -84.230373632455454, 9.901370279725693 ], [ -84.230785775393628, 9.901010380258549 ], [ -84.23140010756444, 9.900731138362728 ], [ -84.23181897040817, 9.90025642713983 ], [ -84.233340838740403, 9.899223232125285 ], [ -84.235195615770436, 9.8978475294729 ], [ -84.236242772879777, 9.897323950918231 ], [ -84.23855885, 9.8969252 ], [ -84.23861921, 9.89698496 ], [ -84.23876104, 9.8970985 ], [ -84.23891193, 9.89723595 ], [ -84.23903563, 9.89730763 ], [ -84.23922266, 9.89736252 ], [ -84.23934632, 9.89737739 ], [ -84.23947296, 9.89735038 ], [ -84.23961769, 9.89729645 ], [ -84.23975034, 9.89723057 ], [ -84.23983779, 9.89721854 ], [ -84.2399735, 9.89722144 ], [ -84.24013034, 9.89723927 ], [ -84.24028417, 9.89726607 ], [ -84.24037164, 9.89728993 ], [ -84.24044708, 9.89734072 ], [ -84.24050746, 9.89742739 ], [ -84.24060405, 9.89754694 ], [ -84.24074894, 9.89771729 ], [ -84.24091194, 9.89791155 ], [ -84.24094216, 9.89800722 ], [ -84.24094523, 9.89807839 ], [ -84.24091529, 9.89838044 ], [ -84.24091838, 9.89847314 ], [ -84.24094858, 9.89853293 ], [ -84.24100892, 9.89856578 ], [ -84.24107226, 9.89856873 ], [ -84.2411597, 9.89854474 ], [ -84.24125319, 9.89853869 ], [ -84.24137084, 9.89858047 ], [ -84.24155188, 9.89869996 ], [ -84.24170578, 9.89883143 ], [ -84.24177523, 9.89895099 ], [ -84.24180547, 9.89905863 ], [ -84.24180552, 9.89911844 ], [ -84.24177842, 9.89918424 ], [ -84.24172719, 9.89923512 ], [ -84.24163072, 9.89928602 ], [ -84.24154027, 9.89933095 ], [ -84.24149807, 9.89936088 ], [ -84.24147097, 9.89942071 ], [ -84.24145897, 9.89950445 ], [ -84.24146504, 9.89955827 ], [ -84.241447, 9.89963245 ], [ -84.24139881, 9.89972219 ], [ -84.24137778, 9.89982687 ], [ -84.24137184, 9.89995845 ], [ -84.241393, 9.90002423 ], [ -84.2414413, 9.90007802 ], [ -84.2415318, 9.90011982 ], [ -84.24163136, 9.9001676 ], [ -84.2416857, 9.90023335 ], [ -84.24174008, 9.90036189 ], [ -84.24177033, 9.90048747 ], [ -84.24178284, 9.90110647 ], [ -84.2418161, 9.9012141 ], [ -84.24188158, 9.90129048 ], [ -84.24119582600693, 9.90143927835792 ], [ -84.24180317713035, 9.902758696315681 ], [ -84.241625160421776, 9.905722150935098 ], [ -84.24160639885676, 9.906385786753136 ], [ -84.241522626288017, 9.907279360819768 ], [ -84.241466777908855, 9.908005389748906 ], [ -84.241480740003638, 9.908871039625955 ], [ -84.241634323046341, 9.909443485512393 ], [ -84.241899602847369, 9.909722727408214 ], [ -84.243279668654523, 9.910245869647422 ], [ -84.244315045246239, 9.910448756337352 ], [ -84.245808989388891, 9.911146861076908 ], [ -84.246618790886785, 9.911733269058136 ], [ -84.248084810839842, 9.912738539883099 ], [ -84.249341399371048, 9.914064938888256 ], [ -84.251603258727215, 9.915279641135085 ], [ -84.253530027808395, 9.916061518443387 ], [ -84.253851155988585, 9.917387917448545 ], [ -84.253823231799004, 9.918393188273505 ], [ -84.253962852746909, 9.920864479051534 ], [ -84.254884351003128, 9.92216295386711 ], [ -84.256252636292658, 9.92364293591497 ], [ -84.256913654218053, 9.924675694614052 ], [ -84.257204511900142, 9.925302525558946 ], [ -84.25666539071986, 9.925608973387739 ], [ -84.255876532364169, 9.925755575383045 ], [ -84.255555404183966, 9.925860291093979 ], [ -84.255213332861601, 9.92596500680491 ], [ -84.253328450064799, 9.925978968899702 ] ] ] ] } }
]
}
