{
  "type": "FeatureCollection",
  "features": [
    {
      "type": "Feature",
      "geometry": {
        "type": "Polygon",
        "coordinates": [
          [
            [
              -84.02974180800001,
              9.921780917000001
            ],
            [
              -84.029603233,
              9.920210968000001
            ],
            [
              -84.029191807,
              9.918688728000001
            ],
            [
              -84.02852003400001,
              9.917260448
            ],
            [
              -84.027608329,
              9.915969525000001
            ],
            [
              -84.02648439400001,
              9.914855182000002
            ],
            [
              -84.02518238,
              9.913951274
            ],
            [
              -84.02374184700001,
              9.913285265
            ],
            [
              -84.022206561,
              9.912877389000002
            ],
            [
              -84.020623169,
              9.912740040000001
            ],
            [
              -84.01903977600001,
              9.912877389000002
            ],
            [
              -84.01750449100001,
              9.913285265
            ],
            [
              -84.01606395700001,
              9.913951274
            ],
            [
              -84.01476194300001,
              9.914855182000002
            ],
            [
              -84.013638009,
              9.915969525000001
            ],
            [
              -84.01272630400001,
              9.917260448
            ],
            [
              -84.012054531,
              9.918688728000001
            ],
            [
              -84.011643105,
              9.920210968000001
            ],
            [
              -84.011504529,
              9.921780917000001
            ],
            [
              -84.011643019,
              9.923350874
            ],
            [
              -84.01205437000002,
              9.924873135
            ],
            [
              -84.012726087,
              9.926301447000002
            ],
            [
              -84.013637763,
              9.927592409
            ],
            [
              -84.01476169700001,
              9.928706795000002
            ],
            [
              -84.01606374100001,
              9.929610743000001
            ],
            [
              -84.01750433000001,
              9.930276784000002
            ],
            [
              -84.019039691,
              9.930684681
            ],
            [
              -84.020623169,
              9.930822037
            ],
            [
              -84.022206647,
              9.930684681
            ],
            [
              -84.02374200800001,
              9.930276784000002
            ],
            [
              -84.02518259700001,
              9.929610743000001
            ],
            [
              -84.02648464,
              9.928706795000002
            ],
            [
              -84.02760857500002,
              9.927592409
            ],
            [
              -84.02852025000001,
              9.926301447000002
            ],
            [
              -84.02919196700002,
              9.924873135
            ],
            [
              -84.02960331800001,
              9.923350874
            ],
            [
              -84.02974180800001,
              9.921780917000001
            ]
          ]
        ]
      },
      "properties": {
        "fid": 1,
        "Nombre": "Entrada de Aleste"
      }
    },
    {
      "type": "Feature",
      "geometry": {
        "type": "Polygon",
        "coordinates": [
          [
            [
              -84.15151839400001,
              9.939452667000001
            ],
            [
              -84.15137981100001,
              9.937882719000001
            ],
            [
              -84.150968363,
              9.936360480000001
            ],
            [
              -84.15029655400001,
              9.934932203
            ],
            [
              -84.1493848,
              9.933641281000002
            ],
            [
              -84.148260805,
              9.932526939
            ],
            [
              -84.14695872200001,
              9.931623032000001
            ],
            [
              -84.14551811100002,
              9.930957023000001
            ],
            [
              -84.14398274300001,
              9.930549148
            ],
            [
              -84.14239926600001,
              9.930411799000002
            ],
            [
              -84.14081578800001,
              9.930549148
            ],
            [
              -84.13928042100001,
              9.930957023000001
            ],
            [
              -84.13783981000002,
              9.931623032000001
            ],
            [
              -84.13653772600001,
              9.932526939
            ],
            [
              -84.13541373100001,
              9.933641281000002
            ],
            [
              -84.13450197700001,
              9.934932203
            ],
            [
              -84.13383016800002,
              9.936360480000001
            ],
            [
              -84.13341872000001,
              9.937882719000001
            ],
            [
              -84.13328013700001,
              9.939452667000001
            ],
            [
              -84.13341863400001,
              9.941022622000002
            ],
            [
              -84.13383000700001,
              9.942544881000002
            ],
            [
              -84.13450176,
              9.943973192000001
            ],
            [
              -84.13541348500002,
              9.945264153000002
            ],
            [
              -84.13653747900001,
              9.946378538000001
            ],
            [
              -84.13783959300001,
              9.947282484
            ],
            [
              -84.139280259,
              9.947948525000001
            ],
            [
              -84.14081570300002,
              9.948356421000002
            ],
            [
              -84.14239926600001,
              9.948493778000001
            ],
            [
              -84.14398282900001,
              9.948356421000002
            ],
            [
              -84.145518272,
              9.947948525000001
            ],
            [
              -84.14695893900002,
              9.947282484
            ],
            [
              -84.14826105200001,
              9.946378538000001
            ],
            [
              -84.14938504700001,
              9.945264153000002
            ],
            [
              -84.15029677100001,
              9.943973192000001
            ],
            [
              -84.150968524,
              9.942544881000002
            ],
            [
              -84.15137989700001,
              9.941022622000002
            ],
            [
              -84.15151839400001,
              9.939452667000001
            ]
          ]
        ]
      },
      "properties": {
        "fid": "2",
        "Nombre": "Avenida Escazú"
      }
    }
  ]
}