{
  "type": "FeatureCollection",
  "features": [
    {
      "type": "Feature",
      "properties": {
        "__gm_id": "feature-1",
        "__gm_shape": "marker"
      },
      "geometry": {
        "type": "Polygon",
        "coordinates": [
          [
            [
              -84.26343607509918,
              10.024362698953741
            ],
            [
              -84.26518603167969,
              10.041908036146799
            ],
            [
              -84.27037890114373,
              10.058780013179048
            ],
            [
              -84.27881559504857,
              10.07433009664813
            ],
            [
              -84.29017221218892,
              10.087960475414038
            ],
            [
              -84.30401243712511,
              10.099147069152442
            ],
            [
              -84.31980428974197,
              10.107459710107486
            ],
            [
              -84.33694058507317,
              10.112578716080058
            ],
            [
              -84.35476231478494,
              10.114307211288313
            ],
            [
              -84.3725840444967,
              10.112578716080058
            ],
            [
              -84.3897203398279,
              10.107459710107486
            ],
            [
              -84.40551219244476,
              10.099147069152442
            ],
            [
              -84.41935241738096,
              10.087960475414038
            ],
            [
              -84.4307090345213,
              10.07433009664813
            ],
            [
              -84.43914572842614,
              10.058780013179048
            ],
            [
              -84.44433859789018,
              10.041908036146799
            ],
            [
              -84.44608855447069,
              10.024362698953741
            ],
            [
              -84.44432890117555,
              10.006818311434973
            ],
            [
              -84.43912781122873,
              9.98994903884707
            ],
            [
              -84.43068562456477,
              9.974403002867117
            ],
            [
              -84.41932707861392,
              9.96077739844344
            ],
            [
              -84.40548878246479,
              9.949595579050817
            ],
            [
              -84.38970242259734,
              9.941286985593468
            ],
            [
              -84.37257434775863,
              9.936170684073817
            ],
            [
              -84.35476231478494,
              9.934443138543408
            ],
            [
              -84.33695028181124,
              9.936170684073817
            ],
            [
              -84.31982220697255,
              9.941286985593468
            ],
            [
              -84.30403584710508,
              9.949595579050817
            ],
            [
              -84.29019755095597,
              9.96077739844344
            ],
            [
              -84.2788390050051,
              9.974403002867117
            ],
            [
              -84.27039681834115,
              9.98994903884707
            ],
            [
              -84.26519572839432,
              10.006818311434973
            ],
            [
              -84.26343607509918,
              10.024362698953741
            ]
          ]
        ]
      }
    }
  ]
}