{
"type": "FeatureCollection",
"name": "buffer_2km_aleste_avescazu",
"crs": { "type": "name", "properties": { "name": "urn:ogc:def:crs:OGC:1.3:CRS84" } },
"xy_coordinate_resolution": 1e-15,
"features": [
{"type":"Feature","properties":{"distancias":2,"layer":"Buffer aleste 2km","path":"?query=SELECT%20max(ringId)%20as%20distancias,ST_Union(aleste.geometry)%20as%20geom%20%20FROM%20%22buffer_1_8km_aleste_61e5ce4e_2755_4dbd_ac82_93afdd07bb6d%22%20as%20aleste%20where%20ringId%20IN%20(1,2)"},"geometry":{"type":"Polygon","coordinates":[[[-84.002440280995955,9.920362827137794],[-84.002510475373001,9.919656142119081],[-84.002608597671738,9.918952734243749],[-84.002734496420018,9.91825368809187],[-84.00288797732081,9.917560081511457],[-84.003068803552921,9.916872983956718],[-84.003276696137078,9.916193454839247],[-84.003511334367147,9.915522541894756],[-84.003772356305532,9.914861279567866],[-84.004059359342122,9.914210687417373],[-84.004371900815912,9.913571768544562],[-84.004709498698347,9.912945508046876],[-84.005071632337206,9.912332871499407],[-84.005457743260067,9.9117348034665],[-84.005867236035925,9.911152226045763],[-84.006299479193814,9.91058603744677],[-84.00675380619694,9.910037110606586],[-84.007229516470531,9.909506291844275],[-84.00772587648251,9.908994399556493],[-84.008242120874527,9.908502222956093],[-84.008777453642168,9.908030520855759],[-84.009331049362359,9.907580020498528],[-84.009902054465883,9.90715141643696],[-84.010489588553298,9.906745369462719],[-84.011092745752279,9.90636250558819],[-84.011710596113844,9.906003415081745],[-84.012342187045917,9.905668651558065],[-84.012986544781569,9.905358731124966],[-84.013642675879879,9.905074131588091],[-84.014309568757113,9.904815291714534],[-84.014986195245626,9.904582610556741],[-84.015671512178542,9.904376446837535],[-84.016364462997302,9.904197118397333],[-84.017063979379856,9.904044901704371],[-84.017768982887063,9.903920031428671],[-84.018478386624409,9.903822700080402],[-84.019191096916998,9.903753057713276],[-84.019906014994802,9.903711211693269],[-84.020622038685786,9.903697226533229],[-84.021338064114289,9.903711123793432],[-84.022052987401992,9.903752882048378],[-84.022765706368943,9.903822436919805],[-84.023475122231872,9.903919681175896],[-84.024180141297407,9.90404446489651],[-84.02487967664733,9.904196595704223],[-84.025572649813569,9.904375839060753],[-84.026257992439994,9.904581918628406],[-84.026934647928854,9.904814516695888],[-84.027601573069049,9.905073274667899],[-84.028257739643777,9.905357793617721],[-84.028902136015091,9.905667634902011],[-84.02953376868318,9.906002320836704],[-84.030151663817378,9.906361335433187],[-84.030754868757242,9.906744125193468],[-84.031342453480974,9.907150099963138],[-84.031913512038798,9.907578633840874],[-84.03246716394969,9.90802906614303],[-84.033002555558539,9.908500702421836],[-84.033518861352292,9.90899281553566],[-84.03401528523267,9.909504646769673],[-84.034491061743637,9.910035407005196],[-84.034945457251737,9.910584277935913],[-84.035377771077364,9.911150413329102],[-84.03578733657551,9.911732940329953],[-84.036173522163764,9.912330960806891],[-84.036535732296784,9.912943552735957],[-84.036873408384849,9.913569771621971],[-84.037186029655828,9.914208651954425],[-84.037473113958697,9.914859208695773],[-84.037734218507737,9.915520438799836],[-84.037968940566017,9.916191322758062],[-84.038176918067151,9.916870826171118],[-84.03835783017449,9.917557901343558],[-84.038511397776759,9.918251488898957],[-84.038637383919408,9.91895051941313],[-84.038735594170902,9.919653915062884],[-84.038805876923703,9.92036059128773],[-84.038848123628995,9.921069458462062],[-84.038862268965232,9.921779423575146],[-84.03884829093991,9.922489391916415],[-84.038806210924648,9.923198268763397],[-84.038736093623314,9.92390496106969],[-84.038638046973418,9.924608379150463],[-84.038512221980696,9.925307438362731],[-84.038358812487445,9.926001060777947],[-84.038178054874649,9.926688176844284],[-84.037970227698452,9.927367727036016],[-84.037735651261784,9.928038663487497],[-84.037474687121232,9.92869995160919],[-84.037187737530573,9.92935057168325],[-84.036875244821303,9.929989520436244],[-84.036537690721332,9.930615812586506],[-84.036175595612931,9.931228482363792],[-84.035789517731018,9.931826584998888],[-84.035380052302827,9.932409198180849],[-84.034947830630699,9.932975423479624],[-84.034493519119067,9.933524387731882],[-84.034017818247079,9.934055244387899],[-84.033521461488917,9.934567174817392],[-84.033005214182865,9.935059389572354],[-84.032469872351257,9.935531129604861],[-84.0319162614731,9.935981667438011],[-84.031345235211049,9.936410308288199],[-84.030757674094971,9.936816391136944],[-84.030154484163873,9.937199289750685],[-84.029536595568516,9.937558413646862],[-84.028904961136703,9.937893209004947],[-84.02826055490354,9.938203159520841],[-84.027604370608969,9.938487787203444],[-84.026937420164714,9.938746653112126],[-84.026260732093306,9.938979358033929],[-84.02557534994132,9.939185543099519],[-84.024882330669385,9.939364890336863],[-84.024182743021612,9.93951712316184],[-84.023477665876541,9.939642006804977],[-84.022768186582624,9.939739348673671],[-84.022055399280646,9.939808998649369],[-84.021340403215405,9.939850849319168],[-84.020624301039746,9.939864836141563],[-84.01990819711321,9.939850937546023],[-84.019193195798081,9.939809174966284],[-84.018480399755404,9.939739612807271],[-84.017770908243619,9.939642358345735],[-84.017065815422526,9.939517561564733],[-84.016366208665033,9.939365414922213],[-84.015673166879509,9.939186153054083],[-84.014987758845109,9.938980052412161],[-84.014311041562834,9.93874743083768],[-84.013644058624791,9.938488647070868],[-84.012987838604147,9.938204100197465],[-84.012343393468313,9.937894229032992],[-84.011711717017775,9.93755951144572],[-84.011093783353118,9.937200463619412],[-84.010490545372321,9.936817639256937],[-84.009902933300964,9.936411628726038],[-84.009331853257336,9.935983058148516],[-84.008778185855007,9.935532588434286],[-84.008242784844541,9.935060914261774],[-84.007726475796986,9.934568763006236],[-84.007230054830671,9.934056893617662],[-84.006754287383671,9.933526095449967],[-84.006299907033565,9.932977187043333],[-84.005867614366466,9.932411014861525],[-84.005458075896982,9.931828451986179],[-84.005071923040859,9.931230396770035],[-84.004709751141647,9.930617771451244],[-84.00437211855332,9.929991520730828],[-84.004059545779867,9.929352610315579],[-84.003772514673244,9.928702025428512],[-84.00351146769124,9.928040769289325],[-84.003276807215855,9.927369861567099],[-84.00306889493379,9.926690336807662],[-84.002888051279598,9.926003242838085],[-84.002734554942521,9.925309639150671],[-84.002608642437764,9.924610595269071],[-84.002510507742798,9.923907189098891],[-84.002440301999385,9.923200505265482],[-84.002398133281517,9.922491633441357],[-84.002384066429954,9.92178166666592],[-84.002398122953295,9.921071699659985],[-84.002440280995955,9.920362827137794]]]}},
{"type":"Feature","properties":{"distancias":2,"layer":"Buffer avescazu 2km","path":"?query=SELECT%20max(%22%C3%81rea%20de%20influencia%20cada%201%20km%20-%20AE%22.%22ringId%22)%20as%20distancias%20,ST_UNION(%22%C3%81rea%20de%20influencia%20cada%201%20km%20-%20AE%22.%22geometry%22)%20as%20geom%20%20FROM%20%22%C3%81rea%20de%20influencia%20cada%201%20km%20-%20AE%22%20WHERE%20%22%C3%81rea%20de%20influencia%20cada%201%20km%20-%20AE%22.%22ringId%22%20IN%20(1,2)"},"geometry":{"type":"Polygon","coordinates":[[[-84.124214926409735,9.938041196618011],[-84.124284862935284,9.937334488484449],[-84.124382730046008,9.936631047330783],[-84.124508376662263,9.935931957790489],[-84.124661608874689,9.935238297780536],[-84.124842190244252,9.934551136839465],[-84.125049842167826,9.933871534478486],[-84.125284244308787,9.93320053854802],[-84.125545035091861,9.932539183622289],[-84.125831812261538,9.931888489404413],[-84.126144133503161,9.931249459154449],[-84.126481517125711,9.93062307814284],[-84.126843442805225,9.930010312131611],[-84.127229352387744,9.929412105885671],[-84.127638650750484,9.928829381716547],[-84.128070706719967,9.928263038060708],[-84.128524854045665,9.927713948094754],[-84.129000392427542,9.927182958389562],[-84.129496588596211,9.926670887605471],[-84.130012677443617,9.926178525230489],[-84.130547863202906,9.925706630363509],[-84.131101320675384,9.925255930544379],[-84.131672196502791,9.924827120632623],[-84.132259610482933,9.924420861736545],[-84.132862656926534,9.924037780194384],[-84.133480406053494,9.92367846660906],[-84.134111905425954,9.92334347493799],[-84.134756181416407,9.92303332163941],[-84.135412240708391,9.922748484876509],[-84.136079071827382,9.922489403780546],[-84.136755646699669,9.922256477774152],[-84.137440922236777,9.922050065955844],[-84.13813384194296,9.921870486546643],[-84.138833337543318,9.921718016399744],[-84.139538330630074,9.921592890573864],[-84.140247734324305,9.921495301971079],[-84.140960454950886,9.921425401039556],[-84.141675393723716,9.921383295541762],[-84.1423914484389,9.921369050388389],[-84.143107515173241,9.921382687538369],[-84.143822489985098,9.921424185965044],[-84.144535270615705,9.921493481688602],[-84.145244758187502,9.921590467874635],[-84.145949858897481,9.921714994998833],[-84.146649485702667,9.921866871077381],[-84.147342559995238,9.922045861962816],[-84.148028013264593,9.922251691704858],[-84.148704788743927,9.922484042975658],[-84.149371843038821,9.9227425575588],[-84.150028147735114,9.923026836901331],[-84.150672690983896,9.923336442727953],[-84.15130447906084,9.923670897716415],[-84.151922537897818,9.924029686233089],[-84.152525914584146,9.924412255127631],[-84.153113678835425,9.924818014585396],[-84.153684924427395,9.925246339036438],[-84.15423877059294,9.925696568119577],[-84.154774363379758,9.926168007700106],[-84.155290876966973,9.926659930939595],[-84.155787514938197,9.927171579416049],[-84.156263511509607,9.927702164292832],[-84.156718132710679,9.928250867534436],[-84.157150677516043,9.928816843167308],[-84.157560478926641,9.929399218583724],[-84.157946904998411,9.929997095886772],[-84.158309359817125,9.930609553274326],[-84.158647284417668,9.931235646459893],[-84.158960157646419,9.931874410128165],[-84.15924749696552,9.932524859422978],[-84.159508859197487,9.933185991465473],[-84.159743841209391,9.933856786900041],[-84.159952080535177,9.934536211465703],[-84.16013325593552,9.935223217590531],[-84.160287087893991,9.935916746006592],[-84.160413339049057,9.936615727382998],[-84.160511814561104,9.937319083974453],[-84.16058236241382,9.938025731282899],[-84.160624873649795,9.938734579729539],[-84.160639282539506,9.939444536334745],[-84.160625566683848,9.940154506403312],[-84.160583747049756,9.940863395212329],[-84.160513887939018,9.941570109699155],[-84.160416096890202,9.942273560146905],[-84.160290524514011,9.942972661864804],[-84.160137364262098,9.943666336860803],[-84.159956852129838,9.944353515503964],[-84.159749266293474,9.945033138173939],[-84.159514926682206,9.945704156895101],[-84.159254194485769,9.946365536952705],[-84.158967471598459,9.947016258488693],[-84.158655200000283,9.947655318074577],[-84.158317861076199,9.948281730259056],[-84.157955974874554,9.948894529087907],[-84.157570099305943,9.94949276959389],[-84.157160829283441,9.950075529254262],[-84.156728795805776,9.950641909413729],[-84.156274664984863,9.951191036670638],[-84.155799137018903,9.951722064224198],[-84.155302945113107,9.952234173180724],[-84.154786854349268,9.952726573816868],[-84.154251660506006,9.953198506797833],[-84.153698188831882,9.953649244348792],[-84.153127292772709,9.954078091377594],[-84.152539852655437,9.954484386547096],[-84.151936774330437,9.954867503295411],[-84.151318987774431,9.955226850802573],[-84.150687445656018,9.955561874902024],[-84.150043121866204,9.955872058935586],[-84.149387010016198,9.956156924550589],[-84.148720121904546,9.956416032437895],[-84.14804348595635,9.95664898300968],[-84.147358145636645,9.956855417015989],[-84.14666515784053,9.957035016098988],[-84.145965591262751,9.957187503284205],[-84.145260524748693,9.95731264340786],[-84.144551045629939,9.957410243479739],[-84.143838248046663,9.957480152980953],[-84.143123231259437,9.957522264096209],[-84.142407097953097,9.957536511880178],[-84.141690952535427,9.957522874357711],[-84.140975899433144,9.957481372557755],[-84.140263041387726,9.957412070480931],[-84.139553477754021,9.957315075000807],[-84.13884830280395,9.957190535699],[-84.138148604038236,9.957038644634405],[-84.137455460508363,9.956859636046877],[-84.136769941151798,9.956653785995831],[-84.13609310314277,9.956421411934336],[-84.135425990261254,9.956162872219315],[-84.134769631282566,9.955878565558663],[-84.134125038390351,9.95556893039611],[-84.133493205614954,9.955234444234781],[-84.132875107300109,9.954875622900477],[-84.132271696599872,9.954493019745888],[-84.131683904008369,9.954087224796872],[-84.131112635924566,9.953658863842197],[-84.130558773254293,9.953208597468103],[-84.130023170051544,9.952737120039199],[-84.129506652201485,9.952245158627276],[-84.129010016146722,9.951733471889666],[-84.128534027659285,9.951202848898896],[-84.128079420659873,9.950654107925459],[-84.127646896086276,9.950088095175548],[-84.127237120812822,9.949505683485716],[-84.12685072662245,9.948907770976513],[-84.126488309232784,9.94829527966713],[-84.126150427378235,9.947669154053189],[-84.125837601948817,9.947030359649935],[-84.125550315187738,9.946379881503026],[-84.125289009948432,9.945718722669197],[-84.125054089012437,9.945047902669243],[-84.124845914469262,9.944368455915587],[-84.124664807158823,9.943681430116959],[-84.124511046177773,9.942987884662585],[-84.124384868450008,9.942288888988411],[-84.12428646836247,9.941585520927866],[-84.124215997466436,9.940878865049729],[-84.124173564244842,9.94017001098563],[-84.124159233946258,9.93946005174983],[-84.124173028485245,9.938750082053749],[-84.124214926409735,9.938041196618011]]]}}
]
}
