{
"type": "FeatureCollection",
"name": "3km",
"crs": { "type": "name", "properties": { "name": "urn:ogc:def:crs:OGC:1.3:CRS84" } },
"features": [
{"type":"Feature","properties":{"Distancia":"3 km"},"geometry":{"type":"Polygon","coordinates":[[[-84.160213150823211,10.008095695051795],[-84.158304397018057,10.008029619669259],[-84.156404944773641,10.007831715512637],[-84.154524050289481,10.007502946984646],[-84.152670879264519,10.007044916196707],[-84.1508544622004,10.006459855156098],[-84.149083650366066,10.00575061488156],[-84.147367072638772,10.004920651500505],[-84.145713093432775,10.003974009395906],[-84.144129771921044,10.002915301485166],[-84.142624822749369,10.001749686727505],[-84.141205578434608,10.000482844969685],[-84.139878953630628,9.999120949253163],[-84.138651411436214,9.997670635717858],[-84.137528931909287,9.996138971249719],[-84.136516982940535,9.994533419030041],[-84.135620493628537,9.99286180215482],[-84.134843830285533,9.991132265501834],[-84.134190775190447,9.989353236031528],[-84.13366450819224,9.987533381715556],[-84.133267591252618,9.985681569293307],[-84.133001956002445,9.983806821062592],[-84.132868894372308,9.981918270915077],[-84.132869052341491,9.980025119830996],[-84.13300242683529,9.978136591049948],[-84.133268365784915,9.976261885136278],[-84.133665571348629,9.974410135158024],[-84.134192106277752,9.972590362197566],[-84.134845403395687,9.970811431410825],[-84.135622278142748,9.969082008848682],[-84.136518944125271,9.967410519250945],[-84.137531031592317,9.965805105018067],[-84.138653608749607,9.964273586560296],[-84.139881205806176,9.962823424217001],[-84.141207841636302,9.961461681931347],[-84.142627052926542,9.960194992856907],[-84.144131925665832,9.959029527063313],[-84.145715128824975,9.957970961497928],[-84.147368950061804,9.95702445234936],[-84.149085333277995,9.956194609947199],[-84.150855917845277,9.955485476319677],[-84.152672079309838,9.954900505518458],[-84.154524971377739,9.954442546805861],[-84.156405568976894,9.954113830786319],[-84.158304712186876,9.953915958549221],[-84.160213150823211,9.953849893876006],[-84.162121589459545,9.953915958549221],[-84.164020732669528,9.954113830786319],[-84.165901330268682,9.954442546805861],[-84.167754222336583,9.954900505518458],[-84.169570383801144,9.955485476319677],[-84.171340968368426,9.956194609947199],[-84.173057351584617,9.95702445234936],[-84.174711172821446,9.957970961497928],[-84.176294375980589,9.959029527063313],[-84.177799248719879,9.960194992856907],[-84.179218460010119,9.961461681931347],[-84.180545095840245,9.962823424217001],[-84.181772692896814,9.964273586560296],[-84.182895270054104,9.965805105018067],[-84.18390735752115,9.967410519250945],[-84.184804023503673,9.969082008848682],[-84.185580898250734,9.970811431410825],[-84.186234195368669,9.972590362197566],[-84.186760730297792,9.974410135158024],[-84.187157935861507,9.976261885136278],[-84.187423874811131,9.978136591049948],[-84.18755724930493,9.980025119830996],[-84.187557407274113,9.981918270915077],[-84.187424345643976,9.983806821062592],[-84.187158710393803,9.985681569293307],[-84.186761793454181,9.987533381715556],[-84.186235526455974,9.989353236031528],[-84.185582471360888,9.991132265501834],[-84.184805808017884,9.99286180215482],[-84.183909318705886,9.994533419030041],[-84.182897369737134,9.996138971249719],[-84.181774890210207,9.997670635717858],[-84.180547348015793,9.999120949253163],[-84.179220723211813,10.000482844969685],[-84.177801478897052,10.001749686727505],[-84.176296529725377,10.002915301485166],[-84.174713208213646,10.003974009395906],[-84.173059229007649,10.004920651500505],[-84.171342651280355,10.00575061488156],[-84.169571839446021,10.006459855156098],[-84.167755422381902,10.007044916196707],[-84.16590225135694,10.007502946984646],[-84.16402135687278,10.007831715512637],[-84.162121904628364,10.008029619669259],[-84.160213150823211,10.008095695051795]]]}}
]
}
