{
"type": "FeatureCollection",
"name": "citana",
"crs": { "type": "name", "properties": { "name": "urn:ogc:def:crs:OGC:1.3:CRS84" } },
"xy_coordinate_resolution": 1e-15,
"features": [
{ "type": "Feature", "properties": { "fid": 95, "_json": { "coordinates": [ [ [ [ -84.11665630090641, 9.936697660309306 ], [ -84.11665036501012, 9.937214083286873 ], [ -84.11679282652118, 9.938537788160408 ], [ -84.11701839058034, 9.939653736663658 ], [ -84.1171549161951, 9.941024928707543 ], [ -84.1170658777507, 9.94204590287009 ], [ -84.11683962366456, 9.942839000351546 ], [ -84.11658418152135, 9.943275239579899 ], [ -84.11565244222129, 9.944231065560441 ], [ -84.11449383869564, 9.945116870432638 ], [ -84.11383573905158, 9.9454667966444 ], [ -84.11368241686318, 9.945435299653896 ], [ -84.11338870344046, 9.94508897625293 ], [ -84.11334589080582, 9.944778023804389 ], [ -84.11307098906389, 9.94463685183892 ], [ -84.1127086507251, 9.944828155333777 ], [ -84.11269623713231, 9.944835841252399 ], [ -84.11213734489341, 9.945132607271313 ], [ -84.11176020321645, 9.945053418956599 ], [ -84.11163490027008, 9.945012035862625 ], [ -84.11129427265979, 9.944892294580338 ], [ -84.11098158404947, 9.944948556157797 ], [ -84.11082884629337, 9.944978847108727 ], [ -84.11057283353333, 9.945126006749904 ], [ -84.11034116721864, 9.94509956934208 ], [ -84.11008882022827, 9.944901481059409 ], [ -84.11010900729427, 9.944521171624638 ], [ -84.1101785290555, 9.94386338880688 ], [ -84.11017134672178, 9.943866212486721 ], [ -84.10972206876822, 9.94368889291042 ], [ -84.10941999890504, 9.943684866391484 ], [ -84.10918858492204, 9.943705610616147 ], [ -84.10889782239354, 9.94382929453336 ], [ -84.10846625893322, 9.9439853695335 ], [ -84.10824688850425, 9.94390200975833 ], [ -84.10804244418817, 9.94366962651419 ], [ -84.107798557872, 9.943597974017058 ], [ -84.10744847987128, 9.943777555249518 ], [ -84.10714806933895, 9.943843312338311 ], [ -84.10669555044197, 9.943815020068769 ], [ -84.10646540137716, 9.943662996918322 ], [ -84.10614411216068, 9.943440276384125 ], [ -84.10570946385863, 9.943918286882118 ], [ -84.10548586946005, 9.944157711221212 ], [ -84.10526107611248, 9.944477655232621 ], [ -84.10471794376328, 9.944436581406908 ], [ -84.10434933266514, 9.944236427342487 ], [ -84.1041425602063, 9.94407368323275 ], [ -84.10376312088064, 9.943873520697624 ], [ -84.10348560043364, 9.943812717983427 ], [ -84.10319609454987, 9.943774508656116 ], [ -84.1028244062469, 9.943885414703109 ], [ -84.1026026301669, 9.943974815592064 ], [ -84.10234541510677, 9.944202347144333 ], [ -84.10220273334886, 9.944465419047713 ], [ -84.10205822254018, 9.944889389673111 ], [ -84.10189394166585, 9.94507192507057 ], [ -84.10141799389463, 9.945123987676471 ], [ -84.10123822418625, 9.944672658248445 ], [ -84.10111898832594, 9.944061461665626 ], [ -84.10066888678256, 9.943848530080716 ], [ -84.10037932924114, 9.943880102740385 ], [ -84.10032830413627, 9.944282386261957 ], [ -84.10043793488417, 9.944778728199529 ], [ -84.10049066560447, 9.945147749303159 ], [ -84.10044027906592, 9.945457787725223 ], [ -84.10026399438418, 9.94568537684262 ], [ -84.09999484146336, 9.945866986868833 ], [ -84.09970470401399, 9.945909294589258 ], [ -84.09949789918075, 9.94579161074528 ], [ -84.0994452377564, 9.94533133272082 ], [ -84.09961135016299, 9.944988041078838 ], [ -84.09960539091986, 9.944572860742094 ], [ -84.09947359375317, 9.943995981558711 ], [ -84.09943104564549, 9.943731079635143 ], [ -84.09933034601949, 9.943488737255482 ], [ -84.09909841371501, 9.943439830437272 ], [ -84.09883042852785, 9.943585982946093 ], [ -84.09855768460298, 9.94399714364087 ], [ -84.09839394632174, 9.944214004854155 ], [ -84.09828606213341, 9.94443189609489 ], [ -84.09789102112194, 9.944519187990043 ], [ -84.09786048671181, 9.94419651760852 ], [ -84.09754907545859, 9.943730679741542 ], [ -84.09743489424685, 9.94398458842766 ], [ -84.09724784868683, 9.944120063506071 ], [ -84.09687560500079, 9.944208359898932 ], [ -84.09657592729334, 9.944055430332387 ], [ -84.09638175073243, 9.943822905960184 ], [ -84.09610723031355, 9.94356588286372 ], [ -84.09592383945245, 9.943391284643317 ], [ -84.0956355531404, 9.943249946376126 ], [ -84.09539394967844, 9.94317842733979 ], [ -84.09529202300324, 9.943259648709427 ], [ -84.09511493325593, 9.941636326025815 ], [ -84.09511493325593, 9.940900274885376 ], [ -84.09648018940352, 9.940793428752086 ], [ -84.09704528408464, 9.93679511732911 ], [ -84.09523365118186, 9.937065685879526 ], [ -84.09526926655961, 9.936448352664963 ], [ -84.09223008765714, 9.936282147568736 ], [ -84.08838362685871, 9.935807275865224 ], [ -84.08826490893284, 9.935688557939347 ], [ -84.08478647370463, 9.935344275954304 ], [ -84.08480158013542, 9.934634416426166 ], [ -84.0848139409282, 9.934576577244872 ], [ -84.08800966539222, 9.934851596561915 ], [ -84.08809276794034, 9.933878109569719 ], [ -84.09067488282817, 9.934121481317767 ], [ -84.09300769007166, 9.934347045376935 ], [ -84.0951980358041, 9.934525122265752 ], [ -84.09813501591428, 9.93481882027677 ], [ -84.0981388065883, 9.934854633467278 ], [ -84.09809862683707, 9.934475026811386 ], [ -84.09805609893137, 9.934186533846022 ], [ -84.09807238612598, 9.933748909364462 ], [ -84.09807843143798, 9.933288816322651 ], [ -84.09811027933992, 9.932621507805123 ], [ -84.09812472605739, 9.932357495714252 ], [ -84.09814100403263, 9.931931878759285 ], [ -84.09826092114383, 9.931622598809398 ], [ -84.09836471676861, 9.930771982630915 ], [ -84.0985805527357, 9.930233219147544 ], [ -84.09864237972953, 9.929866401742817 ], [ -84.09879886538161, 9.929430717212389 ], [ -84.09880376101283, 9.928982207172785 ], [ -84.09890448925772, 9.928419061289059 ], [ -84.09902989571113, 9.927626238118274 ], [ -84.09908032414155, 9.927258282222404 ], [ -84.09910911250518, 9.926867708149059 ], [ -84.09913739179449, 9.926395765592508 ], [ -84.099166188678, 9.925993607899628 ], [ -84.09919381129497, 9.925637360185737 ], [ -84.09945431468577, 9.9255679085462 ], [ -84.09993830162378, 9.925395497892302 ], [ -84.10023536129658, 9.925215886438588 ], [ -84.10088836587566, 9.925374579844743 ], [ -84.10168962061304, 9.925436755222789 ], [ -84.10200841306214, 9.925153046303373 ], [ -84.10223372891829, 9.924882971821116 ], [ -84.10275042038808, 9.925182543933387 ], [ -84.1029575504371, 9.925615668361916 ], [ -84.10355736852419, 9.926028310624368 ], [ -84.10397343968793, 9.925984395103253 ], [ -84.10444712392184, 9.925869888434422 ], [ -84.10502505349614, 9.925822415043669 ], [ -84.10533040775893, 9.925988054211105 ], [ -84.10567219545777, 9.926210789848014 ], [ -84.10601835842077, 9.926687521100547 ], [ -84.10623193896491, 9.926878380125853 ], [ -84.1064991680634, 9.926964459287685 ], [ -84.10678874134312, 9.926888665466524 ], [ -84.10709497602225, 9.926627685988993 ], [ -84.10735362250578, 9.926760658011327 ], [ -84.10736022896597, 9.927082603598803 ], [ -84.10743969433935, 9.927530184718304 ], [ -84.10797811062089, 9.927748536968698 ], [ -84.10822532687983, 9.927927552305787 ], [ -84.10878543511785, 9.928098877588159 ], [ -84.10889619152358, 9.927831401472588 ], [ -84.10899053497018, 9.927403720251862 ], [ -84.10912132951206, 9.92700869671362 ], [ -84.10942669549551, 9.927162607054798 ], [ -84.10959406452953, 9.927424063370465 ], [ -84.10991773913604, 9.927878172365727 ], [ -84.1102608668153, 9.928227335443937 ], [ -84.11096031642543, 9.928406947860411 ], [ -84.11164752905897, 9.92856465427811 ], [ -84.11209445983806, 9.928808222121226 ], [ -84.11245433054795, 9.928857349482007 ], [ -84.11266028099267, 9.928964244971711 ], [ -84.11165940055479, 9.934104581371052 ], [ -84.11381085217737, 9.936077951765267 ], [ -84.11512211314519, 9.936261027513929 ], [ -84.1167453571647, 9.936139924660246 ], [ -84.11665630090641, 9.936697660309306 ] ] ], [ [ [ -84.08890212619491, 9.947414067339865 ], [ -84.08893464354902, 9.946940064300136 ], [ -84.08890212619491, 9.947414067339867 ], [ -84.08890212619491, 9.947414067339865 ] ] ] ], "type": "MultiPolygon" } }, "geometry": { "type": "MultiPolygon", "coordinates": [ [ [ [ -84.116656300906413, 9.936697660309306 ], [ -84.116650365010116, 9.937214083286873 ], [ -84.116792826521177, 9.938537788160408 ], [ -84.117018390580341, 9.939653736663658 ], [ -84.117154916195105, 9.941024928707543 ], [ -84.117065877750704, 9.94204590287009 ], [ -84.116839623664561, 9.942839000351546 ], [ -84.116584181521347, 9.943275239579899 ], [ -84.11565244222129, 9.944231065560441 ], [ -84.114493838695637, 9.945116870432638 ], [ -84.113835739051581, 9.9454667966444 ], [ -84.113682416863185, 9.945435299653896 ], [ -84.113388703440464, 9.945088976252929 ], [ -84.113345890805817, 9.944778023804389 ], [ -84.113070989063885, 9.94463685183892 ], [ -84.112708650725097, 9.944828155333777 ], [ -84.112696237132312, 9.944835841252399 ], [ -84.112137344893412, 9.945132607271313 ], [ -84.111760203216448, 9.945053418956599 ], [ -84.111634900270076, 9.945012035862625 ], [ -84.111294272659791, 9.944892294580338 ], [ -84.110981584049469, 9.944948556157797 ], [ -84.110828846293373, 9.944978847108727 ], [ -84.110572833533325, 9.945126006749904 ], [ -84.110341167218635, 9.94509956934208 ], [ -84.11008882022827, 9.944901481059409 ], [ -84.11010900729427, 9.944521171624638 ], [ -84.110178529055503, 9.94386338880688 ], [ -84.110171346721785, 9.943866212486721 ], [ -84.109722068768221, 9.943688892910419 ], [ -84.10941999890504, 9.943684866391484 ], [ -84.109188584922038, 9.943705610616147 ], [ -84.108897822393544, 9.94382929453336 ], [ -84.10846625893322, 9.9439853695335 ], [ -84.108246888504254, 9.943902009758331 ], [ -84.108042444188172, 9.94366962651419 ], [ -84.107798557872002, 9.943597974017058 ], [ -84.10744847987128, 9.943777555249518 ], [ -84.107148069338947, 9.943843312338311 ], [ -84.10669555044197, 9.943815020068769 ], [ -84.106465401377164, 9.943662996918322 ], [ -84.106144112160678, 9.943440276384125 ], [ -84.105709463858631, 9.943918286882118 ], [ -84.105485869460054, 9.944157711221212 ], [ -84.105261076112484, 9.944477655232621 ], [ -84.104717943763276, 9.944436581406908 ], [ -84.104349332665137, 9.944236427342487 ], [ -84.104142560206299, 9.94407368323275 ], [ -84.103763120880643, 9.943873520697624 ], [ -84.103485600433643, 9.943812717983427 ], [ -84.103196094549872, 9.943774508656116 ], [ -84.102824406246896, 9.943885414703109 ], [ -84.102602630166899, 9.943974815592064 ], [ -84.102345415106768, 9.944202347144333 ], [ -84.102202733348861, 9.944465419047713 ], [ -84.10205822254018, 9.944889389673111 ], [ -84.10189394166585, 9.94507192507057 ], [ -84.101417993894628, 9.945123987676471 ], [ -84.101238224186247, 9.944672658248445 ], [ -84.101118988325936, 9.944061461665626 ], [ -84.100668886782557, 9.943848530080716 ], [ -84.100379329241136, 9.943880102740385 ], [ -84.100328304136269, 9.944282386261957 ], [ -84.10043793488417, 9.944778728199529 ], [ -84.100490665604468, 9.945147749303159 ], [ -84.100440279065921, 9.945457787725223 ], [ -84.100263994384179, 9.94568537684262 ], [ -84.099994841463356, 9.945866986868833 ], [ -84.099704704013988, 9.945909294589258 ], [ -84.099497899180747, 9.94579161074528 ], [ -84.099445237756399, 9.945331332720819 ], [ -84.099611350162988, 9.944988041078838 ], [ -84.099605390919862, 9.944572860742094 ], [ -84.099473593753174, 9.943995981558711 ], [ -84.099431045645488, 9.943731079635143 ], [ -84.099330346019485, 9.943488737255482 ], [ -84.099098413715012, 9.943439830437272 ], [ -84.098830428527847, 9.943585982946093 ], [ -84.09855768460298, 9.943997143640869 ], [ -84.098393946321735, 9.944214004854155 ], [ -84.098286062133411, 9.944431896094891 ], [ -84.097891021121939, 9.944519187990043 ], [ -84.097860486711809, 9.944196517608519 ], [ -84.097549075458588, 9.943730679741542 ], [ -84.097434894246845, 9.943984588427661 ], [ -84.097247848686834, 9.944120063506071 ], [ -84.09687560500079, 9.944208359898932 ], [ -84.096575927293344, 9.944055430332387 ], [ -84.096381750732434, 9.943822905960184 ], [ -84.09610723031355, 9.943565882863719 ], [ -84.095923839452453, 9.943391284643317 ], [ -84.095635553140397, 9.943249946376126 ], [ -84.095393949678439, 9.94317842733979 ], [ -84.095292023003239, 9.943259648709427 ], [ -84.095114933255928, 9.941636326025815 ], [ -84.095114933255928, 9.940900274885376 ], [ -84.096480189403522, 9.940793428752086 ], [ -84.097045284084643, 9.93679511732911 ], [ -84.095233651181857, 9.937065685879526 ], [ -84.095269266559612, 9.936448352664963 ], [ -84.092230087657143, 9.936282147568736 ], [ -84.088383626858715, 9.935807275865224 ], [ -84.088264908932842, 9.935688557939347 ], [ -84.084786473704625, 9.935344275954304 ], [ -84.084801580135419, 9.934634416426166 ], [ -84.0848139409282, 9.934576577244872 ], [ -84.088009665392221, 9.934851596561915 ], [ -84.088092767940338, 9.933878109569719 ], [ -84.090674882828168, 9.934121481317767 ], [ -84.093007690071659, 9.934347045376935 ], [ -84.095198035804103, 9.934525122265752 ], [ -84.098135015914281, 9.934818820276771 ], [ -84.098138806588295, 9.934854633467278 ], [ -84.098098626837071, 9.934475026811386 ], [ -84.098056098931366, 9.934186533846022 ], [ -84.098072386125978, 9.933748909364462 ], [ -84.098078431437983, 9.933288816322651 ], [ -84.09811027933992, 9.932621507805123 ], [ -84.098124726057392, 9.932357495714252 ], [ -84.098141004032627, 9.931931878759285 ], [ -84.098260921143833, 9.931622598809398 ], [ -84.098364716768614, 9.930771982630915 ], [ -84.098580552735697, 9.930233219147544 ], [ -84.098642379729526, 9.929866401742817 ], [ -84.09879886538161, 9.929430717212389 ], [ -84.098803761012832, 9.928982207172785 ], [ -84.09890448925772, 9.928419061289059 ], [ -84.099029895711126, 9.927626238118274 ], [ -84.099080324141553, 9.927258282222404 ], [ -84.099109112505175, 9.926867708149059 ], [ -84.099137391794486, 9.926395765592508 ], [ -84.099166188677998, 9.925993607899628 ], [ -84.099193811294967, 9.925637360185737 ], [ -84.099454314685772, 9.925567908546199 ], [ -84.09993830162378, 9.925395497892302 ], [ -84.100235361296583, 9.925215886438588 ], [ -84.100888365875662, 9.925374579844743 ], [ -84.101689620613044, 9.925436755222789 ], [ -84.102008413062137, 9.925153046303373 ], [ -84.102233728918293, 9.924882971821116 ], [ -84.102750420388077, 9.925182543933387 ], [ -84.102957550437097, 9.925615668361916 ], [ -84.103557368524193, 9.926028310624368 ], [ -84.103973439687934, 9.925984395103253 ], [ -84.104447123921844, 9.925869888434422 ], [ -84.105025053496135, 9.925822415043669 ], [ -84.105330407758927, 9.925988054211105 ], [ -84.105672195457771, 9.926210789848014 ], [ -84.106018358420769, 9.926687521100547 ], [ -84.10623193896491, 9.926878380125853 ], [ -84.106499168063394, 9.926964459287685 ], [ -84.106788741343124, 9.926888665466524 ], [ -84.107094976022253, 9.926627685988993 ], [ -84.107353622505784, 9.926760658011327 ], [ -84.107360228965973, 9.927082603598803 ], [ -84.107439694339348, 9.927530184718304 ], [ -84.107978110620891, 9.927748536968698 ], [ -84.108225326879833, 9.927927552305787 ], [ -84.108785435117852, 9.928098877588159 ], [ -84.108896191523584, 9.927831401472588 ], [ -84.108990534970175, 9.927403720251862 ], [ -84.109121329512064, 9.927008696713621 ], [ -84.109426695495515, 9.927162607054798 ], [ -84.109594064529531, 9.927424063370465 ], [ -84.109917739136037, 9.927878172365727 ], [ -84.110260866815295, 9.928227335443937 ], [ -84.110960316425434, 9.928406947860411 ], [ -84.11164752905897, 9.928564654278111 ], [ -84.112094459838062, 9.928808222121226 ], [ -84.112454330547948, 9.928857349482007 ], [ -84.112660280992671, 9.928964244971711 ], [ -84.111659400554785, 9.934104581371052 ], [ -84.113810852177366, 9.936077951765267 ], [ -84.11512211314519, 9.936261027513929 ], [ -84.116745357164703, 9.936139924660246 ], [ -84.116656300906413, 9.936697660309306 ] ] ], [ [ [ -84.08890212619491, 9.947414067339865 ], [ -84.088934643549024, 9.946940064300136 ], [ -84.08890212619491, 9.947414067339867 ], [ -84.08890212619491, 9.947414067339865 ] ] ] ] } }
]
}
