{
"type": "FeatureCollection",
"name": "comercial_sarchi",
"crs": { "type": "name", "properties": { "name": "urn:ogc:def:crs:OGC:1.3:CRS84" } },
"xy_coordinate_resolution": 1e-15,
"features": [
{ "type": "Feature", "properties": { "fid": 1, "OBJECTID": null, "GlobalID": null, "CÓDIGO": null, "CÓDIGO_DTA": null, "PROVINCIA": null, "CANTÓN": null, "DISTRITO": null, "CÓDIGO_PROVINCIA": null, "CÓDIGO_CANTÓN": null, "LEGISLACIÓN": null, "OFICIALIZACIÓN": null, "SDE": null, "REGIÓN": null, "VERSIÓN": null, "_json": { "coordinates": [ [ [ [ -84.34990394471782, 10.096687423504216 ], [ -84.34866277817655, 10.100737545902062 ], [ -84.34642204, 10.10207886 ], [ -84.34516411157348, 10.101900909333642 ], [ -84.34515339878, 10.101899393866864 ], [ -84.34508968, 10.10189038 ], [ -84.34293155834742, 10.100875504266595 ], [ -84.34119426671633, 10.100299833666947 ], [ -84.34045411880248, 10.09990920004576 ], [ -84.33755331458528, 10.100655387625748 ], [ -84.3371748523509, 10.098356945393137 ], [ -84.33783276160764, 10.096465456280006 ], [ -84.33762716496491, 10.094245012538506 ], [ -84.3361302, 10.09176466 ], [ -84.33348885891064, 10.089149586171638 ], [ -84.33518056491641, 10.08571275186515 ], [ -84.33548895988052, 10.085116521601229 ], [ -84.33411146237421, 10.083615666109289 ], [ -84.33249066202977, 10.081202474485336 ], [ -84.33249644, 10.08120216 ], [ -84.33251825, 10.08120178 ], [ -84.33256551, 10.08120073 ], [ -84.33261469, 10.08120105 ], [ -84.33266114, 10.08121122 ], [ -84.33270867, 10.08121379 ], [ -84.3327541, 10.08120742 ], [ -84.33279961, 10.08118666 ], [ -84.33283945, 10.08115923 ], [ -84.33287219, 10.08113596 ], [ -84.33288175, 10.08111904 ], [ -84.33288599, 10.08106967 ], [ -84.33288147, 10.08102591 ], [ -84.33287066, 10.08098008 ], [ -84.33285647, 10.08093326 ], [ -84.33285509, 10.0809282 ], [ -84.33283717, 10.08088572 ], [ -84.33281222, 10.08084741 ], [ -84.33278207, 10.08081055 ], [ -84.33274637, 10.08077876 ], [ -84.33271139, 10.08074887 ], [ -84.33267259, 10.08072042 ], [ -84.33263798, 10.08069008 ], [ -84.33260871814485, 10.08066456544125 ], [ -84.3346665733096, 10.079390655101161 ], [ -84.33672253973693, 10.079822408050896 ], [ -84.33923081877825, 10.0800485643579 ], [ -84.34180077681239, 10.078650507187326 ], [ -84.34432961551799, 10.078835544165786 ], [ -84.34675565590223, 10.07900002147997 ], [ -84.34803035508716, 10.079555132415345 ], [ -84.35012744084302, 10.081302703878563 ], [ -84.35156661734214, 10.082371806420767 ], [ -84.35304691316982, 10.082495164406406 ], [ -84.35428049302621, 10.082803559370504 ], [ -84.35428049302622, 10.082803559370507 ], [ -84.35526735691134, 10.082474604742133 ], [ -84.35637757878209, 10.082042851792396 ], [ -84.35701492837455, 10.082083971120943 ], [ -84.35804291158821, 10.081734456828299 ], [ -84.35822794856666, 10.081734456828299 ], [ -84.35841298554513, 10.081713897164025 ], [ -84.35855690319504, 10.081528860185568 ], [ -84.35872138050922, 10.081528860185568 ], [ -84.35913257379468, 10.081693337499752 ], [ -84.35968121, 10.08161997 ], [ -84.35971269, 10.08178739 ], [ -84.35965148, 10.08180292 ], [ -84.35960808, 10.081829 ], [ -84.35956167, 10.08185211 ], [ -84.3595137, 10.08186943 ], [ -84.35946645, 10.08188115 ], [ -84.3594118, 10.08188898 ], [ -84.35936264, 10.08189726 ], [ -84.35931238, 10.08190971 ], [ -84.35925912, 10.0819302 ], [ -84.35921498, 10.0819524 ], [ -84.35917477, 10.08197378 ], [ -84.35913712, 10.08200122 ], [ -84.35909747, 10.08203589 ], [ -84.35906101, 10.08207246 ], [ -84.35902775, 10.08210974 ], [ -84.35899394, 10.08214613 ], [ -84.3589583, 10.08217872 ], [ -84.35892995, 10.08219674 ], [ -84.35885919, 10.08223244 ], [ -84.35882325, 10.08224442 ], [ -84.35876943, 10.08225044 ], [ -84.35871596, 10.08224435 ], [ -84.35866841, 10.08223428 ], [ -84.35862232, 10.0822233 ], [ -84.35858254, 10.08221891 ], [ -84.35853365, 10.08223641 ], [ -84.35849719, 10.08226719 ], [ -84.35846365, 10.08230258 ], [ -84.35842647, 10.08233734 ], [ -84.35838262, 10.08236813 ], [ -84.35833903, 10.08239413 ], [ -84.35829436, 10.08242257 ], [ -84.35825032, 10.08245526 ], [ -84.35821186, 10.08248948 ], [ -84.35818006, 10.08252532 ], [ -84.35815073, 10.08257245 ], [ -84.35812898, 10.08262275 ], [ -84.35811608, 10.08267367 ], [ -84.35810938, 10.0827234 ], [ -84.3580984, 10.0827745 ], [ -84.3580792, 10.08282091 ], [ -84.35804877, 10.08285774 ], [ -84.35801003, 10.08289223 ], [ -84.35796845, 10.08291886 ], [ -84.35791492, 10.08293917 ], [ -84.35786183, 10.08295152 ], [ -84.35781604, 10.08296305 ], [ -84.35776469, 10.08297703 ], [ -84.35770933, 10.08299355 ], [ -84.35765296, 10.08301432 ], [ -84.35760983, 10.08303064 ], [ -84.35756577, 10.08304551 ], [ -84.35751834, 10.0830575 ], [ -84.35746945, 10.08306714 ], [ -84.35742055, 10.08307388 ], [ -84.35736974, 10.08308054 ], [ -84.35731765, 10.08308539 ], [ -84.35726555, 10.08308806 ], [ -84.35721729, 10.08309282 ], [ -84.35715818, 10.08309704 ], [ -84.35709859, 10.08309475 ], [ -84.3570391, 10.08308542 ], [ -84.35699483, 10.08307371 ], [ -84.35693742, 10.08305388 ], [ -84.35688348, 10.08303667 ], [ -84.35682635, 10.08302588 ], [ -84.35677271, 10.08303408 ], [ -84.3567262, 10.08305049 ], [ -84.35668416, 10.0830726 ], [ -84.35664953, 10.08310889 ], [ -84.35662076, 10.083161 ], [ -84.35660256, 10.08320261 ], [ -84.35658508, 10.0832445 ], [ -84.35656606, 10.08328846 ], [ -84.35654613, 10.08333016 ], [ -84.35654431, 10.08333351 ], [ -84.35652291, 10.08337304 ], [ -84.35649212, 10.08342208 ], [ -84.35645951, 10.08347013 ], [ -84.35642927, 10.0835113 ], [ -84.35639774, 10.08354732 ], [ -84.35636228, 10.08358136 ], [ -84.35632674, 10.08361395 ], [ -84.35629402000001, 10.08365331 ], [ -84.35626716, 10.08369982 ], [ -84.35625051, 10.08374558 ], [ -84.35623916, 10.08379099 ], [ -84.35623054, 10.08383557 ], [ -84.35621891, 10.08387962 ], [ -84.35620045, 10.08393398 ], [ -84.35618052, 10.083983 ], [ -84.35615931, 10.08402869 ], [ -84.3561402, 10.08407509 ], [ -84.35612529, 10.08412248 ], [ -84.35611485, 10.08416653 ], [ -84.35610004, 10.08422107 ], [ -84.35608403, 10.08426602 ], [ -84.35605752, 10.08430366 ], [ -84.35602315, 10.08433471 ], [ -84.35598022, 10.08436695 ], [ -84.35593391, 10.08440334 ], [ -84.35589808, 10.08443458 ], [ -84.35585971, 10.08446852 ], [ -84.35581942, 10.08450021 ], [ -84.35577739, 10.08453019 ], [ -84.3557339, 10.08455871 ], [ -84.35569186, 10.08458371 ], [ -84.35565038, 10.08460799 ], [ -84.35560734, 10.084631 ], [ -84.35556467, 10.08465682 ], [ -84.35552272, 10.08468227 ], [ -84.35548398, 10.08471396 ], [ -84.35544744, 10.08475288 ], [ -84.35541554, 10.08478944 ], [ -84.35538812, 10.08482771 ], [ -84.35536563, 10.08486797 ], [ -84.35534451, 10.08491076 ], [ -84.35532147, 10.0849522 ], [ -84.35528658, 10.08500233 ], [ -84.35525087, 10.08504685 ], [ -84.35522315, 10.08506713 ], [ -84.35518173, 10.08507233 ], [ -84.35513308, 10.0850553 ], [ -84.35508918, 10.08503798 ], [ -84.3550337, 10.08503578 ], [ -84.35498609, 10.08505256 ], [ -84.35494306, 10.085081 ], [ -84.35491062, 10.08512217 ], [ -84.35489243, 10.08517174 ], [ -84.35489569, 10.08522951 ], [ -84.35490331, 10.08527742 ], [ -84.35490857, 10.08532633 ], [ -84.35490771, 10.08537778 ], [ -84.35490138, 10.08542987 ], [ -84.3548904, 10.08548097 ], [ -84.35487348, 10.08553315 ], [ -84.3548563, 10.08558589 ], [ -84.3548433, 10.08563509 ], [ -84.35483478, 10.08568347 ], [ -84.35483219, 10.08573166 ], [ -84.35484092, 10.08579097 ], [ -84.35486661, 10.08584211 ], [ -84.35490178, 10.08588276 ], [ -84.35494141, 10.08590858 ], [ -84.35497668, 10.0859514 ], [ -84.35499561, 10.08599424 ], [ -84.35501591, 10.08603852 ], [ -84.35503649, 10.08607919 ], [ -84.35505506, 10.08612428 ], [ -84.3550677, 10.08617165 ], [ -84.35506808, 10.08618476 ], [ -84.35506745, 10.08627065 ], [ -84.35506709, 10.08627915 ], [ -84.35505774, 10.0863269 ], [ -84.35504027, 10.08637041 ], [ -84.3550187, 10.0864179 ], [ -84.35499257, 10.08646576 ], [ -84.35496735, 10.08651344 ], [ -84.35495024, 10.08655595 ], [ -84.35493724, 10.08660181 ], [ -84.35493273, 10.0866482 ], [ -84.35492567, 10.08669893 ], [ -84.35491797, 10.08674451 ], [ -84.35490579, 10.08679434 ], [ -84.35489764, 10.08684381 ], [ -84.35489222, 10.0868986 ], [ -84.35488553, 10.08695449 ], [ -84.35488294, 10.0870072 ], [ -84.35488044, 10.08705585 ], [ -84.35488287, 10.08710856 ], [ -84.35489251, 10.08715656 ], [ -84.35490634, 10.08720682 ], [ -84.35491934, 10.0872503 ], [ -84.35493646, 10.08730172 ], [ -84.35494828, 10.08734638 ], [ -84.35496302, 10.08739365 ], [ -84.35498114, 10.08744209 ], [ -84.35499697, 10.0874852 ], [ -84.35500852, 10.0875379 ], [ -84.35501305, 10.0875917 ], [ -84.35500599, 10.08764198 ], [ -84.35498652, 10.08768929 ], [ -84.35496312, 10.08773135 ], [ -84.35493205, 10.08777352 ], [ -84.35489159, 10.08781706 ], [ -84.35485577, 10.08785209 ], [ -84.35481648, 10.08788739 ], [ -84.35476935, 10.08792189 ], [ -84.35471975, 10.08795259 ], [ -84.35467233, 10.08797534 ], [ -84.35461541, 10.08799394 ], [ -84.3545594, 10.08800295 ], [ -84.35450777, 10.08801222 ], [ -84.35445668, 10.08801743 ], [ -84.35440285, 10.08801686 ], [ -84.35435084, 10.08801881 ], [ -84.35430212, 10.08801868 ], [ -84.35425093, 10.08801675 ], [ -84.35419491, 10.08801862 ], [ -84.35414265, 10.08803332 ], [ -84.35408985, 10.08806032 ], [ -84.35404864, 10.08808478 ], [ -84.35400806, 10.08811005 ], [ -84.35396676, 10.08813514 ], [ -84.35392217, 10.08816123 ], [ -84.35387831, 10.08818704 ], [ -84.3538371, 10.08821267 ], [ -84.35379625, 10.08823939 ], [ -84.35375523, 10.08826972 ], [ -84.35371512, 10.08830277 ], [ -84.35367637, 10.08833274 ], [ -84.35363891, 10.08836732 ], [ -84.35360702, 10.08840388 ], [ -84.35357066, 10.08845085 ], [ -84.35354269, 10.08848994 ], [ -84.35351628, 10.08853101 ], [ -84.35349032, 10.08857408 ], [ -84.35346318, 10.08861823 ], [ -84.35343203, 10.08866447 ], [ -84.3534057, 10.08870473 ], [ -84.35337811, 10.08875449 ], [ -84.35335299, 10.08880723 ], [ -84.35333296, 10.08884966 ], [ -84.35330838, 10.08889941 ], [ -84.35327522, 10.08894547 ], [ -84.35323666, 10.08897634 ], [ -84.35320257, 10.0890064 ], [ -84.35316884, 10.08903709 ], [ -84.3531469, 10.08907816 ], [ -84.35312678, 10.08911959 ], [ -84.35311159, 10.08916228 ], [ -84.35310443, 10.08920714 ], [ -84.3531063, 10.08925605 ], [ -84.35311028, 10.08930442 ], [ -84.3531179, 10.08935061 ], [ -84.35313155, 10.08939499 ], [ -84.35315304, 10.08943846 ], [ -84.35318237, 10.08948065 ], [ -84.35321207, 10.08952475 ], [ -84.35323165, 10.08957346 ], [ -84.35324211, 10.08962381 ], [ -84.35324234, 10.08967435 ], [ -84.3532372, 10.08972318 ], [ -84.35322895, 10.08977509 ], [ -84.35322535, 10.0898241 ], [ -84.35322502, 10.08985484 ], [ -84.35324578, 10.08997878 ], [ -84.35326462, 10.090018 ], [ -84.35328857, 10.09005921 ], [ -84.35331471, 10.09010529 ], [ -84.35333858, 10.0901521 ], [ -84.35335952, 10.09019683 ], [ -84.35338238, 10.09024175 ], [ -84.35340734, 10.09028819 ], [ -84.35343165, 10.09033003 ], [ -84.35345962, 10.09037412 ], [ -84.35348513, 10.09042509 ], [ -84.35349239, 10.09046559 ], [ -84.35348112, 10.09051361 ], [ -84.35345298, 10.0905575 ], [ -84.35342245, 10.09059342 ], [ -84.35338946, 10.09063134 ], [ -84.3533541, 10.09066583 ], [ -84.35331773, 10.0906995 ], [ -84.35327826, 10.09073553 ], [ -84.3532357, 10.09077464 ], [ -84.35319204, 10.09081465 ], [ -84.35315805, 10.09085682 ], [ -84.35312316, 10.0909036 ], [ -84.35309255, 10.09094902 ], [ -84.35307609, 10.0909985 ], [ -84.35306857, 10.09104932 ], [ -84.3530658, 10.09109941 ], [ -84.35306631, 10.09115529 ], [ -84.3530713, 10.09121225 ], [ -84.35307902, 10.09126676 ], [ -84.35309323, 10.09132271 ], [ -84.35310934, 10.09136763 ], [ -84.35312663, 10.09141219 ], [ -84.35314493, 10.09145702 ], [ -84.35316468, 10.09150211 ], [ -84.35318508, 10.09154477 ], [ -84.35320483, 10.09158869 ], [ -84.3532214, 10.09163922 ], [ -84.3532345, 10.09168821 ], [ -84.35324195, 10.09173585 ], [ -84.35323325, 10.0917911 ], [ -84.35320985, 10.09183643 ], [ -84.35318379, 10.09187407 ], [ -84.35315144, 10.09191072 ], [ -84.35311317, 10.09195461 ], [ -84.35306841, 10.09199336 ], [ -84.35301808, 10.09202388 ], [ -84.35296501, 10.09205125 ], [ -84.3529164, 10.09207553 ], [ -84.35287601, 10.09210387 ], [ -84.35285014, 10.09213916 ], [ -84.35284517, 10.09218221 ], [ -84.35285615, 10.0922105 ], [ -84.35289468, 10.092237129999999 ], [ -84.35294378, 10.09224585 ], [ -84.35298786, 10.09225999 ], [ -84.35311203, 10.09233048 ], [ -84.35314891, 10.09234716 ], [ -84.35316805, 10.09241324 ], [ -84.35315771, 10.09247003 ], [ -84.35309492, 10.09253854 ], [ -84.35301943, 10.09258935 ], [ -84.35298525, 10.09262239 ], [ -84.35297776, 10.09269762 ], [ -84.3530108, 10.09279279 ], [ -84.35304208, 10.09286066 ], [ -84.35304214, 10.092916 ], [ -84.35298309, 10.09298921 ], [ -84.35290559, 10.09304354 ], [ -84.35282663, 10.09309155 ], [ -84.35274376, 10.09315113 ], [ -84.35270877, 10.09319574 ], [ -84.35270457, 10.09327314 ], [ -84.35273824, 10.09335972 ], [ -84.35276972, 10.09344776 ], [ -84.35277865, 10.09352578 ], [ -84.35274755, 10.09361668 ], [ -84.35269636, 10.09370145 ], [ -84.35263695, 10.09377213 ], [ -84.35260125, 10.09383664 ], [ -84.35259762, 10.09393004 ], [ -84.35260629, 10.09402126 ], [ -84.3525875, 10.09411025 ], [ -84.35254471, 10.09419692 ], [ -84.35250977, 10.0942833 ], [ -84.352472, 10.0943724 ], [ -84.35245382, 10.09443653 ], [ -84.35244826, 10.0945274 ], [ -84.35246497, 10.09461708 ], [ -84.35247226, 10.09469184 ], [ -84.35244606, 10.0947633 ], [ -84.35238044, 10.09483209 ], [ -84.35230467, 10.09488316 ], [ -84.35222344, 10.0949413 ], [ -84.352139, 10.09498705 ], [ -84.35205181, 10.09502448 ], [ -84.35195674, 10.09503082 ], [ -84.35186721, 10.09500524 ], [ -84.35181155, 10.09500485 ], [ -84.35177216, 10.09503563 ], [ -84.34990394471782, 10.096687423504216 ] ] ] ], "type": "MultiPolygon" } }, "geometry": { "type": "MultiPolygon", "coordinates": [ [ [ [ -84.349903944717823, 10.096687423504216 ], [ -84.348662778176546, 10.100737545902062 ], [ -84.34642204, 10.10207886 ], [ -84.345164111573482, 10.101900909333642 ], [ -84.345153398779999, 10.101899393866864 ], [ -84.34508968, 10.10189038 ], [ -84.342931558347416, 10.100875504266595 ], [ -84.341194266716329, 10.100299833666947 ], [ -84.340454118802484, 10.09990920004576 ], [ -84.337553314585278, 10.100655387625748 ], [ -84.337174852350898, 10.098356945393137 ], [ -84.337832761607643, 10.096465456280006 ], [ -84.337627164964914, 10.094245012538506 ], [ -84.3361302, 10.09176466 ], [ -84.333488858910641, 10.089149586171638 ], [ -84.335180564916413, 10.085712751865151 ], [ -84.335488959880522, 10.085116521601229 ], [ -84.33411146237421, 10.083615666109289 ], [ -84.33249066202977, 10.081202474485336 ], [ -84.33249644, 10.08120216 ], [ -84.33251825, 10.08120178 ], [ -84.33256551, 10.08120073 ], [ -84.33261469, 10.08120105 ], [ -84.33266114, 10.08121122 ], [ -84.33270867, 10.08121379 ], [ -84.3327541, 10.08120742 ], [ -84.33279961, 10.08118666 ], [ -84.33283945, 10.08115923 ], [ -84.33287219, 10.08113596 ], [ -84.33288175, 10.08111904 ], [ -84.33288599, 10.08106967 ], [ -84.33288147, 10.08102591 ], [ -84.33287066, 10.08098008 ], [ -84.33285647, 10.08093326 ], [ -84.33285509, 10.0809282 ], [ -84.33283717, 10.08088572 ], [ -84.33281222, 10.08084741 ], [ -84.33278207, 10.08081055 ], [ -84.33274637, 10.08077876 ], [ -84.33271139, 10.08074887 ], [ -84.33267259, 10.08072042 ], [ -84.33263798, 10.08069008 ], [ -84.332608718144854, 10.08066456544125 ], [ -84.334666573309605, 10.079390655101161 ], [ -84.336722539736925, 10.079822408050896 ], [ -84.339230818778248, 10.080048564357901 ], [ -84.341800776812391, 10.078650507187326 ], [ -84.344329615517992, 10.078835544165786 ], [ -84.346755655902228, 10.07900002147997 ], [ -84.348030355087161, 10.079555132415345 ], [ -84.350127440843025, 10.081302703878563 ], [ -84.351566617342144, 10.082371806420767 ], [ -84.35304691316982, 10.082495164406406 ], [ -84.354280493026209, 10.082803559370504 ], [ -84.354280493026224, 10.082803559370507 ], [ -84.355267356911341, 10.082474604742133 ], [ -84.356377578782087, 10.082042851792396 ], [ -84.357014928374554, 10.082083971120943 ], [ -84.358042911588214, 10.081734456828299 ], [ -84.358227948566665, 10.081734456828299 ], [ -84.358412985545129, 10.081713897164025 ], [ -84.358556903195037, 10.081528860185568 ], [ -84.358721380509223, 10.081528860185568 ], [ -84.359132573794682, 10.081693337499752 ], [ -84.35968121, 10.08161997 ], [ -84.35971269, 10.08178739 ], [ -84.35965148, 10.08180292 ], [ -84.35960808, 10.081829 ], [ -84.35956167, 10.08185211 ], [ -84.3595137, 10.08186943 ], [ -84.35946645, 10.08188115 ], [ -84.3594118, 10.08188898 ], [ -84.35936264, 10.08189726 ], [ -84.35931238, 10.08190971 ], [ -84.35925912, 10.0819302 ], [ -84.35921498, 10.0819524 ], [ -84.35917477, 10.08197378 ], [ -84.35913712, 10.08200122 ], [ -84.35909747, 10.08203589 ], [ -84.35906101, 10.08207246 ], [ -84.35902775, 10.08210974 ], [ -84.35899394, 10.08214613 ], [ -84.3589583, 10.08217872 ], [ -84.35892995, 10.08219674 ], [ -84.35885919, 10.08223244 ], [ -84.35882325, 10.08224442 ], [ -84.35876943, 10.08225044 ], [ -84.35871596, 10.08224435 ], [ -84.35866841, 10.08223428 ], [ -84.35862232, 10.0822233 ], [ -84.35858254, 10.08221891 ], [ -84.35853365, 10.08223641 ], [ -84.35849719, 10.08226719 ], [ -84.35846365, 10.08230258 ], [ -84.35842647, 10.08233734 ], [ -84.35838262, 10.08236813 ], [ -84.35833903, 10.08239413 ], [ -84.35829436, 10.08242257 ], [ -84.35825032, 10.08245526 ], [ -84.35821186, 10.08248948 ], [ -84.35818006, 10.08252532 ], [ -84.35815073, 10.08257245 ], [ -84.35812898, 10.08262275 ], [ -84.35811608, 10.08267367 ], [ -84.35810938, 10.0827234 ], [ -84.3580984, 10.0827745 ], [ -84.3580792, 10.08282091 ], [ -84.35804877, 10.08285774 ], [ -84.35801003, 10.08289223 ], [ -84.35796845, 10.08291886 ], [ -84.35791492, 10.08293917 ], [ -84.35786183, 10.08295152 ], [ -84.35781604, 10.08296305 ], [ -84.35776469, 10.08297703 ], [ -84.35770933, 10.08299355 ], [ -84.35765296, 10.08301432 ], [ -84.35760983, 10.08303064 ], [ -84.35756577, 10.08304551 ], [ -84.35751834, 10.0830575 ], [ -84.35746945, 10.08306714 ], [ -84.35742055, 10.08307388 ], [ -84.35736974, 10.08308054 ], [ -84.35731765, 10.08308539 ], [ -84.35726555, 10.08308806 ], [ -84.35721729, 10.08309282 ], [ -84.35715818, 10.08309704 ], [ -84.35709859, 10.08309475 ], [ -84.3570391, 10.08308542 ], [ -84.35699483, 10.08307371 ], [ -84.35693742, 10.08305388 ], [ -84.35688348, 10.08303667 ], [ -84.35682635, 10.08302588 ], [ -84.35677271, 10.08303408 ], [ -84.3567262, 10.08305049 ], [ -84.35668416, 10.0830726 ], [ -84.35664953, 10.08310889 ], [ -84.35662076, 10.083161 ], [ -84.35660256, 10.08320261 ], [ -84.35658508, 10.0832445 ], [ -84.35656606, 10.08328846 ], [ -84.35654613, 10.08333016 ], [ -84.35654431, 10.08333351 ], [ -84.35652291, 10.08337304 ], [ -84.35649212, 10.08342208 ], [ -84.35645951, 10.08347013 ], [ -84.35642927, 10.0835113 ], [ -84.35639774, 10.08354732 ], [ -84.35636228, 10.08358136 ], [ -84.35632674, 10.08361395 ], [ -84.35629402, 10.08365331 ], [ -84.35626716, 10.08369982 ], [ -84.35625051, 10.08374558 ], [ -84.35623916, 10.08379099 ], [ -84.35623054, 10.08383557 ], [ -84.35621891, 10.08387962 ], [ -84.35620045, 10.08393398 ], [ -84.35618052, 10.083983 ], [ -84.35615931, 10.08402869 ], [ -84.3561402, 10.08407509 ], [ -84.35612529, 10.08412248 ], [ -84.35611485, 10.08416653 ], [ -84.35610004, 10.08422107 ], [ -84.35608403, 10.08426602 ], [ -84.35605752, 10.08430366 ], [ -84.35602315, 10.08433471 ], [ -84.35598022, 10.08436695 ], [ -84.35593391, 10.08440334 ], [ -84.35589808, 10.08443458 ], [ -84.35585971, 10.08446852 ], [ -84.35581942, 10.08450021 ], [ -84.35577739, 10.08453019 ], [ -84.3557339, 10.08455871 ], [ -84.35569186, 10.08458371 ], [ -84.35565038, 10.08460799 ], [ -84.35560734, 10.084631 ], [ -84.35556467, 10.08465682 ], [ -84.35552272, 10.08468227 ], [ -84.35548398, 10.08471396 ], [ -84.35544744, 10.08475288 ], [ -84.35541554, 10.08478944 ], [ -84.35538812, 10.08482771 ], [ -84.35536563, 10.08486797 ], [ -84.35534451, 10.08491076 ], [ -84.35532147, 10.0849522 ], [ -84.35528658, 10.08500233 ], [ -84.35525087, 10.08504685 ], [ -84.35522315, 10.08506713 ], [ -84.35518173, 10.08507233 ], [ -84.35513308, 10.0850553 ], [ -84.35508918, 10.08503798 ], [ -84.3550337, 10.08503578 ], [ -84.35498609, 10.08505256 ], [ -84.35494306, 10.085081 ], [ -84.35491062, 10.08512217 ], [ -84.35489243, 10.08517174 ], [ -84.35489569, 10.08522951 ], [ -84.35490331, 10.08527742 ], [ -84.35490857, 10.08532633 ], [ -84.35490771, 10.08537778 ], [ -84.35490138, 10.08542987 ], [ -84.3548904, 10.08548097 ], [ -84.35487348, 10.08553315 ], [ -84.3548563, 10.08558589 ], [ -84.3548433, 10.08563509 ], [ -84.35483478, 10.08568347 ], [ -84.35483219, 10.08573166 ], [ -84.35484092, 10.08579097 ], [ -84.35486661, 10.08584211 ], [ -84.35490178, 10.08588276 ], [ -84.35494141, 10.08590858 ], [ -84.35497668, 10.0859514 ], [ -84.35499561, 10.08599424 ], [ -84.35501591, 10.08603852 ], [ -84.35503649, 10.08607919 ], [ -84.35505506, 10.08612428 ], [ -84.3550677, 10.08617165 ], [ -84.35506808, 10.08618476 ], [ -84.35506745, 10.08627065 ], [ -84.35506709, 10.08627915 ], [ -84.35505774, 10.0863269 ], [ -84.35504027, 10.08637041 ], [ -84.3550187, 10.0864179 ], [ -84.35499257, 10.08646576 ], [ -84.35496735, 10.08651344 ], [ -84.35495024, 10.08655595 ], [ -84.35493724, 10.08660181 ], [ -84.35493273, 10.0866482 ], [ -84.35492567, 10.08669893 ], [ -84.35491797, 10.08674451 ], [ -84.35490579, 10.08679434 ], [ -84.35489764, 10.08684381 ], [ -84.35489222, 10.0868986 ], [ -84.35488553, 10.08695449 ], [ -84.35488294, 10.0870072 ], [ -84.35488044, 10.08705585 ], [ -84.35488287, 10.08710856 ], [ -84.35489251, 10.08715656 ], [ -84.35490634, 10.08720682 ], [ -84.35491934, 10.0872503 ], [ -84.35493646, 10.08730172 ], [ -84.35494828, 10.08734638 ], [ -84.35496302, 10.08739365 ], [ -84.35498114, 10.08744209 ], [ -84.35499697, 10.0874852 ], [ -84.35500852, 10.0875379 ], [ -84.35501305, 10.0875917 ], [ -84.35500599, 10.08764198 ], [ -84.35498652, 10.08768929 ], [ -84.35496312, 10.08773135 ], [ -84.35493205, 10.08777352 ], [ -84.35489159, 10.08781706 ], [ -84.35485577, 10.08785209 ], [ -84.35481648, 10.08788739 ], [ -84.35476935, 10.08792189 ], [ -84.35471975, 10.08795259 ], [ -84.35467233, 10.08797534 ], [ -84.35461541, 10.08799394 ], [ -84.3545594, 10.08800295 ], [ -84.35450777, 10.08801222 ], [ -84.35445668, 10.08801743 ], [ -84.35440285, 10.08801686 ], [ -84.35435084, 10.08801881 ], [ -84.35430212, 10.08801868 ], [ -84.35425093, 10.08801675 ], [ -84.35419491, 10.08801862 ], [ -84.35414265, 10.08803332 ], [ -84.35408985, 10.08806032 ], [ -84.35404864, 10.08808478 ], [ -84.35400806, 10.08811005 ], [ -84.35396676, 10.08813514 ], [ -84.35392217, 10.08816123 ], [ -84.35387831, 10.08818704 ], [ -84.3538371, 10.08821267 ], [ -84.35379625, 10.08823939 ], [ -84.35375523, 10.08826972 ], [ -84.35371512, 10.08830277 ], [ -84.35367637, 10.08833274 ], [ -84.35363891, 10.08836732 ], [ -84.35360702, 10.08840388 ], [ -84.35357066, 10.08845085 ], [ -84.35354269, 10.08848994 ], [ -84.35351628, 10.08853101 ], [ -84.35349032, 10.08857408 ], [ -84.35346318, 10.08861823 ], [ -84.35343203, 10.08866447 ], [ -84.3534057, 10.08870473 ], [ -84.35337811, 10.08875449 ], [ -84.35335299, 10.08880723 ], [ -84.35333296, 10.08884966 ], [ -84.35330838, 10.08889941 ], [ -84.35327522, 10.08894547 ], [ -84.35323666, 10.08897634 ], [ -84.35320257, 10.0890064 ], [ -84.35316884, 10.08903709 ], [ -84.3531469, 10.08907816 ], [ -84.35312678, 10.08911959 ], [ -84.35311159, 10.08916228 ], [ -84.35310443, 10.08920714 ], [ -84.3531063, 10.08925605 ], [ -84.35311028, 10.08930442 ], [ -84.3531179, 10.08935061 ], [ -84.35313155, 10.08939499 ], [ -84.35315304, 10.08943846 ], [ -84.35318237, 10.08948065 ], [ -84.35321207, 10.08952475 ], [ -84.35323165, 10.08957346 ], [ -84.35324211, 10.08962381 ], [ -84.35324234, 10.08967435 ], [ -84.3532372, 10.08972318 ], [ -84.35322895, 10.08977509 ], [ -84.35322535, 10.0898241 ], [ -84.35322502, 10.08985484 ], [ -84.35324578, 10.08997878 ], [ -84.35326462, 10.090018 ], [ -84.35328857, 10.09005921 ], [ -84.35331471, 10.09010529 ], [ -84.35333858, 10.0901521 ], [ -84.35335952, 10.09019683 ], [ -84.35338238, 10.09024175 ], [ -84.35340734, 10.09028819 ], [ -84.35343165, 10.09033003 ], [ -84.35345962, 10.09037412 ], [ -84.35348513, 10.09042509 ], [ -84.35349239, 10.09046559 ], [ -84.35348112, 10.09051361 ], [ -84.35345298, 10.0905575 ], [ -84.35342245, 10.09059342 ], [ -84.35338946, 10.09063134 ], [ -84.3533541, 10.09066583 ], [ -84.35331773, 10.0906995 ], [ -84.35327826, 10.09073553 ], [ -84.3532357, 10.09077464 ], [ -84.35319204, 10.09081465 ], [ -84.35315805, 10.09085682 ], [ -84.35312316, 10.0909036 ], [ -84.35309255, 10.09094902 ], [ -84.35307609, 10.0909985 ], [ -84.35306857, 10.09104932 ], [ -84.3530658, 10.09109941 ], [ -84.35306631, 10.09115529 ], [ -84.3530713, 10.09121225 ], [ -84.35307902, 10.09126676 ], [ -84.35309323, 10.09132271 ], [ -84.35310934, 10.09136763 ], [ -84.35312663, 10.09141219 ], [ -84.35314493, 10.09145702 ], [ -84.35316468, 10.09150211 ], [ -84.35318508, 10.09154477 ], [ -84.35320483, 10.09158869 ], [ -84.3532214, 10.09163922 ], [ -84.3532345, 10.09168821 ], [ -84.35324195, 10.09173585 ], [ -84.35323325, 10.0917911 ], [ -84.35320985, 10.09183643 ], [ -84.35318379, 10.09187407 ], [ -84.35315144, 10.09191072 ], [ -84.35311317, 10.09195461 ], [ -84.35306841, 10.09199336 ], [ -84.35301808, 10.09202388 ], [ -84.35296501, 10.09205125 ], [ -84.3529164, 10.09207553 ], [ -84.35287601, 10.09210387 ], [ -84.35285014, 10.09213916 ], [ -84.35284517, 10.09218221 ], [ -84.35285615, 10.0922105 ], [ -84.35289468, 10.09223713 ], [ -84.35294378, 10.09224585 ], [ -84.35298786, 10.09225999 ], [ -84.35311203, 10.09233048 ], [ -84.35314891, 10.09234716 ], [ -84.35316805, 10.09241324 ], [ -84.35315771, 10.09247003 ], [ -84.35309492, 10.09253854 ], [ -84.35301943, 10.09258935 ], [ -84.35298525, 10.09262239 ], [ -84.35297776, 10.09269762 ], [ -84.3530108, 10.09279279 ], [ -84.35304208, 10.09286066 ], [ -84.35304214, 10.092916 ], [ -84.35298309, 10.09298921 ], [ -84.35290559, 10.09304354 ], [ -84.35282663, 10.09309155 ], [ -84.35274376, 10.09315113 ], [ -84.35270877, 10.09319574 ], [ -84.35270457, 10.09327314 ], [ -84.35273824, 10.09335972 ], [ -84.35276972, 10.09344776 ], [ -84.35277865, 10.09352578 ], [ -84.35274755, 10.09361668 ], [ -84.35269636, 10.09370145 ], [ -84.35263695, 10.09377213 ], [ -84.35260125, 10.09383664 ], [ -84.35259762, 10.09393004 ], [ -84.35260629, 10.09402126 ], [ -84.3525875, 10.09411025 ], [ -84.35254471, 10.09419692 ], [ -84.35250977, 10.0942833 ], [ -84.352472, 10.0943724 ], [ -84.35245382, 10.09443653 ], [ -84.35244826, 10.0945274 ], [ -84.35246497, 10.09461708 ], [ -84.35247226, 10.09469184 ], [ -84.35244606, 10.0947633 ], [ -84.35238044, 10.09483209 ], [ -84.35230467, 10.09488316 ], [ -84.35222344, 10.0949413 ], [ -84.352139, 10.09498705 ], [ -84.35205181, 10.09502448 ], [ -84.35195674, 10.09503082 ], [ -84.35186721, 10.09500524 ], [ -84.35181155, 10.09500485 ], [ -84.35177216, 10.09503563 ], [ -84.349903944717823, 10.096687423504216 ] ] ] ] } }
]
}
