{
"type": "FeatureCollection",
"name": "Everty",
"crs": { "type": "name", "properties": { "name": "urn:ogc:def:crs:OGC:1.3:CRS84" } },
"features": [
{ "type": "Feature", "properties": { "fid": 1, "Nombre": "Área de estudio" }, "geometry": { "type": "Polygon", "coordinates": [ [ [ -84.08872408452217, 9.921049446332621 ], [ -84.034075392755355, 9.921049446332621 ], [ -84.034075392755355, 9.949211201184893 ], [ -84.08872408452217, 9.949211201184893 ], [ -84.08872408452217, 9.921049446332621 ] ] ] } }
]
}
