{
"type": "FeatureCollection",
"name": "Lalaguna_este",
"crs": { "type": "name", "properties": { "name": "urn:ogc:def:crs:OGC:1.3:CRS84" } },
"features": [
{"type":"Feature","properties":{"fid":13,"Nombre":"La Laguna - Este"},"geometry":{"type":"Polygon","coordinates":[[[-84.0680634,9.93241851],[-84.068408952118716,9.932691383827455],[-84.068190094611182,9.93327558613489],[-84.068031681656706,9.93367280870644],[-84.067972395387088,9.933846132986032],[-84.067855244298599,9.934130074808055],[-84.067789802841986,9.934285689043865],[-84.067587122560568,9.934797537150153],[-84.067509600481841,9.935014778765007],[-84.067399108168516,9.935295335595638],[-84.067170951771331,9.935850975711393],[-84.067025672255042,9.936263752602571],[-84.066561229620746,9.937480353645471],[-84.066342778892277,9.938046735689998],[-84.066253756088713,9.938292450358738],[-84.066234535954294,9.938366310113645],[-84.066198954036295,9.938560196031503],[-84.06614169538868,9.938848210473241],[-84.066100878344912,9.939050544341661],[-84.066077573929419,9.93916401016862],[-84.066071306918914,9.939197164391667],[-84.066049413688404,9.939244143127326],[-84.066014951910844,9.939321817028192],[-84.06597440555268,9.939396547181405],[-84.065928028054316,9.939467866973489],[-84.065896927828547,9.939504338125326],[-84.065866973148445,9.939536631696727],[-84.065820083205821,9.939567636509402],[-84.065764075555947,9.939601226373902],[-84.065685461372254,9.939646033163957],[-84.06568538,9.93964578],[-84.06561443,9.93958266],[-84.0655965,9.93956583],[-84.06558059,9.93955494],[-84.06556427,9.93954022],[-84.06553861,9.93952571],[-84.0655026,9.93950258],[-84.06548153,9.93949322],[-84.06546324,9.93948425],[-84.06544117,9.93947928],[-84.06542403,9.9394716],[-84.06541219,9.93946805],[-84.06537836,9.93946821],[-84.06535907,9.93946362],[-84.06533846,9.93946167],[-84.06530065,9.93946314],[-84.06523705,9.9394657],[-84.06520413,9.93946749],[-84.06516978,9.93947133],[-84.06511731,9.93948505],[-84.06509063,9.9394911],[-84.06501194,9.93951018],[-84.06493237,9.93952763],[-84.0648925,9.93954086],[-84.06484536,9.93955721],[-84.06481628,9.93956669],[-84.06477795,9.93957185],[-84.06474541,9.93957896],[-84.06471112,9.93957979],[-84.06466304,9.93958133],[-84.06462944,9.93958264],[-84.06456029,9.93957483],[-84.06452116,9.93957235],[-84.06447402,9.93955934],[-84.06440009,9.9395452],[-84.06436136,9.93953186],[-84.06432827,9.93951631],[-84.06430166,9.93950316],[-84.06427952,9.93948801],[-84.06425807,9.93947333],[-84.06423731,9.93945912],[-84.06422629,9.93944854],[-84.06421057,9.93942563],[-84.06419772,9.9393986],[-84.06419036,9.93937837],[-84.06418,9.93934191],[-84.06415059,9.93920073],[-84.06414342,9.93912595],[-84.06413697,9.93910735],[-84.06412514,9.93908913],[-84.06412167,9.93908017],[-84.06410655,9.93906374],[-84.06409931,9.93905727],[-84.06408223,9.93904659],[-84.06407145,9.93904225],[-84.06405453,9.93903574],[-84.06404302,9.93903394],[-84.06402999,9.93903211],[-84.06400383,9.93903446],[-84.06398843,9.93903456],[-84.06397243,9.93903627],[-84.06394803,9.9390449],[-84.06392496,9.93905088],[-84.06389908,9.93906457],[-84.0638538,9.93908118],[-84.06381202,9.93909716],[-84.06379885,9.93910434],[-84.06378349,9.93911612],[-84.06376506,9.93913085],[-84.0637579,9.93914114],[-84.06374367,9.93915571],[-84.06373645,9.939169],[-84.06372706,9.93918688],[-84.063725,9.93919864],[-84.06372082,9.93921198],[-84.06372143,9.93923164],[-84.0637169,9.93926602],[-84.06371801,9.93929817],[-84.06371183,9.93933344],[-84.06370953,9.93936023],[-84.063706,9.93939023],[-84.06369902,9.93941786],[-84.06366272,9.93951252],[-84.06364134,9.93955056],[-84.06362977,9.93957303],[-84.06360352,9.93962393],[-84.06358675,9.93965094],[-84.06357354,9.93967431],[-84.06355405,9.93969642],[-84.06353617,9.93972064],[-84.06352119,9.93973774],[-84.0635067,9.93975416],[-84.063488,9.93977073],[-84.06346107,9.9397918],[-84.06344481,9.93980194],[-84.06341638,9.9398149],[-84.06338689,9.93983523],[-84.06335947,9.93984381],[-84.06332688,9.93985392],[-84.06328305,9.93988165],[-84.06325159,9.93989455],[-84.06319635,9.93992106],[-84.06317063,9.93993891],[-84.06315685,9.93994771],[-84.06314071,9.93996502],[-84.0631275,9.93997371],[-84.06311872,9.93998339],[-84.06311033,9.93999689],[-84.06304952,9.94007983],[-84.06291891,9.9402593],[-84.06282538,9.94037453],[-84.06280308,9.94039775],[-84.06278194,9.94042076],[-84.06276676,9.94043669],[-84.06274621,9.94045301],[-84.06273038,9.94046547],[-84.0627104,9.94047509],[-84.06269271,9.94048728],[-84.06267884,9.940494],[-84.06266901,9.94049638],[-84.06265173,9.94049772],[-84.06263381,9.94049558],[-84.0626126,9.94049524],[-84.06259144,9.9404919],[-84.06256686,9.94048318],[-84.06254138,9.94047283],[-84.062515,9.94046085],[-84.06249217,9.94044523],[-84.06246998,9.94043308],[-84.06243012,9.94040378],[-84.06239894,9.94038548],[-84.06233444,9.94033729],[-84.06227681,9.94029683],[-84.06222284,9.94024673],[-84.06215428,9.9401831],[-84.06213074,9.94015383],[-84.06211961,9.94013608],[-84.06209242,9.94010178],[-84.06207533,9.94007793],[-84.06206584,9.94005929],[-84.06205602,9.94003231],[-84.06205426,9.94002604],[-84.06205423,9.9399997],[-84.06205185,9.93997377],[-84.06205597,9.93995026],[-84.06205651,9.93991721],[-84.06205944,9.939902],[-84.06206812,9.93987048],[-84.06207762,9.9398385],[-84.06210683,9.93974964],[-84.06214976,9.93961247],[-84.06215208,9.93959888],[-84.06214957,9.93958855],[-84.0621555,9.93956831],[-84.06214911,9.93955989],[-84.06215074,9.93954582],[-84.06214348,9.93952618],[-84.06213164,9.93951605],[-84.06211997,9.93951008],[-84.0621029,9.939506],[-84.06208607,9.93949498],[-84.06207477,9.93949434],[-84.06206276,9.93949472],[-84.06205117,9.93949084],[-84.06203251,9.93949123],[-84.06202369,9.93948924],[-84.06200338,9.93949053],[-84.06198547,9.93948839],[-84.06194852,9.93948133],[-84.06190623,9.93947973],[-84.06188728,9.93947688],[-84.06186347,9.93947222],[-84.06183258,9.93946525],[-84.06168474,9.93942532],[-84.06159661,9.93939791],[-84.06155721,9.93938411],[-84.061365,9.93933457],[-84.06121247,9.93929699],[-84.06119851,9.93929503],[-84.0611865,9.93929542],[-84.06115907,9.93929082],[-84.0611371,9.93929451],[-84.06111749,9.93929627],[-84.06110675,9.93929702],[-84.06109259,9.93930049],[-84.06108099,9.9393047],[-84.06097186,9.93934996],[-84.06090054,9.93939226],[-84.06085053,9.93941421],[-84.06082919,9.93942757],[-84.06078719,9.93945386],[-84.0607776,9.93946248],[-84.06076332,9.93947346],[-84.0607582,9.93948008],[-84.06075085,9.9394877],[-84.06074746,9.93949226],[-84.06074361,9.93949929],[-84.06073161,9.93951777],[-84.06071967,9.93953737],[-84.06070898,9.93957186],[-84.06069581,9.93959514],[-84.0606943,9.93961385],[-84.06069086,9.93962634],[-84.0606916,9.93965775],[-84.06069058,9.93968213],[-84.06069297,9.9397077],[-84.06069523,9.93973184],[-84.06070482,9.93980178],[-84.06071433,9.93987117],[-84.06071978,9.93991083],[-84.06072534,9.93995131],[-84.06073607,9.9400035],[-84.06074654,9.94005446],[-84.06077429,9.94017021],[-84.0608023,9.9402871],[-84.06080944,9.9403514],[-84.06081739,9.940423],[-84.06080291,9.94046433],[-84.0607915,9.9404969],[-84.06076139,9.94053974],[-84.06073492,9.94057742],[-84.06071489,9.94059576],[-84.06069023,9.94061834],[-84.06066414,9.94063165],[-84.06062946,9.94064935],[-84.06059927,9.94064953],[-84.06058057,9.94064965],[-84.06055255,9.94063783],[-84.06053282,9.94062951],[-84.06051217,9.94061277],[-84.06049698,9.94060046],[-84.06048181,9.9405796],[-84.06046975,9.94056301],[-84.06045357,9.94053185],[-84.06043813,9.94050211],[-84.06042022,9.94046952],[-84.06040221,9.94043674],[-84.06036422,9.94036034],[-84.06032649,9.94028447],[-84.06031694,9.940265],[-84.06030616,9.94024304],[-84.06029795,9.94021004],[-84.06029056,9.94018034],[-84.06028405,9.94014642],[-84.06027329,9.94009036],[-84.0602654,9.94004972],[-84.0602609,9.94002546],[-84.06025603,9.94001096],[-84.06025173,9.93999195],[-84.06024367,9.93997889],[-84.0602318,9.93995965],[-84.06021868,9.93994603],[-84.06020601,9.93992924],[-84.0601929,9.93992032],[-84.06017182,9.93990596],[-84.06014396,9.93989957],[-84.06012638,9.93989554],[-84.06009667,9.93989645],[-84.06007436,9.93989714],[-84.06004036,9.93990465],[-84.06001136,9.93991106],[-84.05995253,9.93993174],[-84.05989506,9.93995195],[-84.05987138,9.93995936],[-84.05984652,9.93996715],[-84.05982626,9.93997262],[-84.05980388,9.93997867],[-84.0597665,9.93998516],[-84.05972556,9.93999227],[-84.05963853,9.93999632],[-84.05955537,9.94000019],[-84.05951821,9.93999797],[-84.05947699,9.93999551],[-84.05941918,9.93998392],[-84.0593644,9.93997294],[-84.05928977,9.93995425],[-84.05921351,9.93993514],[-84.05915057,9.93991573],[-84.05908616,9.93989587],[-84.05904774,9.9398899],[-84.05900043,9.93988255],[-84.05895752,9.93989285],[-84.05892305,9.93990112],[-84.05888358,9.93991608],[-84.05883885,9.93993305],[-84.05879076,9.93996414],[-84.05873657,9.93999917],[-84.05870203,9.9400347],[-84.05866912,9.94006856],[-84.05859697,9.94013124],[-84.05852494,9.94019381],[-84.05850892,9.94020996],[-84.05849023,9.9402288],[-84.05848291,9.94023268],[-84.05846507,9.94024217],[-84.05843488,9.94024452],[-84.0584164,9.94024596],[-84.05839102,9.94024058],[-84.05837188,9.94023653],[-84.05835963,9.9402327],[-84.05834199,9.94022718],[-84.05832924,9.9402194],[-84.05830879,9.94020691],[-84.05829429,9.94019055],[-84.05828527,9.94018037],[-84.05826707,9.94014886],[-84.05825159,9.94012204],[-84.05821673,9.94003845],[-84.05818126,9.93995337],[-84.05815907,9.93992239],[-84.0581322,9.93988489],[-84.05810007,9.93985847],[-84.05807458,9.9398375],[-84.05804202,9.93982255],[-84.0580007,9.93980357],[-84.05796017,9.93979905],[-84.0579087,9.93979332],[-84.05788017,9.93979986],[-84.05784053,9.93980894],[-84.05781317,9.93982638],[-84.05777539,9.93985046],[-84.0577576,9.93987615],[-84.05774572,9.9398933],[-84.05773942,9.93990921],[-84.05772921,9.93993504],[-84.05773059,9.93996767],[-84.05773171,9.9399944],[-84.05773112,9.94002465],[-84.05773055,9.94005438],[-84.05773089,9.94008959],[-84.05773126,9.94012776],[-84.05773571,9.94015495],[-84.05774114,9.94018816],[-84.0577524,9.94021602],[-84.057767,9.94025215],[-84.05785197,9.94035182],[-84.05793404,9.94044809],[-84.05795682,9.94047783],[-84.0579828,9.94051174],[-84.05799117,9.9405323],[-84.05800315,9.94056173],[-84.05800557,9.94059655],[-84.05800731,9.94062139],[-84.05800137,9.94064728],[-84.0579975,9.94066419],[-84.05799044,9.94067732],[-84.05797909,9.94069843],[-84.05794956,9.94072845],[-84.05792601,9.9407524],[-84.05787182,9.94078654],[-84.05781856,9.94082008],[-84.05778986,9.94084563],[-84.0577614,9.94087097],[-84.05769862,9.94091224],[-84.05763636,9.94095317],[-84.05761145,9.94097373],[-84.05758344,9.94099684],[-84.05755979,9.94100526],[-84.05754619,9.9410101],[-84.05752505,9.94101121],[-84.05751307,9.94101184],[-84.05749018,9.94100708],[-84.05747199,9.94100329],[-84.05744366,9.94099654],[-84.05741432,9.94098954],[-84.05738973,9.94098279],[-84.05736222,9.94097524],[-84.05733703,9.94096413],[-84.05730694,9.94095085],[-84.05727638,9.9409304],[-84.05725023,9.94091291],[-84.05723058,9.94089508],[-84.05720668,9.9408734],[-84.05717861,9.94083518],[-84.05715107,9.94079768],[-84.05708908,9.94073492],[-84.05702307,9.9406681],[-84.05698322,9.94064137],[-84.0569482,9.94061789],[-84.05693284,9.94061068],[-84.0569087,9.94059934],[-84.05689681,9.94059918],[-84.05686999,9.94059881],[-84.05684607,9.94061019],[-84.05683359,9.94061612],[-84.05682071,9.94062789],[-84.05680044,9.94064642],[-84.05678737,9.94066905],[-84.05677826,9.94068483],[-84.056769,9.94071019],[-84.05676131,9.94073127],[-84.05675576,9.94075345],[-84.0567485,9.94078249],[-84.05675354,9.94084374],[-84.05675809,9.94089911],[-84.05676488,9.94095781],[-84.05677207,9.94101993],[-84.05678089,9.94104919],[-84.05679166,9.94108489],[-84.05682155,9.94113625],[-84.05684777,9.94118133],[-84.05686865,9.94120436],[-84.05688699,9.9412246],[-84.05690261,9.94124117],[-84.0569194,9.94126392],[-84.05692448,9.9412772],[-84.05692783,9.94128429],[-84.05693246,9.94130113],[-84.05693485,9.94131211],[-84.05693487,9.9413217],[-84.05693713,9.94134077],[-84.05693475,9.94134834],[-84.05693079,9.94136451],[-84.05691793,9.94138387],[-84.05690717,9.94140006],[-84.05689379,9.94142262],[-84.05688109,9.94144404],[-84.056784616277767,9.941606719289764],[-84.056754785588581,9.941587909335814],[-84.055708594620398,9.940751963566075],[-84.055199119984437,9.940311466550398],[-84.054965171005918,9.940036809737171],[-84.054609124430286,9.939247024934359],[-84.054365314155575,9.938143341553335],[-84.054228675680434,9.938553610544989],[-84.053982581414772,9.938754607222293],[-84.053432474497484,9.939118331342772],[-84.052811969412346,9.93950866600516],[-84.052038120070335,9.939794591367479],[-84.05124941616937,9.940248507389528],[-84.05053401797332,9.940552892905057],[-84.050131443942519,9.940830589170119],[-84.049369924980695,9.941627203278021],[-84.049059812153033,9.94176573263746],[-84.048784280671185,9.941768888741585],[-84.04842382349122,9.941597071041604],[-84.04714736392269,9.940828059709521],[-84.046829136389107,9.940681970255595],[-84.046507885500546,9.94063676218811],[-84.04561175,9.94070463],[-84.045084228911676,9.940830738208808],[-84.04448649,9.94117794],[-84.04374011,9.94181061],[-84.04301444,9.94234107],[-84.04207563,9.94301966],[-84.041650744999302,9.943154351926362],[-84.04113660168278,9.943198690028973],[-84.040525128682731,9.943299966876202],[-84.04000724,9.94357614],[-84.039741169144946,9.94375991780559],[-84.03959717,9.94388028],[-84.03958761,9.94388648],[-84.03957608,9.94389352],[-84.03956632,9.94389942],[-84.03955461,9.94390615],[-84.03954466,9.94391174],[-84.03953277,9.94391815],[-84.03952264,9.94392343],[-84.03951235,9.94392839],[-84.03950029,9.94393448],[-84.03948984,9.94393912],[-84.03947762,9.94394489],[-84.03946703,9.94394919],[-84.03945465,9.94395463],[-84.03944392,9.9439586],[-84.03943308,9.94396223],[-84.03942055,9.94396734],[-84.03940959,9.94397063],[-84.03939694,9.9439754],[-84.03938588,9.94397835],[-84.03937309,9.94398278],[-84.03936194,9.94398538],[-84.03935071,9.94398763],[-84.03933781,9.94399172],[-84.03932652,9.94399361],[-84.03931351,9.94399736],[-84.03930216,9.9439989],[-84.03928905,9.9440023],[-84.03927765,9.94400348],[-84.03926446,9.94400653],[-84.03925318,9.94400876],[-84.03918559,9.94401347],[-84.03916864,9.94401653],[-84.03915162,9.94401923],[-84.03914051,9.94401005],[-84.03912344,9.9440124],[-84.03910883,9.94401514],[-84.03909171,9.94401712],[-84.03907676,9.94401956],[-84.03905961,9.94402119],[-84.0390446,9.94402327],[-84.03902741,9.94402454],[-84.03901235,9.94402626],[-84.03899515,9.94402717],[-84.03898005,9.94402853],[-84.03896283,9.94402907],[-84.0389477,9.94403008],[-84.03893255,9.94403072],[-84.03891532,9.94403091],[-84.03890016,9.94403119],[-84.03888293,9.94403101],[-84.03886777,9.94403094],[-84.03885054,9.9440304],[-84.03883538,9.94402996],[-84.03881817,9.94402906],[-84.03880302,9.94402826],[-84.03878583,9.944027],[-84.03877071,9.94402584],[-84.03875562,9.94402432],[-84.03873846,9.9440227],[-84.03872341,9.94402082],[-84.03870629,9.94401884],[-84.03861827,9.94400551],[-84.0385302,9.94398912],[-84.03841606,9.94396567],[-84.03826651,9.94393096],[-84.03816196,9.9439119],[-84.03807914,9.94389942],[-84.0380734,9.94389871],[-84.03805789,9.94389706],[-84.03804234,9.94389576],[-84.03794146,9.94388544],[-84.03792589,9.94388451],[-84.03791029,9.94388394],[-84.03789469,9.94388372],[-84.03787909,9.94388387],[-84.03786349,9.94388438],[-84.03780458,9.94388729],[-84.037789,9.94388816],[-84.03777344,9.94388939],[-84.03775792,9.94389098],[-84.03772874,9.9438936],[-84.03771326,9.94389555],[-84.03769782,9.94389786],[-84.03764784,9.94391023],[-84.03760526,9.94391765],[-84.03751764,9.94393758],[-84.0374181,9.94396797],[-84.03724979,9.9440072],[-84.03707088,9.94405134],[-84.03692014,9.94409072],[-84.03680581,9.94411155],[-84.03667869,9.94414595],[-84.0365032,9.94419411],[-84.03638507,9.94423013],[-84.03628212,9.94425774],[-84.03609495,9.94430483],[-84.03610603,9.94416504],[-84.03610612,9.94416337],[-84.03612205,9.94399732],[-84.03615854,9.94374004],[-84.03617552,9.94359039],[-84.03619166,9.94348866],[-84.03621396,9.94335832],[-84.03623597,9.94324345],[-84.03626733,9.94312392],[-84.03629477,9.9430095],[-84.0363261,9.94290608],[-84.03635593,9.94279318],[-84.03635639,9.94279143],[-84.03635715,9.94278751],[-84.03635755,9.94278353],[-84.03635876,9.94277881],[-84.0363588,9.94277481],[-84.03635965,9.94277002],[-84.03636015,9.94276517],[-84.03635982,9.94276119],[-84.03635996,9.94275632],[-84.03635927,9.94275238],[-84.03635904,9.94274751],[-84.036358,9.94274366],[-84.03635741,9.94273882],[-84.03635646,9.94273404],[-84.03635507,9.94273029],[-84.03635376,9.9427256],[-84.03635203,9.94272199],[-84.03635039,9.94271741],[-84.0363484,9.94271296],[-84.03634635,9.94270952],[-84.03634404,9.94270523],[-84.03634168,9.94270198],[-84.03633906,9.94269788],[-84.03633614,9.94269398],[-84.03633349,9.94269095],[-84.03633029,9.94268728],[-84.03632738,9.9426845],[-84.0363239,9.94268108],[-84.03632019,9.94267792],[-84.03631704,9.94267541],[-84.03631309,9.94267254],[-84.03630973,9.94267032],[-84.03630558,9.94266774],[-84.03630125,9.94266548],[-84.0362977,9.94266357],[-84.03629321,9.94266164],[-84.03628949,9.94266005],[-84.03628488,9.94265845],[-84.03628015,9.9426572],[-84.0362763,9.94265594],[-84.03627327,9.94265533],[-84.03626933,9.94265443],[-84.03612293,9.9426167],[-84.03593464,9.94257559],[-84.03577795,9.94253817],[-84.03563703,9.9425004],[-84.035634,9.9424998],[-84.03562658,9.94249807],[-84.03561926,9.94249598],[-84.03561204,9.94249356],[-84.03560495,9.94249079],[-84.03559858,9.94248822],[-84.03559163,9.94248512],[-84.03558541,9.94248222],[-84.03557862,9.9424788],[-84.03557256,9.94247557],[-84.03556594,9.94247183],[-84.03556006,9.94246829],[-84.03555362,9.94246424],[-84.03554794,9.9424604],[-84.03554171,9.94245605],[-84.03553624,9.94245192],[-84.03553022,9.94244728],[-84.03552498,9.94244286],[-84.0355192,9.94243794],[-84.03551419,9.94243325],[-84.03550865,9.94242807],[-84.03550391,9.94242312],[-84.03549862,9.94241768],[-84.03549361,9.94241199],[-84.03548913,9.94240681],[-84.0354844,9.94240089],[-84.0354802,9.94239548],[-84.03547576,9.94238934],[-84.03547185,9.94238372],[-84.03546771,9.94237738],[-84.03546411,9.94237156],[-84.03546028,9.94236503],[-84.03545699,9.94235903],[-84.03545348,9.94235233],[-84.03545052,9.94234616],[-84.03544733,9.94233931],[-84.0354447,9.94233299],[-84.03544185,9.94232599],[-84.03543956,9.94231955],[-84.03543705,9.94231243],[-84.03543511,9.94230587],[-84.03543295,9.94229864],[-84.03543114,9.94229131],[-84.03542954,9.94228466],[-84.03542809,9.94227726],[-84.03542685,9.94227053],[-84.03542576,9.94226307],[-84.03542488,9.94225629],[-84.03542414,9.94224879],[-84.03542362,9.94224198],[-84.0354236,9.94224149],[-84.03542056,9.94215281],[-84.03540943,9.94204147],[-84.03540484,9.94195404],[-84.03540423,9.9417854],[-84.0354048,9.94178151],[-84.03540501,9.94177759],[-84.03540578,9.94161679],[-84.03540969,9.94148945],[-84.03541531,9.9413945],[-84.0354156,9.94140039],[-84.03541415,9.94127689],[-84.03541407,9.94127327],[-84.03541469,9.94126445],[-84.03541494,9.94125561],[-84.03541484,9.94124676],[-84.03541438,9.94123793],[-84.03541357,9.94122912],[-84.0354124,9.94122035],[-84.03541256,9.94121782],[-84.03538242,9.94114426],[-84.03536146,9.94109108],[-84.03532797,9.94102691],[-84.03528506,9.94094035],[-84.03524332,9.94085208],[-84.03520222,9.9407689],[-84.03516568,9.94064764],[-84.03499202,9.94077407],[-84.03477438,9.94094629],[-84.03466887,9.94101387],[-84.03459192,9.94104221],[-84.03445609,9.94103356],[-84.03445115,9.94103229],[-84.03429924,9.94101294],[-84.03408726,9.94097214],[-84.03339532,9.9408052],[-84.03338309,9.94080294],[-84.03325958,9.94077816],[-84.03314223,9.94075463],[-84.03289845,9.94068],[-84.03284662,9.94066911],[-84.03275326,9.94065362],[-84.03269948,9.94064589],[-84.03259501,9.94063284],[-84.03244776,9.94061168],[-84.03234329,9.94059863],[-84.0322359,9.94058797],[-84.03209437,9.94052349],[-84.03204753,9.94049254],[-84.03191745,9.94041049],[-84.03177695,9.94031765],[-84.03170624,9.94027782],[-84.03170425,9.94027655],[-84.031701,9.94027414],[-84.03162245,9.94022928],[-84.03166483,9.9401263],[-84.03166615,9.94012251],[-84.031713,9.9400147],[-84.0317879,9.93982985],[-84.03182745,9.93973076],[-84.03184464,9.93967443],[-84.03186192,9.93960997],[-84.03187814,9.93953075],[-84.03188657,9.93946022],[-84.03189312,9.93939324],[-84.03189386,9.93933002],[-84.03189165,9.93927143],[-84.03187977,9.9391779],[-84.03187102,9.93909734],[-84.03187044,9.93909481],[-84.0318545,9.93898421],[-84.03173691,9.93900728],[-84.03162935,9.93903119],[-84.03152135,9.93905521],[-84.03142446,9.93907305],[-84.03132589,9.93909121],[-84.0312399,9.93911792],[-84.03114012,9.93914891],[-84.03082821,9.93926459],[-84.03072386,9.93930565],[-84.03065181,9.93933399],[-84.03057804,9.93936665],[-84.03048097,9.93940964],[-84.0304159,9.93943609],[-84.03038072,9.93934102],[-84.0303805,9.93934011],[-84.03037924,9.939337],[-84.03037831,9.93933379],[-84.03036289,9.93925842],[-84.03034726,9.93917597],[-84.03032574,9.93904374],[-84.03030936,9.93894148],[-84.03030855,9.93893899],[-84.03026142,9.93870896],[-84.03024279,9.93862156],[-84.03020974,9.93845409],[-84.03018378,9.93833734],[-84.03013055,9.93814125],[-84.03012362,9.93808732],[-84.03012138,9.93801458],[-84.03011802,9.93798385],[-84.03011966,9.93795179],[-84.03012564,9.93787319],[-84.03013065,9.93782539],[-84.03013846,9.93775763],[-84.03014412,9.93767134],[-84.03014445,9.93766939],[-84.03016287,9.93754068],[-84.03016921,9.93749637],[-84.0301757,9.93742242],[-84.03019249,9.93727713],[-84.03020276,9.93718102],[-84.03021509,9.93708427],[-84.03023313,9.93692558],[-84.0302465,9.93683295],[-84.0302604,9.93668595],[-84.03027411,9.9365831],[-84.03028202,9.93651855],[-84.03029528,9.93639878],[-84.03038995,9.93594798],[-84.03041296,9.93587219],[-84.03043254,9.93581507],[-84.03046,9.93572485],[-84.03049815,9.93560736],[-84.03062445,9.93532808],[-84.03062694,9.9353241],[-84.03062791,9.93532227],[-84.03062976,9.93531878],[-84.03069249,9.93522642],[-84.03076145,9.93512653],[-84.03076425,9.93512358],[-84.03076562,9.93512165],[-84.030791,9.93507266],[-84.03075027,9.93504239],[-84.0306466,9.93497088],[-84.03056253,9.93491534],[-84.03047847,9.9348598],[-84.03033241,9.93476764],[-84.03016225,9.93465669],[-84.03005518,9.93458609],[-84.02998148,9.93454115],[-84.02981555,9.93443092],[-84.02977739,9.93440565],[-84.02971128,9.93435623],[-84.02967955,9.93433177],[-84.02956825,9.93425918],[-84.02951477,9.93421752],[-84.02951466,9.93421742],[-84.02946364,9.93417141],[-84.02936392,9.93410452],[-84.02908611,9.93380734],[-84.02856463,9.93333343],[-84.02846172,9.9332399],[-84.02831649,9.9330828],[-84.02829661,9.9330613],[-84.02828215,9.93307349],[-84.02826993,9.93309448],[-84.02823812,9.93312937],[-84.02820277,9.93315474],[-84.02817111,9.93317263],[-84.02810508,9.93319872],[-84.02806606,9.93320951],[-84.02800061,9.9332253],[-84.0279743,9.93323538],[-84.02792301,9.93325359],[-84.02779848,9.93332815],[-84.02779454,9.93333341],[-84.02774186,9.93340372],[-84.0277155,9.93342229],[-84.02769955,9.93343718],[-84.02768265,9.93344717],[-84.02765425,9.93347291],[-84.02756955,9.93358587],[-84.02754842,9.9336272],[-84.02753502,9.93369081],[-84.02752075,9.93375882],[-84.02749711,9.93380486],[-84.02747245,9.93383668],[-84.02744467,9.93386569],[-84.02740098,9.93388754],[-84.0273684,9.9339005],[-84.02733983,9.93390761],[-84.02730319,9.93391286],[-84.0272664,9.93391728],[-84.02725057,9.93391944],[-84.02722804,9.93391352],[-84.02720697,9.93391073],[-84.0271692,9.9339145],[-84.02715509,9.93392565],[-84.02713683,9.93395964],[-84.02710361,9.9340092],[-84.0270496,9.93410604],[-84.02702573,9.9341562],[-84.02697344,9.93423127],[-84.0268902,9.9342949],[-84.02682327,9.9343259],[-84.0267074,9.93436415],[-84.02661555,9.93439377],[-84.02653141,9.93444738],[-84.02647483,9.93451614],[-84.02643461,9.93456856],[-84.02637293,9.93461079],[-84.02627915,9.9346143],[-84.0261611,9.9345878],[-84.02608422,9.93453519],[-84.02602212,9.93448995],[-84.02595026,9.93445267],[-84.02591176,9.9344447],[-84.02590124,9.93445027],[-84.02578863,9.93462754],[-84.02577976,9.93464936],[-84.02578313,9.9346935],[-84.02579419,9.93474026],[-84.02582518,9.9348158],[-84.02583353,9.93490174],[-84.02582563,9.93494598],[-84.02578362,9.93504757],[-84.02575724,9.93508106],[-84.02571463,9.93511558],[-84.02566698,9.93513987],[-84.02561862,9.93515514],[-84.02550967,9.93518086],[-84.02538514,9.93522684],[-84.02525698,9.93525926],[-84.02514815,9.93527479],[-84.0250766,9.93527614],[-84.02506668,9.93527526],[-84.02500003,9.93527073],[-84.0246299,9.9352456],[-84.02457194,9.93526597],[-84.02448099,9.93529439],[-84.02441539,9.93529461],[-84.02435686,9.9352996],[-84.02429609,9.93533552],[-84.02428271,9.93535127],[-84.02426501,9.93538717],[-84.02423292,9.93546545],[-84.02422534,9.935474],[-84.02420048,9.93550463],[-84.02417557,9.93551901],[-84.02413706,9.93552935],[-84.02410766,9.93552577],[-84.02408573,9.9355157],[-84.0240722,9.93550403],[-84.02405144,9.93544951],[-84.02402921,9.93540594],[-84.02400149,9.93537917],[-84.02396672,9.93536898],[-84.0239393,9.9353757],[-84.02389564,9.93540176],[-84.02385712,9.93542532],[-84.02378537,9.93545721],[-84.0236694,9.93550967],[-84.02348736,9.93557566],[-84.02335072,9.93562187],[-84.02314418,9.93563968],[-84.02293032,9.93559286],[-84.02267961,9.93560989],[-84.02252607,9.935706],[-84.02243624,9.93578192],[-84.02213269,9.93606689],[-84.02195293,9.93622889],[-84.02179919,9.9363027],[-84.0216986,9.93634409],[-84.02158515,9.93641433],[-84.02148209,9.93655976],[-84.02142555,9.93671256],[-84.02140305,9.93685078],[-84.02140031,9.93698525],[-84.02139965,9.9371518],[-84.02139897,9.93727572],[-84.0213584,9.93736253],[-84.02126508,9.93744107],[-84.0212069,9.93746833],[-84.02107945,9.93753909],[-84.02099,9.9376371],[-84.02088281,9.93773848],[-84.0207554,9.93780923],[-84.02064038,9.93785939],[-84.0205247,9.93789549],[-84.02035089,9.93795882],[-84.02025371,9.93799546],[-84.01992895,9.93807522],[-84.01984119,9.93807564],[-84.01981814,9.93806967],[-84.01961472,9.93792497],[-84.01956769,9.93789656],[-84.01947973,9.93787474],[-84.01942548,9.93786881],[-84.01932215,9.9378732],[-84.01922192,9.93788307],[-84.0191215,9.93789197],[-84.01902954,9.93792357],[-84.01899052,9.93794679],[-84.01893459,9.93800583],[-84.01889112,9.93805648],[-84.01874552,9.93829435],[-84.01871667,9.93833523],[-84.01865069,9.93841153],[-84.01860519,9.9384404],[-84.01855772,9.93846964],[-84.01850442,9.93851617],[-84.01847735,9.93855569],[-84.01838583,9.93868428],[-84.01832307,9.93876091],[-84.01824953,9.93885576],[-84.01819528,9.93890245],[-84.01812395,9.93892405],[-84.01803555,9.93892056],[-84.01795688,9.93888287],[-84.0178767,9.93883737],[-84.01780469,9.93880246],[-84.01771056,9.93877983],[-84.01763339,9.93874994],[-84.01756708,9.9386917],[-84.01752298,9.93861105],[-84.01748916,9.93847787],[-84.01746454,9.93837127],[-84.01737914,9.93820336],[-84.01730598,9.93812012],[-84.01725787,9.93809282],[-84.01720143,9.93807519],[-84.01710938,9.93808453],[-84.0170395,9.93809777],[-84.01699159,9.93812234],[-84.01695725,9.93814056],[-84.01691079,9.93816564],[-84.01686954,9.93818711],[-84.01683483,9.93820278],[-84.01680249,9.93820436],[-84.01675554,9.93819353],[-84.01669069,9.93815325],[-84.01662831,9.93809937],[-84.01654677,9.93803597],[-84.01647025,9.93798274],[-84.0163818,9.93794693],[-84.01629337,9.93795357],[-84.01623872,9.93798212],[-84.01619139,9.93802747],[-84.01613487,9.93811499],[-84.01608546,9.93819711],[-84.01604137,9.93825397],[-84.01600099,9.93829924],[-84.01595721,9.93833471],[-84.01592337,9.93836406],[-84.01588408,9.93836866],[-84.01583654,9.93834937],[-84.01581164,9.93832327],[-84.01578339,9.9382983],[-84.01574544,9.938283],[-84.01569367,9.93828744],[-84.01565247,9.93830935],[-84.01563807,9.93832001],[-84.01555228,9.93839757],[-84.01550652,9.93842613],[-84.01545885,9.93844477],[-84.01542204,9.93845236],[-84.01538543,9.93845131],[-84.01535624,9.93843982],[-84.01529821,9.93838717],[-84.01523523,9.93834051],[-84.01518958,9.93833098],[-84.01513548,9.93834628],[-84.01507985,9.93840126],[-84.01504271,9.93845173],[-84.0149868,9.93849465],[-84.01490633,9.93854221],[-84.01480516,9.93857753],[-84.01472339,9.93859706],[-84.0145434,9.93861399],[-84.01446714,9.93860925],[-84.01439617,9.93858434],[-84.01434661,9.93855436],[-84.01428737,9.93851107],[-84.01427248,9.93847604],[-84.01427698,9.93842017],[-84.01431017,9.93830187],[-84.01432413,9.93823293],[-84.01434272,9.93817794],[-84.01435182,9.93810195],[-84.01434479,9.93802642],[-84.0143166,9.93798093],[-84.01428223,9.93794208],[-84.01416986,9.93786372],[-84.01412464,9.9378181],[-84.01401998,9.93772898],[-84.01395919,9.93768804],[-84.01381719,9.93761104],[-84.01369358,9.937582],[-84.01357911,9.93758451],[-84.01346174,9.93760372],[-84.01337453,9.93762629],[-84.01325447,9.93766819],[-84.01314657,9.93768863],[-84.01303513,9.93771176],[-84.01292098,9.93773136],[-84.01277861,9.93775228],[-84.01263466,9.93777552],[-84.01251649,9.93780596],[-84.012406,9.93785512],[-84.01229718,9.93789186],[-84.01218695,9.93791072],[-84.01208941,9.93791105],[-84.0119532,9.93790056],[-84.01182918,9.93788979],[-84.01175674,9.93789344],[-84.01082285,9.93803707],[-84.01069963,9.9380567],[-84.01028084,9.93810314],[-84.00985756,9.93816064],[-84.00940239,9.93810386],[-84.00913528,9.93809117],[-84.00878729,9.93802977],[-84.00872774,9.93802245],[-84.00859032,9.93797042],[-84.00846639,9.9379544],[-84.00817065,9.93792879],[-84.00810567,9.93792957],[-84.00807509,9.93793463],[-84.00794973,9.93795787],[-84.00786025,9.93800363],[-84.00781132,9.93786611],[-84.00773082,9.93763992],[-84.00771893,9.9376065],[-84.0076947,9.93753321],[-84.00767019,9.93745909],[-84.00765794,9.93741555],[-84.00765553,9.93740828],[-84.00762905,9.93731417],[-84.00752354,9.9370784],[-84.00752313,9.93707804],[-84.00749672,9.93702211],[-84.00746277,9.93695312],[-84.00745364,9.93693026],[-84.00741202,9.93682294],[-84.00738382,9.93672986],[-84.00733556,9.93659957],[-84.00728723,9.93646909],[-84.00725133,9.93637984],[-84.0072155,9.93629074],[-84.00717329,9.93618102],[-84.00713113,9.93607142],[-84.00710272,9.93600689],[-84.00706224,9.9359034],[-84.00704731,9.93586948],[-84.0070307,9.93582503],[-84.00701092,9.93577064],[-84.00700525,9.93575504],[-84.00697073,9.93564277],[-84.00694177,9.93555989],[-84.00690897,9.93545623],[-84.00687596,9.9353519],[-84.00687564,9.93535114],[-84.00686052,9.93531434],[-84.00684276,9.93526156],[-84.00680149,9.93517838],[-84.00674834,9.93503977],[-84.00674748,9.93503716],[-84.00670221,9.93491444],[-84.00665695,9.93479172],[-84.00654446,9.93449064],[-84.00650133,9.9343712],[-84.00646968,9.93429111],[-84.00640123,9.93412862],[-84.006348,9.933995],[-84.0063141,9.93391905],[-84.00628627,9.93385564],[-84.00623284,9.93371912],[-84.00617157,9.93356258],[-84.00611202,9.93342675],[-84.00606711,9.93333351],[-84.00601986,9.93324205],[-84.00593954,9.93305281],[-84.00588126,9.93293103],[-84.00585635,9.93287689],[-84.00581429,9.93276732],[-84.00530063,9.93104317],[-84.00505258,9.93007932],[-84.00509707,9.92989327],[-84.00542991,9.92417751],[-84.014389058549071,9.911260144577566],[-84.014863211573697,9.911411542539662],[-84.015384392365746,9.911560085641295],[-84.016641025913188,9.911834822851997],[-84.017512170381622,9.912008406679512],[-84.017780298212443,9.912042276230673],[-84.018133785964494,9.912054693562121],[-84.018375092199406,9.912054703949492],[-84.018886566995107,9.912019344308776],[-84.019194128002596,9.911965006699289],[-84.019603204144417,9.911870422788946],[-84.020147077558605,9.911761611013139],[-84.020485133992352,9.911738549965406],[-84.020679311277988,9.911762702559157],[-84.020983330088256,9.911841631303712],[-84.022963745980221,9.912458414748631],[-84.023717109289024,9.912690728531981],[-84.024046270415695,9.912791093791775],[-84.02436511551771,9.912848086352945],[-84.024488916265653,9.912870206507165],[-84.026326928374843,9.913018551423228],[-84.026643034971187,9.913045180560468],[-84.027130339166604,9.913114709958032],[-84.027788904258855,9.913281710732676],[-84.029140644290123,9.913650912319646],[-84.029813615519345,9.913917780220888],[-84.030804895342229,9.914581609374315],[-84.031366362745871,9.914906726896341],[-84.032077985630536,9.915178848106963],[-84.034113005469749,9.915383403166892],[-84.035371429636484,9.915489980247767],[-84.035794995878518,9.915522564632747],[-84.038493070451963,9.915744269164852],[-84.039309527614762,9.91583411253162],[-84.039854844218411,9.915948880391973],[-84.040868300847762,9.916455933348963],[-84.041765925658083,9.916990962454229],[-84.042745612508767,9.917355219635178],[-84.044314690082231,9.917891389872521],[-84.045371616134773,9.918263698125887],[-84.046051007275324,9.918441627048324],[-84.04745233176871,9.918597844012833],[-84.048686256382396,9.918694116273487],[-84.049191662182722,9.918759336830183],[-84.049910814558515,9.918991740389675],[-84.050533296770553,9.919211252374247],[-84.050605385106095,9.91923303058906],[-84.05060448,9.91923621],[-84.04999998,9.92014786],[-84.04844294,9.922496],[-84.0481104,9.92296646],[-84.04681769,9.92490798],[-84.04691691,9.92485999],[-84.04711319,9.92476807],[-84.04718646,9.92472127],[-84.04724756,9.92468027],[-84.04734667,9.92461681],[-84.04745288,9.92454609],[-84.04749894,9.924515],[-84.04755389,9.9244799],[-84.04761542,9.92444121],[-84.04768375,9.92441323],[-84.04773661,9.92439285],[-84.0478471,9.92434524],[-84.04793313,9.92431522],[-84.04798875,9.92429673],[-84.04805932,9.92427431],[-84.04812575,9.92424907],[-84.04820002,9.92422717],[-84.04827535,9.92419791],[-84.0483796,9.92416219],[-84.04845483,9.92413893],[-84.04850227,9.92410878],[-84.04853011,9.9240834],[-84.04856841,9.92404297],[-84.04859263,9.92401108],[-84.04862808,9.92397475],[-84.04865453,9.92394843],[-84.04868003,9.92392347],[-84.04869602,9.92391219],[-84.04874579,9.92388162],[-84.04880461,9.92386732],[-84.04885857,9.92386585],[-84.04892228,9.92386499],[-84.04899075,9.9238573],[-84.04902815,9.92384451],[-84.04906279,9.92382983],[-84.04909667,9.92380454],[-84.0491208,9.92377864],[-84.04915444,9.92373906],[-84.04921521,9.92363119],[-84.04923825,9.92358635],[-84.04925782,9.92355528],[-84.04928525,9.92352757],[-84.04930064,9.92351354],[-84.04957799,9.92337307],[-84.04961842,9.92338152],[-84.04976725,9.92338237],[-84.04983058,9.9233792],[-84.04989081,9.92336583],[-84.04994838,9.92334458],[-84.04999998,9.92332154],[-84.05022367,9.92325097],[-84.0507264,9.92246477],[-84.05114469,9.92225406],[-84.05119577,9.9222541],[-84.05123312,9.92225699],[-84.0512559,9.9222605],[-84.05126866,9.92226334],[-84.05128603,9.92226722],[-84.05132737,9.92228087],[-84.05138035,9.92231255],[-84.05143154,9.92235224],[-84.05144876,9.92236617],[-84.05148036,9.9223887],[-84.0515085,9.92240006],[-84.05152181,9.92240106],[-84.05152992,9.92240167],[-84.05153175,9.9224018],[-84.05155978,9.9223967],[-84.05158141,9.92238319],[-84.05160695,9.92235819],[-84.05164212,9.92231349],[-84.05169506,9.92223445],[-84.05172632,9.92220123],[-84.05175596,9.92218207],[-84.05177395,9.92217819],[-84.05180072,9.9221793],[-84.05183473,9.92219345],[-84.0518638,9.9222103],[-84.05190809,9.92223753],[-84.05197392,9.92228658],[-84.05200235,9.92229995],[-84.05202504,9.92230838],[-84.05206079,9.92231564],[-84.0520876,9.92231374],[-84.05210634,9.92230734],[-84.05213083,9.92228971],[-84.05215266,9.92226419],[-84.05223815,9.92214568],[-84.05226465,9.92211931],[-84.0523075,9.92208995],[-84.05234731,9.92207672],[-84.05239383,9.92208021],[-84.05243411,9.92209561],[-84.05247049,9.9221225],[-84.0524807,9.92213595],[-84.05250562,9.92216877],[-84.05252641,9.92220927],[-84.05253676,9.92229117],[-84.05253879,9.92246172],[-84.05254116,9.92266199],[-84.05256015,9.92276112],[-84.0525703,9.92281411],[-84.05258481,9.92287611],[-84.05258392,9.92288825],[-84.05258268,9.92290541],[-84.05258243,9.92290886],[-84.05257313,9.92293688],[-84.05255821,9.92296713],[-84.05253438,9.9230014],[-84.05249463,9.92304096],[-84.05247688,9.92305622],[-84.05245402,9.92307589],[-84.05229648,9.92322907],[-84.05223566,9.92330479],[-84.0522208,9.92331807],[-84.05220873,9.92332885],[-84.05218146,9.92334459],[-84.0521459,9.92335466],[-84.05210257,9.92335537],[-84.0520966,9.92335561],[-84.05206901,9.9233567],[-84.05203406,9.92335708],[-84.05199722,9.9233602],[-84.0519658,9.92337311],[-84.0519464,9.9233922],[-84.05192066,9.92342921],[-84.05183601,9.92357741],[-84.05183511,9.92357911],[-84.05182859,9.9235904],[-84.05165811,9.92388883],[-84.0515817,9.92403683],[-84.05153884,9.92412484],[-84.05151039,9.92418629],[-84.05149857,9.92422675],[-84.05148908,9.92426678],[-84.05148016,9.92430157],[-84.05147716,9.92431325],[-84.05147245,9.92434643],[-84.05147646,9.9243876],[-84.05147929,9.92440706],[-84.05148528,9.92444824],[-84.05158861,9.92466045],[-84.05162716,9.92474555],[-84.05162851,9.92474852],[-84.05171735,9.92494464],[-84.05177614,9.92508595],[-84.05179755,9.92511677],[-84.05182587,9.92515231],[-84.05203186,9.92536043],[-84.05203783,9.92536752],[-84.05205244,9.92538161],[-84.05212794,9.92546601],[-84.0521669,9.9255068],[-84.05220457,9.92554064],[-84.0522381,9.92557165],[-84.05224755,9.92557811],[-84.05236346,9.92563659],[-84.05241514,9.9256512],[-84.05248874,9.92565717],[-84.05259732,9.92565835],[-84.05266126,9.92564519],[-84.05272761,9.9256356],[-84.05276622,9.9256344],[-84.05279759,9.92564397],[-84.05281547,9.92565831],[-84.05282293,9.9256643],[-84.0528281,9.92567198],[-84.05285189,9.92570736],[-84.05287965,9.92574324],[-84.05290498,9.92576596],[-84.05291753,9.92576878],[-84.05293153,9.92577194],[-84.05297375,9.92577193],[-84.05300512,9.92577192],[-84.05303529,9.92578627],[-84.05308837,9.92580182],[-84.0531956,9.92582904],[-84.05323436,9.92583887],[-84.05325883,9.92584142],[-84.05332605,9.92584843],[-84.05340326,9.92583885],[-84.053466,9.92582688],[-84.0534869,9.92583297],[-84.05349792,9.92583618],[-84.05350702,9.92583883],[-84.05356011,9.92587231],[-84.05359872,9.92591298],[-84.05365332,9.92599308],[-84.05376275,9.92612931],[-84.05400174,9.92628373],[-84.0542482,9.92637817],[-84.05447327,9.92640291],[-84.05460683,9.9264101],[-84.0546814,9.92641009],[-84.0546861,9.92640998],[-84.05476054,9.92640817],[-84.05476947,9.92640551],[-84.05481845,9.92639093],[-84.05489373,9.92636987],[-84.05498832,9.92636985],[-84.05506746,9.92639089],[-84.05515377,9.92642986],[-84.05520105,9.92645403],[-84.05551091,9.92670694],[-84.05556207,9.9267487],[-84.05564895,9.92680036],[-84.05572037,9.92681757],[-84.05577056,9.92680991],[-84.05583477,9.92677099],[-84.05587479,9.92674674],[-84.05602185,9.92661812],[-84.05608709,9.92656105],[-84.05632189,9.92635015],[-84.05639397,9.92628541],[-84.05651749,9.92618204],[-84.05652227,9.92618059],[-84.0565427,9.92617439],[-84.05658698,9.92616097],[-84.05665068,9.92615905],[-84.05665746,9.92615964],[-84.05671632,9.92616478],[-84.05675531,9.92617736],[-84.05679932,9.92619156],[-84.05696921,9.92626808],[-84.05702702,9.92630246],[-84.0570817,9.92633498],[-84.05709469,9.9263427],[-84.05723292,9.92643455],[-84.05755339,9.92664884],[-84.05773873,9.92677513],[-84.05777415,9.9268145],[-84.05779779,9.92684076],[-84.05780244,9.92684593],[-84.05791056,9.92698754],[-84.05803027,9.92714637],[-84.05809081,9.92724961],[-84.05813329,9.92729054],[-84.05814187,9.92729882],[-84.05818584,9.92731568],[-84.05820013,9.9273147],[-84.05822697,9.92731286],[-84.05827835,9.92730836],[-84.05832341,9.92730441],[-84.05839715,9.92729737],[-84.05843614,9.92730744],[-84.05846239,9.92731423],[-84.05847054,9.92732048],[-84.05850636,9.92734797],[-84.05856878,9.92744076],[-84.05860993,9.92752512],[-84.0586226,9.92754721],[-84.05864556,9.92758722],[-84.05865107,9.92759682],[-84.05868794,9.92761932],[-84.05874184,9.92761931],[-84.0589608,9.92756293],[-84.0589659,9.92756162],[-84.05927223,9.9275011],[-84.05931528,9.92750062],[-84.05956327,9.92756509],[-84.05986449,9.92763714],[-84.06018511,9.92761971],[-84.06043616,9.92773388],[-84.06063188,9.92787289],[-84.06075964,9.92792249],[-84.0609475,9.92786787],[-84.06122106,9.92778066],[-84.06131709,9.92775005],[-84.06173789,9.9276428],[-84.0621835,9.9275743],[-84.06242893,9.92753741],[-84.06254667,9.92749911],[-84.06269529,9.92740147],[-84.0627918,9.92736126],[-84.06286515,9.92737082],[-84.06298291,9.92738228],[-84.06302342,9.92737524],[-84.06306012,9.92736887],[-84.06309872,9.92732867],[-84.06313329,9.92719674],[-84.06314887,9.92713727],[-84.06317396,9.92709708],[-84.063228,9.92709133],[-84.06330329,9.92711045],[-84.06338206,9.92712949],[-84.06368012,9.92702274],[-84.06398601,9.92705482],[-84.0640233,9.92705481],[-84.06422984,9.92705477],[-84.06438427,9.9270758],[-84.06446359,9.92708731],[-84.06467383,9.92711785],[-84.06489897,9.92716038],[-84.06500779,9.92718094],[-84.06519311,9.92721918],[-84.06521118,9.92722813],[-84.06526647,9.92725553],[-84.06538809,9.92729952],[-84.06553867,9.92734543],[-84.06561009,9.92735116],[-84.06567175,9.92732808],[-84.06613182134798,9.927641285684103],[-84.066526859299671,9.928005020775137],[-84.066775712371538,9.92824645857235],[-84.066995189639329,9.928619476973717],[-84.067176236470971,9.928999824145915],[-84.067412257029176,9.930028479389311],[-84.067510882123116,9.930283744338324],[-84.067882176594409,9.930840686045263],[-84.068120037115079,9.93126419380158],[-84.068201257780686,9.931449841037226],[-84.067975000212243,9.932302658025977],[-84.0680634,9.93241851]]]}}
]
}
