{
"type": "FeatureCollection",
"name": "Litoral_Vivo_limte",
"crs": { "type": "name", "properties": { "name": "urn:ogc:def:crs:OGC:1.3:CRS84" } },
"features": [
{ "type": "Feature", "properties": { "fid": 1 }, "geometry": { "type": "LineString", "coordinates": [ [ -85.418595638979824, 10.6422079831534 ], [ -85.417251002177665, 10.636370494118554 ], [ -85.418407935534987, 10.634914997314137 ], [ -85.422961028102648, 10.631332235949429 ], [ -85.42788732497911, 10.628122678893543 ], [ -85.429564101667125, 10.631790627898575 ], [ -85.430427969028045, 10.631632455001508 ], [ -85.432757650591938, 10.630743497562653 ], [ -85.433156148754179, 10.629823886419009 ], [ -85.434872756222319, 10.628137932655664 ], [ -85.43527125438456, 10.625593675158251 ], [ -85.440635652722477, 10.621240849078342 ], [ -85.44878953819611, 10.616274948902667 ], [ -85.452130792018011, 10.615171415530297 ], [ -85.4621865050498, 10.611963292605948 ], [ -85.465468998877711, 10.6068127128597 ], [ -85.47274648289978, 10.604200282697933 ], [ -85.478680431410083, 10.604349564421462 ], [ -85.492346754458126, 10.605728282740509 ], [ -85.519262405503966, 10.591843946186552 ], [ -85.530849505913864, 10.586142357095966 ], [ -85.532877663916523, 10.584412715855596 ], [ -85.533674273166781, 10.584426217707296 ], [ -85.535600830156028, 10.589230717853322 ], [ -85.540045617350316, 10.588188491890525 ], [ -85.550544511240233, 10.583375860238794 ], [ -85.555418450301531, 10.58230298057121 ], [ -85.558483820780339, 10.582057750932906 ], [ -85.568400294279286, 10.579482839730707 ], [ -85.571956124034713, 10.579268263797191 ], [ -85.575220743594642, 10.578593882291852 ], [ -85.578102191844764, 10.577643617443423 ], [ -85.579573569674565, 10.575068706241222 ], [ -85.580615795637371, 10.573505367297029 ], [ -85.580646449342154, 10.570991763504404 ], [ -85.582056519762403, 10.568983945840783 ], [ -85.581348936767469, 10.557139219355241 ], [ -85.584135938090711, 10.556570443574989 ], [ -85.583175379987168, 10.554615021721366 ], [ -85.582041192909998, 10.552668511467322 ], [ -85.581458772519014, 10.550936577146794 ], [ -85.579864779870036, 10.548468953911353 ], [ -85.580370565999047, 10.548147090011078 ], [ -85.580303964702807, 10.540718229766991 ], [ -85.576870485061619, 10.537434031849344 ], [ -85.577019766785156, 10.53564265116699 ], [ -85.580303964702807, 10.531761326355221 ], [ -85.581796781938095, 10.529522100502279 ], [ -85.581826616976471, 10.52609174941604 ], [ -85.579619550231726, 10.525202791977184 ], [ -85.574255151893809, 10.524313834538329 ], [ -85.571618933282011, 10.522443958546255 ], [ -85.569902325813885, 10.520328852915876 ], [ -85.568522909098419, 10.515179030511474 ], [ -85.568798792441513, 10.513094578585884 ], [ -85.570576707319219, 10.510366398859743 ], [ -85.570760629547948, 10.507822141362333 ], [ -85.569289251718118, 10.503775852330303 ], [ -85.570975205481474, 10.499637602183908 ], [ -85.570515399909652, 10.4986260299259 ], [ -85.569227944308551, 10.494058627912473 ], [ -85.566530418287201, 10.490012338880444 ], [ -85.563618316332324, 10.48685500728727 ], [ -85.561411249587579, 10.481367994130199 ], [ -85.559725295824236, 10.477873471784356 ], [ -85.559357451366779, 10.475237253172578 ], [ -85.559572027300277, 10.471190964140551 ], [ -85.559081568023672, 10.467451212156403 ], [ -85.558345879108757, 10.464600417611109 ], [ -85.556414695707105, 10.461749623065815 ], [ -85.553809130800119, 10.458500330358277 ], [ -85.551939254808033, 10.4520017449432 ], [ -85.550283954749489, 10.44924291151227 ], [ -85.547831658366434, 10.445595120642487 ], [ -85.545839167555215, 10.443480015012108 ], [ -85.543478832286524, 10.442192559411007 ], [ -85.542373915288564, 10.44217742356172 ], [ -85.541241111836996, 10.44216190570622 ], [ -85.541087843313051, 10.44148752420088 ], [ -85.541363726656144, 10.440261376009357 ], [ -85.542477389347368, 10.439881131593276 ], [ -85.545035890089522, 10.439007567606257 ], [ -85.545646693483405, 10.439305630057639 ], [ -85.549762841768086, 10.438452807426858 ], [ -85.553594554866592, 10.437379927759274 ], [ -85.557211692031601, 10.436644238844361 ], [ -85.562269553321627, 10.434682401737922 ], [ -85.566990223858994, 10.430329575658012 ], [ -85.567174146087723, 10.425976749578101 ], [ -85.569871672109088, 10.421562616088636 ], [ -85.573427501864515, 10.417393712237455 ], [ -85.575542607494882, 10.414910762149617 ], [ -85.576125027885851, 10.412550426880934 ], [ -85.576492872343309, 10.41019009161225 ], [ -85.577749674239627, 10.409607671221277 ], [ -85.578975822431147, 10.408963943420726 ], [ -85.579987394689155, 10.407891063753143 ], [ -85.582930150348815, 10.406205109989797 ], [ -85.585872906008461, 10.405101576617426 ], [ -85.586148789351554, 10.403875428425902 ], [ -85.585995520827623, 10.401453785747641 ], [ -85.584616104112172, 10.397499457829978 ], [ -85.583696492968528, 10.396579846686334 ], [ -85.583696492968528, 10.395047161446929 ], [ -85.582746228120087, 10.388027463050454 ], [ -85.582439691072196, 10.383368099922663 ], [ -85.581152235471095, 10.381436916521013 ], [ -85.577443137191736, 10.380272075739066 ], [ -85.576186335295404, 10.378923312728391 ], [ -85.575787837133163, 10.376900168212376 ], [ -85.575757183428365, 10.37441721812454 ], [ -85.576554179752861, 10.372700610656405 ], [ -85.576799409391171, 10.3704015827973 ], [ -85.576308950114566, 10.36825582346213 ], [ -85.574868225989519, 10.365527643735989 ], [ -85.573611424093215, 10.363719075153492 ], [ -85.573029003702246, 10.361389393589596 ], [ -85.5708219369575, 10.360255206512436 ], [ -85.569105329489375, 10.359642132416674 ], [ -85.566223881239296, 10.357588334195871 ], [ -85.565273616390854, 10.355963687842101 ], [ -85.564231390428105, 10.354308387783544 ], [ -85.563863545970648, 10.350446020980243 ], [ -85.56643845717285, 10.345786657852452 ], [ -85.57079128325276, 10.339288072437375 ], [ -85.573856653731568, 10.331318109192468 ], [ -85.575634568609274, 10.324145142272053 ], [ -85.576983331619942, 10.318443553181465 ], [ -85.582010539205186, 10.31286457891003 ], [ -85.58415629854035, 10.310044438069525 ], [ -85.585934213418057, 10.306120763856647 ], [ -85.58562767637018, 10.297476419106403 ], [ -85.585259831912722, 10.292939670797765 ], [ -85.583359302215868, 10.292387904111578 ], [ -85.583175379987139, 10.288985342880098 ], [ -85.582531652186603, 10.286042587220441 ], [ -85.58225576884351, 10.282915909332054 ], [ -85.582317076253076, 10.280432959244218 ], [ -85.58381910778769, 10.27782739433723 ], [ -85.582991457758411, 10.276172094278673 ], [ -85.581887924386052, 10.275650981297273 ], [ -85.581550733633378, 10.27298410898071 ], [ -85.581090928061556, 10.272616264523252 ], [ -85.579496935412578, 10.273873066419565 ], [ -85.579037129840756, 10.273413260847743 ], [ -85.579527589117362, 10.27154338485567 ], [ -85.579251705774269, 10.270409197778511 ], [ -85.577841635354019, 10.267926247690671 ], [ -85.576339603819392, 10.264738262392708 ], [ -85.574776264875197, 10.264002573477795 ], [ -85.573366194454948, 10.263450806791608 ], [ -85.572753120359195, 10.262010082666567 ], [ -85.572753120359195, 10.259527132578731 ], [ -85.573335540750165, 10.258392945501571 ], [ -85.573586287143939, 10.256261905581447 ], [ -85.581199655043946, 10.2502159957785 ], [ -85.594784291885134, 10.248349974234381 ], [ -85.599934511346902, 10.255814060410858 ], [ -85.599697726867959, 10.266424216156052 ], [ -85.601291719516951, 10.268631282900795 ], [ -85.608955145714006, 10.269765469977958 ], [ -85.611070251344387, 10.272003190427489 ], [ -85.613185356974753, 10.273934373829139 ], [ -85.614901964442893, 10.274363525696172 ], [ -85.617170338597219, 10.273995681238716 ], [ -85.621645779496276, 10.272309727475371 ], [ -85.622381468411191, 10.270869003350329 ], [ -85.623638270307495, 10.270470505188085 ], [ -85.624956379613394, 10.272830840456768 ], [ -85.628328287140079, 10.272830840456768 ], [ -85.638321394900984, 10.271083579283843 ], [ -85.642612913571313, 10.269428279225286 ], [ -85.645647630345337, 10.267558403233211 ], [ -85.646076782212376, 10.26550460501241 ], [ -85.647425545223044, 10.264584993868766 ], [ -85.650920067568904, 10.265290029078892 ], [ -85.652851250970556, 10.267037290251814 ], [ -85.653678900999836, 10.270010699616259 ], [ -85.654751780667411, 10.270409197778505 ], [ -85.656958847412156, 10.270163968140201 ], [ -85.662721743912314, 10.269458932930075 ], [ -85.665020771771424, 10.268999127358253 ], [ -85.665664499571974, 10.266393562451263 ], [ -85.670323862699775, 10.265412643898044 ], [ -85.676914409229212, 10.265841795765079 ], [ -85.681022005670812, 10.268140823624185 ], [ -85.68203357792882, 10.271267501512572 ], [ -85.682677305729371, 10.273781105305197 ], [ -85.688378894819948, 10.275742942411634 ], [ -85.690831191203003, 10.276969090603158 ], [ -85.695030748758981, 10.277061051717522 ], [ -85.696655395112742, 10.276018825754727 ], [ -85.699414228543674, 10.271543384855663 ], [ -85.701958486041093, 10.26918304958698 ], [ -85.703736400918757, 10.264002573477788 ], [ -85.708953411337959, 10.258992177332633 ], [ -85.710909367839179, 10.257258758424408 ], [ -85.709867141876387, 10.255756726889791 ], [ -85.707960656206538, 10.253761567467864 ], [ -85.707230923264603, 10.252997893458861 ], [ -85.704349475014524, 10.251679784152973 ], [ -85.701008221192623, 10.25140390080988 ], [ -85.698463963695204, 10.250300367437509 ], [ -85.698310695171273, 10.248828989607679 ], [ -85.698341348876056, 10.246591269158149 ], [ -85.700180571163344, 10.245610350604929 ], [ -85.703950976852283, 10.24462943205171 ], [ -85.706055495123678, 10.243723690010855 ], [ -85.706372619530541, 10.243587206088915 ], [ -85.70925406778062, 10.242943478288364 ], [ -85.712288784554644, 10.242054520849509 ], [ -85.715752653195679, 10.240889680067561 ], [ -85.717009455091997, 10.238866535551546 ], [ -85.717462063915562, 10.237470991678896 ], [ -85.720089975853568, 10.237429305292878 ], [ -85.722266565463144, 10.238445047110682 ], [ -85.723370098835517, 10.23960988789263 ], [ -85.723523367359462, 10.241878262046949 ], [ -85.720733880223747, 10.246690893698682 ], [ -85.717591875483009, 10.249756264177494 ], [ -85.717959719940467, 10.251472871645626 ], [ -85.719431097770297, 10.252882942065879 ], [ -85.721392934876732, 10.254293012486132 ], [ -85.721944701562919, 10.26076094419642 ], [ -85.722557775658672, 10.262201668321461 ], [ -85.724519612765093, 10.264500696180569 ], [ -85.727370407310389, 10.265818805486457 ], [ -85.733746377906314, 10.265788151781669 ], [ -85.738712278081991, 10.266523840696584 ], [ -85.742145493018256, 10.267259529611497 ], [ -85.744996287563552, 10.266155996239126 ], [ -85.748337541385453, 10.264163505427899 ], [ -85.752690367465362, 10.264408735066205 ], [ -85.758606532489466, 10.265113770276331 ], [ -85.762131708540096, 10.264807233228449 ], [ -85.763541778960359, 10.264592657294934 ], [ -85.765932767933833, 10.263795660970443 ], [ -85.768967484707858, 10.263979583199172 ], [ -85.770101671785014, 10.264653964704509 ], [ -85.770561477356836, 10.268485677803023 ], [ -85.768906177298277, 10.271305818643528 ], [ -85.769611212508408, 10.272041507558441 ], [ -85.773565540426077, 10.272869157587721 ], [ -85.777857059096405, 10.277007407734114 ], [ -85.781167659213509, 10.27869336149746 ], [ -85.783405379663051, 10.278294863335214 ], [ -85.786746633484952, 10.277283291077207 ], [ -85.786777287189736, 10.27593452806653 ], [ -85.787083824237612, 10.275321453970768 ], [ -85.789290890982357, 10.275045570627675 ], [ -85.791252728088793, 10.276302372523988 ], [ -85.792478876280327, 10.278018979992121 ], [ -85.796249281969267, 10.283444685739608 ], [ -85.801460411783239, 10.294357404644174 ], [ -85.803177019251379, 10.30036553078264 ], [ -85.808633378703647, 10.300426838192216 ], [ -85.810717830629244, 10.301714293793317 ], [ -85.812373130687803, 10.308396801437123 ], [ -85.812311823278222, 10.310879751524958 ], [ -85.811913325116009, 10.320014555551813 ], [ -85.789352198391938, 10.347771485237434 ], [ -85.787942127971689, 10.352676078003531 ], [ -85.787942127971689, 10.359542507876066 ], [ -85.7894748132111, 10.367880315578429 ], [ -85.791988417003722, 10.383023245743752 ], [ -85.793339326659734, 10.387948437197979 ], [ -85.788570629241889, 10.393825013813926 ], [ -85.78043477530953, 10.399124514999224 ], [ -85.778718035488936, 10.408081418410996 ], [ -85.772373562238926, 10.409574235646289 ], [ -85.769313286906566, 10.408529263581583 ], [ -85.765879807265392, 10.409574235646289 ], [ -85.766253011574221, 10.420621083187475 ], [ -85.758117157641863, 10.433981797443368 ], [ -85.75490760058598, 10.465181677661038 ], [ -85.754617301840995, 10.466923470130878 ], [ -85.75177075632169, 10.469711922884496 ], [ -85.750391339606225, 10.473421021163857 ], [ -85.743037931591957, 10.507328829299945 ], [ -85.73606078299035, 10.510264758166953 ], [ -85.733336391535943, 10.51242934315813 ], [ -85.729305785000648, 10.514481966856662 ], [ -85.717624490134469, 10.521050362691961 ], [ -85.705569990959447, 10.523625472422845 ], [ -85.696501126255029, 10.526200582153729 ], [ -85.6910523433462, 10.528887653177261 ], [ -85.683812179755023, 10.531761326355204 ], [ -85.672205525750599, 10.533813950053734 ], [ -85.663120242074527, 10.536222798848534 ], [ -85.661250366082456, 10.535379821966862 ], [ -85.660330754938812, 10.534276288594489 ], [ -85.65942647064756, 10.533479292269998 ], [ -85.657449306688719, 10.530843073658222 ], [ -85.655993255711294, 10.529647579171487 ], [ -85.653694227852171, 10.527302570755195 ], [ -85.652866577822891, 10.526888745740555 ], [ -85.650981374978414, 10.529310388418814 ], [ -85.649693919377327, 10.532896871879021 ], [ -85.648406463776226, 10.536881853501475 ], [ -85.647456198927799, 10.538291923921726 ], [ -85.646659202603345, 10.538782383198342 ], [ -85.642858143209608, 10.538904998017493 ], [ -85.631600590310839, 10.541696126835371 ], [ -85.630382085360836, 10.54172513885799 ], [ -85.627132792653299, 10.541357294400534 ], [ -85.623025196211699, 10.540744220304772 ], [ -85.613829084775261, 10.542460827772905 ], [ -85.609476258695352, 10.546261887166628 ], [ -85.606043043759072, 10.549265950235862 ], [ -85.602241984365349, 10.551963476257216 ], [ -85.601751525088744, 10.554783617097721 ], [ -85.600525376897224, 10.559749517273392 ], [ -85.601383680631272, 10.564102343353303 ], [ -85.6008319139451, 10.567351636060842 ], [ -85.598743427897404, 10.577219732636161 ], [ -85.589842560778592, 10.576463449809072 ], [ -85.588340529243979, 10.577965481343689 ], [ -85.58374247352576, 10.578885092487331 ], [ -85.578071538139966, 10.581521311099108 ], [ -85.573963941698338, 10.581490657394323 ], [ -85.566269861796528, 10.58363641672949 ], [ -85.560537619001153, 10.585322370492836 ], [ -85.562039650535766, 10.589215391000925 ], [ -85.541471014622957, 10.596602933854857 ], [ -85.542677134431017, 10.601250907749378 ], [ -85.537409398738532, 10.603063202138994 ], [ -85.523002157488136, 10.606619031894414 ], [ -85.500931490040699, 10.614650302548897 ], [ -85.491071704798799, 10.616833388167557 ], [ -85.460591214539562, 10.622405689860287 ], [ -85.460437946015617, 10.626666554825832 ], [ -85.458108264451724, 10.629088197504093 ], [ -85.453295632799993, 10.631847030935022 ], [ -85.448768296689195, 10.634483439783059 ], [ -85.453557342994472, 10.641855485194066 ], [ -85.452559943885092, 10.64321955541141 ], [ -85.452743866113821, 10.644047205440689 ], [ -85.452253406837201, 10.644445703602933 ], [ -85.449985032682889, 10.646009042547124 ], [ -85.441064804589544, 10.649380950073816 ], [ -85.437141130376673, 10.651496055704195 ], [ -85.432435786691713, 10.654116947463578 ], [ -85.431454868138488, 10.65548103732665 ], [ -85.43004479771821, 10.655986823455649 ], [ -85.426596255929553, 10.650346541774638 ], [ -85.419392635304334, 10.648553300044536 ], [ -85.416419225939862, 10.646284925890217 ], [ -85.418595638979824, 10.6422079831534 ] ] } }
]
}
