{
"type": "FeatureCollection",
"name": "Residencial liberia portafolio",
"crs": { "type": "name", "properties": { "name": "urn:ogc:def:crs:OGC:1.3:CRS84" } },
"xy_coordinate_resolution": 1e-15,
"features": [
{ "type": "Feature", "properties": { "fid": null, "CÓDIGO_CANTÓN": null, "CANTÓN": null, "PROVINCIA": null, "Zonas": null }, "geometry": { "type": "MultiLineString", "coordinates": [ [ [ -85.4621865050498, 10.611963292605948 ], [ -85.465468998877711, 10.6068127128597 ], [ -85.47274648289978, 10.604200282697933 ], [ -85.478680431410083, 10.604349564421462 ], [ -85.492346754458126, 10.605728282740509 ], [ -85.519262405503966, 10.591843946186552 ], [ -85.530849505913864, 10.586142357095966 ], [ -85.532877663916523, 10.584412715855596 ], [ -85.533674273166781, 10.584426217707296 ], [ -85.535600830156028, 10.589230717853322 ], [ -85.540045617350316, 10.588188491890525 ], [ -85.550544511240233, 10.583375860238794 ], [ -85.555418450301531, 10.58230298057121 ], [ -85.558483820780339, 10.582057750932906 ], [ -85.568400294279286, 10.579482839730707 ], [ -85.571956124034713, 10.579268263797191 ], [ -85.575220743594642, 10.578593882291852 ], [ -85.578102191844764, 10.577643617443423 ], [ -85.579573569674565, 10.575068706241222 ], [ -85.580615795637371, 10.573505367297029 ], [ -85.580646449342154, 10.570991763504404 ], [ -85.582056519762403, 10.568983945840783 ], [ -85.581348936767469, 10.557139219355241 ], [ -85.584135938090711, 10.556570443574989 ], [ -85.583175379987168, 10.554615021721366 ], [ -85.582041192909998, 10.552668511467322 ], [ -85.581458772519014, 10.550936577146794 ], [ -85.579864779870036, 10.548468953911353 ], [ -85.580370565999047, 10.548147090011078 ], [ -85.580335182799288, 10.544200367337139 ], [ -85.597895306587333, 10.536441985372607 ], [ -85.600801598395179, 10.536264772457494 ], [ -85.603318021789789, 10.539809030759752 ], [ -85.606188871014609, 10.545479844043365 ], [ -85.608203271819363, 10.54737575068312 ], [ -85.606043043759072, 10.549265950235862 ], [ -85.602241984365349, 10.551963476257216 ], [ -85.601751525088744, 10.554783617097721 ], [ -85.600525376897224, 10.559749517273392 ], [ -85.601383680631272, 10.564102343353303 ], [ -85.6008319139451, 10.567351636060842 ], [ -85.598743427897404, 10.577219732636161 ], [ -85.589842560778592, 10.576463449809072 ], [ -85.588340529243979, 10.577965481343689 ], [ -85.58374247352576, 10.578885092487331 ], [ -85.578071538139966, 10.581521311099108 ], [ -85.573963941698338, 10.581490657394323 ], [ -85.566269861796528, 10.58363641672949 ], [ -85.560537619001153, 10.585322370492836 ], [ -85.562039650535766, 10.589215391000925 ], [ -85.541471014622957, 10.596602933854857 ], [ -85.542677134431017, 10.601250907749378 ], [ -85.537409398738532, 10.603063202138994 ], [ -85.523002157488136, 10.606619031894414 ], [ -85.500931490040699, 10.614650302548897 ], [ -85.491071704798799, 10.616833388167557 ], [ -85.460591214539562, 10.622405689860287 ], [ -85.460437946015617, 10.626666554825832 ], [ -85.458108264451724, 10.629088197504093 ], [ -85.456299228341805, 10.630125224573476 ], [ -85.479091768295604, 10.663025170637752 ], [ -85.463213491101484, 10.672098471891534 ], [ -85.447009514561017, 10.647133808847485 ], [ -85.441064804589544, 10.649380950073816 ], [ -85.437141130376673, 10.651496055704195 ], [ -85.432435786691713, 10.654116947463578 ], [ -85.431454868138488, 10.65548103732665 ], [ -85.43004479771821, 10.655986823455649 ], [ -85.426596255929553, 10.650346541774638 ], [ -85.419392635304334, 10.648553300044536 ], [ -85.416419225939862, 10.646284925890217 ], [ -85.418595638979824, 10.6422079831534 ], [ -85.417251002177665, 10.636370494118554 ], [ -85.418407935534987, 10.634914997314137 ], [ -85.422961028102648, 10.631332235949429 ], [ -85.424686113168733, 10.63020831689122 ], [ -85.403882607121673, 10.59775765400167 ], [ -85.4285506449054, 10.579823706992244 ], [ -85.454314927356094, 10.614474600234768 ], [ -85.4621865050498, 10.611963292605948 ] ] ] } }
]
}
