{
"type": "FeatureCollection",
"name": "Respiro",
"crs": { "type": "name", "properties": { "name": "urn:ogc:def:crs:OGC:1.3:CRS84" } },
"features": [
{ "type": "Feature", "properties": { "fid": 93 }, "geometry": { "type": "MultiPolygon", "coordinates": [ [ [ [ -84.116745357164703, 9.936139924660246 ], [ -84.116656300906413, 9.936697660309306 ], [ -84.116650365010116, 9.937214083286873 ], [ -84.116792826521177, 9.938537788160408 ], [ -84.117018390580341, 9.939653736663658 ], [ -84.117154916195105, 9.941024928707543 ], [ -84.117065877750704, 9.94204590287009 ], [ -84.116839623664561, 9.942839000351546 ], [ -84.116584181521347, 9.943275239579899 ], [ -84.11565244222129, 9.944231065560441 ], [ -84.114493838695637, 9.945116870432638 ], [ -84.113835739051581, 9.9454667966444 ], [ -84.113682416863185, 9.945435299653896 ], [ -84.113388703440464, 9.945088976252929 ], [ -84.113345890805817, 9.944778023804389 ], [ -84.113070989063885, 9.94463685183892 ], [ -84.112137344893412, 9.945132607271313 ], [ -84.111741378775079, 9.945049466394794 ], [ -84.111294272659791, 9.944892294580338 ], [ -84.110981584049469, 9.944948556157797 ], [ -84.110828846293373, 9.944978847108727 ], [ -84.110572833533325, 9.945126006749904 ], [ -84.110341167218635, 9.94509956934208 ], [ -84.11008882022827, 9.944901481059409 ], [ -84.11010900729427, 9.944521171624638 ], [ -84.110178529055503, 9.94386338880688 ], [ -84.110171346721785, 9.943866212486721 ], [ -84.109722068768221, 9.943688892910419 ], [ -84.10941999890504, 9.943684866391484 ], [ -84.109188584922038, 9.943705610616147 ], [ -84.108897822393544, 9.94382929453336 ], [ -84.10846625893322, 9.9439853695335 ], [ -84.108246888504254, 9.943902009758331 ], [ -84.108042444188172, 9.94366962651419 ], [ -84.107798557872002, 9.943597974017058 ], [ -84.10744847987128, 9.943777555249518 ], [ -84.107148069338947, 9.943843312338311 ], [ -84.10669555044197, 9.943815020068769 ], [ -84.106465401377164, 9.943662996918322 ], [ -84.106144112160678, 9.943440276384125 ], [ -84.105709463858631, 9.943918286882118 ], [ -84.105485869460054, 9.944157711221212 ], [ -84.105587410873127, 9.944048980922647 ], [ -84.108384629420925, 9.945699447038969 ], [ -84.108794254439402, 9.946026911697036 ], [ -84.110093313182105, 9.94777356575532 ], [ -84.111144531797976, 9.949531910268725 ], [ -84.111309790784318, 9.950229536985756 ], [ -84.111376321153031, 9.950917099881288 ], [ -84.111180436575339, 9.952935304621207 ], [ -84.110399461403858, 9.952790708177204 ], [ -84.108083663775801, 9.952297465727835 ], [ -84.106522507920516, 9.951844236507167 ], [ -84.10378430979317, 9.950857740918352 ], [ -84.102143796313285, 9.950194433526935 ], [ -84.100865355993477, 9.949633660171973 ], [ -84.098442003128682, 9.949035420756132 ], [ -84.095598708803919, 9.948340920889748 ], [ -84.094017758137852, 9.948136561560551 ], [ -84.092418374465367, 9.947827480249412 ], [ -84.092110721781225, 9.947772810198197 ], [ -84.091302201824121, 9.94787876393921 ], [ -84.09030141594873, 9.947864686114984 ], [ -84.089201255008746, 9.947498239958021 ], [ -84.08890212619491, 9.947414067339865 ], [ -84.088934643549024, 9.946940064300136 ], [ -84.088923784211062, 9.946249273093528 ], [ -84.087951394415697, 9.945585853613972 ], [ -84.086903466230339, 9.945314663875083 ], [ -84.086446550216777, 9.945080093411192 ], [ -84.085698531949234, 9.944666313963479 ], [ -84.085362808312283, 9.944695153009313 ], [ -84.085191509512597, 9.944372089157397 ], [ -84.085264635797259, 9.944154316526109 ], [ -84.085361147794487, 9.943913959808922 ], [ -84.085524858472866, 9.943743157461977 ], [ -84.085928875988017, 9.943839390299132 ], [ -84.086229181724647, 9.943911950965557 ], [ -84.086586997492518, 9.944054199270719 ], [ -84.086862714636055, 9.944229721991338 ], [ -84.087138458328326, 9.944371906107373 ], [ -84.087509447159533, 9.944433642885604 ], [ -84.087822383534046, 9.944390516296526 ], [ -84.088227532641156, 9.944499319620659 ], [ -84.088282058022585, 9.94474162999251 ], [ -84.088606366081365, 9.944733686213526 ], [ -84.089024723620838, 9.944715925811582 ], [ -84.089243511055301, 9.944810175760283 ], [ -84.089473118539956, 9.944916158792855 ], [ -84.089715825914524, 9.945033876631502 ], [ -84.0899699860136, 9.945082807296513 ], [ -84.090295496736928, 9.944994483289392 ], [ -84.090656450840754, 9.944768735751811 ], [ -84.090995104915862, 9.944635216457886 ], [ -84.091355399416798, 9.944524174293703 ], [ -84.091667738118247, 9.944516359557404 ], [ -84.091826477623712, 9.944874585219056 ], [ -84.091821028392616, 9.94528862694718 ], [ -84.091886296474669, 9.945646640394045 ], [ -84.092244196935567, 9.945684911840262 ], [ -84.092524173492322, 9.94551603035624 ], [ -84.092774120276431, 9.9451157348928 ], [ -84.093008553390291, 9.944877316495578 ], [ -84.093210624028032, 9.94447599570721 ], [ -84.093340748027657, 9.944247386865621 ], [ -84.093630279556166, 9.944251136680229 ], [ -84.0939503239278, 9.944600441805576 ], [ -84.094356204252165, 9.944501296735867 ], [ -84.094906534484238, 9.944070429430086 ], [ -84.094991053011441, 9.943852521843782 ], [ -84.09513374044883, 9.943589594456219 ], [ -84.095194346910191, 9.943337482956867 ], [ -84.095292023003239, 9.94325964870943 ], [ -84.095114933255928, 9.941636326025815 ], [ -84.095114933255928, 9.940900274885376 ], [ -84.096480189403522, 9.940793428752086 ], [ -84.097045284084643, 9.93679511732911 ], [ -84.095233651181857, 9.937065685879526 ], [ -84.095269266559612, 9.936448352664963 ], [ -84.092230087657143, 9.936282147568736 ], [ -84.088383626858715, 9.935807275865224 ], [ -84.088264908932842, 9.935688557939347 ], [ -84.084786473704625, 9.935344275954304 ], [ -84.084801580135419, 9.934634416426166 ], [ -84.0848139409282, 9.934576577244872 ], [ -84.088009665392221, 9.934851596561915 ], [ -84.088092767940338, 9.933878109569719 ], [ -84.090674882828168, 9.934121481317767 ], [ -84.093007690071659, 9.934347045376935 ], [ -84.095198035804103, 9.934525122265752 ], [ -84.098135015914281, 9.934818820276771 ], [ -84.098138806588295, 9.934854633467278 ], [ -84.098098626837071, 9.934475026811386 ], [ -84.098056098931366, 9.934186533846022 ], [ -84.098072386125978, 9.933748909364462 ], [ -84.098078431437983, 9.933288816322651 ], [ -84.09811027933992, 9.932621507805123 ], [ -84.098124726057392, 9.932357495714252 ], [ -84.098141004032627, 9.931931878759285 ], [ -84.098260921143833, 9.931622598809398 ], [ -84.098364716768614, 9.930771982630915 ], [ -84.098580552735697, 9.930233219147544 ], [ -84.098642379729526, 9.929866401742817 ], [ -84.09879886538161, 9.929430717212389 ], [ -84.098803761012832, 9.928982207172785 ], [ -84.09890448925772, 9.928419061289059 ], [ -84.099029895711126, 9.927626238118274 ], [ -84.099080324141553, 9.927258282222404 ], [ -84.099109112505175, 9.926867708149059 ], [ -84.099137391794486, 9.926395765592508 ], [ -84.099166188677998, 9.925993607899628 ], [ -84.099193811294967, 9.925637360185737 ], [ -84.099454314685772, 9.925567908546199 ], [ -84.09993830162378, 9.925395497892302 ], [ -84.100235361296583, 9.925215886438588 ], [ -84.100888365875662, 9.925374579844743 ], [ -84.101689620613044, 9.925436755222789 ], [ -84.102008413062137, 9.925153046303373 ], [ -84.102233728918293, 9.924882971821116 ], [ -84.102750420388077, 9.925182543933387 ], [ -84.102957550437097, 9.925615668361916 ], [ -84.103557368524193, 9.926028310624368 ], [ -84.103973439687934, 9.925984395103253 ], [ -84.104447123921844, 9.925869888434422 ], [ -84.105025053496135, 9.925822415043669 ], [ -84.105330407758927, 9.925988054211105 ], [ -84.105672195457771, 9.926210789848014 ], [ -84.106018358420769, 9.926687521100547 ], [ -84.10623193896491, 9.926878380125853 ], [ -84.106499168063394, 9.926964459287685 ], [ -84.106788741343124, 9.926888665466524 ], [ -84.107094976022253, 9.926627685988993 ], [ -84.107353622505784, 9.926760658011327 ], [ -84.107360228965973, 9.927082603598803 ], [ -84.107439694339348, 9.927530184718304 ], [ -84.107978110620891, 9.927748536968698 ], [ -84.108225326879833, 9.927927552305787 ], [ -84.108785435117852, 9.928098877588159 ], [ -84.108896191523584, 9.927831401472588 ], [ -84.108990534970175, 9.927403720251862 ], [ -84.109121329512064, 9.927008696713621 ], [ -84.109426695495515, 9.927162607054798 ], [ -84.109594064529531, 9.927424063370465 ], [ -84.109917739136037, 9.927878172365727 ], [ -84.110260866815295, 9.928227335443937 ], [ -84.110960316425434, 9.928406947860411 ], [ -84.11164752905897, 9.928564654278111 ], [ -84.112094459838062, 9.928808222121226 ], [ -84.112454330547948, 9.928857349482007 ], [ -84.112660280992671, 9.928964244971711 ], [ -84.111659400554785, 9.934104581371052 ], [ -84.113810852177366, 9.936077951765267 ], [ -84.11512211314519, 9.936261027513929 ], [ -84.116745357164703, 9.936139924660246 ] ] ] ] } }
]
}
