{
"type": "FeatureCollection",
"name": "san_joaquin_1500m",
"crs": { "type": "name", "properties": { "name": "urn:ogc:def:crs:OGC:1.3:CRS84" } },
"features": [
{ "type": "Feature", "properties": { "NOMBRE": "San Joaquin Comercial buffer 1,5 km" }, "geometry": { "type": "MultiPolygon", "coordinates": [ [ [ [ -84.155046540091348, 10.018548465851051 ], [ -84.15237704714184, 10.018289542062533 ], [ -84.149810153683717, 10.017522722205515 ], [ -84.14744451448145, 10.016277478189812 ], [ -84.145371046727007, 10.014601669211055 ], [ -84.143669435076646, 10.012559701761017 ], [ -84.142405069041914, 10.010230053593757 ], [ -84.141626530485311, 10.007702256941874 ], [ -84.141363727716879, 10.005073457057556 ], [ -84.14162674773344, 10.002444678451321 ], [ -84.142405470464112, 9.999916942394293 ], [ -84.143669959560029, 9.997587384913642 ], [ -84.145371614423738, 9.995545524435753 ], [ -84.147445038964847, 9.993869822429149 ], [ -84.14981055510593, 9.99262466910006 ], [ -84.152377264389955, 9.991857909837902 ], [ -84.155046540091348, 9.991599007327466 ], [ -84.157715815792741, 9.991857909837902 ], [ -84.160282525076767, 9.99262466910006 ], [ -84.162648041217849, 9.993869822429149 ], [ -84.164721465758959, 9.995545524435753 ], [ -84.166423120622667, 9.997587384913642 ], [ -84.167687609718584, 9.999916942394293 ], [ -84.16846633244927, 10.002444678451321 ], [ -84.168729352465832, 10.005073457057556 ], [ -84.168466549697385, 10.007702256941874 ], [ -84.167688011140797, 10.010230053593757 ], [ -84.16642364510605, 10.012559701761017 ], [ -84.164722033455689, 10.014601669211055 ], [ -84.162648565701247, 10.016277478189812 ], [ -84.160282926498979, 10.017522722205515 ], [ -84.15771603304087, 10.018289542062533 ], [ -84.155046540091348, 10.018548465851051 ] ] ] ] } }
]
}
